{
    "country": "Bulgaria",
    "country_code": "BG",
    "isSEPAcountry": true,
    "ISO_3166_1": { "name": "Bulgaria" , "name_fr": "Bulgarie (la)" , "alpha2": "BG" , "alpha3": "BGR" , "numeric": 100 },
    "list": [
{"id":6091,"swift_code":"IORTBGSFXXX","bank_code":6091,"bank":"INVESTBANK PLC - PAZARDZHIK BRANCH","zip":"1404","city":" SOFIA","address":"83A BULGARIA, BLVD.","support_codes":1},
{"id":7000,"swift_code":"UNCRBGSFXXX","bank_code":7000,"bank":"UNICREDIT BULBANK AD - CENTRALIZED SYSTEM BRANCH","zip":"1000","city":" SOFIA","address":"7 SVETA NEDELYA SQUARE","support_codes":9},
{"id":7001,"swift_code":"BUINBGSFXXX","bank_code":7001,"bank":"ALLIANZ BANK BULGARIA AD - VELIKO TARNOVO BRANCH","zip":"1202","city":" SOFIA","address":"79 MARIA LOUISA BOULEVARD","support_codes":1},
{"id":7002,"swift_code":"BUINBGSFXXX","bank_code":7002,"bank":"ALLIANZ BANK BULGARIA AD - SLIVEN BRANCH","zip":"1202","city":" SOFIA","address":"79 MARIA LOUISA BOULEVARD","support_codes":1},
{"id":7003,"swift_code":"BUINBGSFXXX","bank_code":7003,"bank":"ALLIANZ BANK BULGARIA AD - KYUSTENDIL BRANCH","zip":"1202","city":" SOFIA","address":"79 MARIA LOUISA BOULEVARD","support_codes":1},
{"id":7004,"swift_code":"BUINBGSFXXX","bank_code":7004,"bank":"ALLIANZ BANK BULGARIA AD - VIDIN BRANCH","zip":"1202","city":" SOFIA","address":"79 MARIA LOUISA BOULEVARD","support_codes":1},
{"id":7005,"swift_code":"BUINBGSFXXX","bank_code":7005,"bank":"ALLIANZ BANK BULGARIA AD - DIMITROVGRAD BRANCH","zip":"1202","city":" SOFIA","address":"79 MARIA LOUISA BOULEVARD","support_codes":1},
{"id":7006,"swift_code":"BUINBGSFXXX","bank_code":7006,"bank":"ALLIANZ BANK BULGARIA AD - VARNA BRANCH","zip":"1202","city":" SOFIA","address":"79 MARIA LOUISA BOULEVARD","support_codes":1},
{"id":7007,"swift_code":"BUINBGSFXXX","bank_code":7007,"bank":"ALLIANZ BANK BULGARIA AD - ROUSSE BRANCH","zip":"1202","city":" SOFIA","address":"79 MARIA LOUISA BOULEVARD","support_codes":1},
{"id":7008,"swift_code":"BUINBGSFXXX","bank_code":7008,"bank":"ALLIANZ BANK BULGARIA AD - TARGOVISHTE BRANCH","zip":"1202","city":" SOFIA","address":"79 MARIA LOUISA BOULEVARD","support_codes":1},
{"id":7009,"swift_code":"BUINBGSFXXX","bank_code":7009,"bank":"ALLIANZ BANK BULGARIA AD - PLOVDIV BRANCH","zip":"1202","city":" SOFIA","address":"79 MARIA LOUISA BOULEVARD","support_codes":1},
{"id":7014,"swift_code":"BUINBGSFXXX","bank_code":7014,"bank":"ALLIANZ BANK BULGARIA AD - SHUMEN BRANCH","zip":"1202","city":" SOFIA","address":"79 MARIA LOUISA BOULEVARD","support_codes":1},
{"id":7015,"swift_code":"BUINBGSFXXX","bank_code":7015,"bank":"ALLIANZ BANK BULGARIA AD - PLEVEN BRANCH","zip":"1202","city":" SOFIA","address":"79 MARIA LOUISA BOULEVARD","support_codes":1},
{"id":7067,"swift_code":"BUINBGSFXXX","bank_code":7067,"bank":"ALLIANZ BANK BULGARIA AD - SEVLIEVO BRANCH","zip":"1202","city":" SOFIA","address":"79 MARIA LOUISA BOULEVARD","support_codes":1},
{"id":7068,"swift_code":"BUINBGSFXXX","bank_code":7068,"bank":"ALLIANZ BANK BULGARIA AD - DUPNITSA BRANCH","zip":"1202","city":" SOFIA","address":"79 MARIA LOUISA BOULEVARD","support_codes":1},
{"id":7069,"swift_code":"BUINBGSFXXX","bank_code":7069,"bank":"ALLIANZ BANK BULGARIA AD - SILISTRA BRANCH","zip":"1202","city":" SOFIA","address":"79 MARIA LOUISA BOULEVARD","support_codes":1},
{"id":7070,"swift_code":"UBBSBGSFXXX","bank_code":7070,"bank":"UNITED BULGARIAN BANK AD - VARNA BRANCH","zip":"1040","city":" SOFIA","address":"UNITED BULGARIAN BANK 5 SVETA SOFIA STREET","support_codes":1},
{"id":7082,"swift_code":"BUINBGSFXXX","bank_code":7082,"bank":"ALLIANZ BANK BULGARIA AD - DOBRICH BRANCH","zip":"1202","city":" SOFIA","address":"79 MARIA LOUISA BOULEVARD","support_codes":1},
{"id":7093,"swift_code":"IABGBGSFXXX","bank_code":7093,"bank":"INTERNATIONAL ASSET BANK AD - TARGOVISHTE BRANCH","zip":"1303","city":" SOFIA","address":"TODOR ALEXANDROV BLVD. 81-83","support_codes":1},
{"id":7094,"swift_code":"IABGBGSFXXX","bank_code":7094,"bank":"INTERNATIONAL ASSET BANK AD - YAMBOL BRANCH","zip":"1303","city":" SOFIA","address":"TODOR ALEXANDROV BLVD. 81-83","support_codes":1},
{"id":7095,"swift_code":"IABGBGSFXXX","bank_code":7095,"bank":"INTERNATIONAL ASSET BANK AD - PLOVDIV BRANCH","zip":"1303","city":" SOFIA","address":"TODOR ALEXANDROV BLVD. 81-83","support_codes":1},
{"id":7096,"swift_code":"IABGBGSFXXX","bank_code":7096,"bank":"INTERNATIONAL ASSET BANK AD - PAZARDZHIK BRANCH","zip":"1303","city":" SOFIA","address":"TODOR ALEXANDROV BLVD. 81-83","support_codes":1},
{"id":7097,"swift_code":"IABGBGSFXXX","bank_code":7097,"bank":"INTERNATIONAL ASSET BANK AD - HASKOVO BRANCH","zip":"1303","city":" SOFIA","address":"TODOR ALEXANDROV BLVD. 81-83","support_codes":1},
{"id":7115,"swift_code":"BPBIBGSFXXX","bank_code":7115,"bank":"EUROBANK BULGARIA AD - SILISTRA BRANCH","zip":"1766","city":" SOFIA","address":"260 OKOLOVRASTEN PAT STR.","support_codes":1},
{"id":7122,"swift_code":"UBBSBGSFXXX","bank_code":7122,"bank":"UNITED BULGARIAN BANK AD - BYALA SLATINA BRANCH","zip":"1040","city":" SOFIA","address":"UNITED BULGARIAN BANK 5 SVETA SOFIA STREET","support_codes":1},
{"id":7125,"swift_code":"UBBSBGSFXXX","bank_code":7125,"bank":"UNITED BULGARIAN BANK AD - KAZANLAK BRANCH","zip":"1040","city":" SOFIA","address":"UNITED BULGARIAN BANK 5 SVETA SOFIA STREET","support_codes":1},
{"id":7126,"swift_code":"UBBSBGSFXXX","bank_code":7126,"bank":"UNITED BULGARIAN BANK AD - ORYAHOVO BRANCH","zip":"1040","city":" SOFIA","address":"UNITED BULGARIAN BANK 5 SVETA SOFIA STREET","support_codes":1},
{"id":7142,"swift_code":"UBBSBGSFXXX","bank_code":7142,"bank":"UNITED BULGARIAN BANK AD - DRYANOVO BRANCH","zip":"1040","city":" SOFIA","address":"UNITED BULGARIAN BANK 5 SVETA SOFIA STREET","support_codes":1},
{"id":7145,"swift_code":"BUINBGSFXXX","bank_code":7145,"bank":"ALLIANZ BANK BULGARIA AD - KAZANLAK BRANCH","zip":"1202","city":" SOFIA","address":"79 MARIA LOUISA BOULEVARD","support_codes":1},
{"id":7207,"swift_code":"UBBSBGSFXXX","bank_code":7207,"bank":"UNITED BULGARIAN BANK AD - APRILTSI BRANCH","zip":"1040","city":" SOFIA","address":"UNITED BULGARIAN BANK 5 SVETA SOFIA STREET","support_codes":1},
{"id":7220,"swift_code":"BUINBGSFXXX","bank_code":7220,"bank":"ALLIANZ BANK BULGARIA AD - JOURNALIST BRANCH","zip":"1202","city":" SOFIA","address":"79 MARIA LOUISA BOULEVARD","support_codes":1},
{"id":7222,"swift_code":"UBBSBGSFXXX","bank_code":7222,"bank":"UNITED BULGARIAN BANK AD - BERKOVITSA BRANCH","zip":"1040","city":" SOFIA","address":"UNITED BULGARIAN BANK 5 SVETA SOFIA STREET","support_codes":1},
{"id":7224,"swift_code":"UBBSBGSFXXX","bank_code":7224,"bank":"UNITED BULGARIAN BANK AD - LOM BRANCH","zip":"1040","city":" SOFIA","address":"UNITED BULGARIAN BANK 5 SVETA SOFIA STREET","support_codes":1},
{"id":7242,"swift_code":"UBBSBGSFXXX","bank_code":7242,"bank":"UNITED BULGARIAN BANK AD - BATAK BRANCH","zip":"1040","city":" SOFIA","address":"UNITED BULGARIAN BANK 5 SVETA SOFIA STREET","support_codes":1},
{"id":7243,"swift_code":"UBBSBGSFXXX","bank_code":7243,"bank":"UNITED BULGARIAN BANK AD - BELOVO BRANCH","zip":"1040","city":" SOFIA","address":"UNITED BULGARIAN BANK 5 SVETA SOFIA STREET","support_codes":1},
{"id":7250,"swift_code":"BUINBGSFXXX","bank_code":7250,"bank":"ALLIANZ BANK BULGARIA AD - PAZARDZHIK BRANCH","zip":"1202","city":" SOFIA","address":"79 MARIA LOUISA BOULEVARD","support_codes":1},
{"id":7267,"swift_code":"UBBSBGSFXXX","bank_code":7267,"bank":"UNITED BULGARIAN BANK AD - VIDIN BRANCH","zip":"1040","city":" SOFIA","address":"UNITED BULGARIAN BANK 5 SVETA SOFIA STREET","support_codes":1},
{"id":7268,"swift_code":"UBBSBGSFXXX","bank_code":7268,"bank":"UNITED BULGARIAN BANK AD - TETEVEN BRANCH","zip":"1040","city":" SOFIA","address":"UNITED BULGARIAN BANK 5 SVETA SOFIA STREET","support_codes":1},
{"id":7269,"swift_code":"UBBSBGSFXXX","bank_code":7269,"bank":"UNITED BULGARIAN BANK AD - SILISTRA BRANCH","zip":"1040","city":" SOFIA","address":"UNITED BULGARIAN BANK 5 SVETA SOFIA STREET","support_codes":1},
{"id":7270,"swift_code":"UBBSBGSFXXX","bank_code":7270,"bank":"UNITED BULGARIAN BANK AD - KYUSTENDIL BRANCH","zip":"1040","city":" SOFIA","address":"UNITED BULGARIAN BANK 5 SVETA SOFIA STREET","support_codes":1},
{"id":7282,"swift_code":"UBBSBGSFXXX","bank_code":7282,"bank":"UNITED BULGARIAN BANK AD - LEVSKI BRANCH","zip":"1040","city":" SOFIA","address":"UNITED BULGARIAN BANK 5 SVETA SOFIA STREET","support_codes":1},
{"id":7284,"swift_code":"UBBSBGSFXXX","bank_code":7284,"bank":"UNITED BULGARIAN BANK AD - GORNA ORYAHOVITSA BRANCH","zip":"1040","city":" SOFIA","address":"UNITED BULGARIAN BANK 5 SVETA SOFIA STREET","support_codes":1},
{"id":7342,"swift_code":"UBBSBGSFXXX","bank_code":7342,"bank":"UNITED BULGARIAN BANK AD - BYALA BRANCH","zip":"1040","city":" SOFIA","address":"UNITED BULGARIAN BANK 5 SVETA SOFIA STREET","support_codes":1},
{"id":7343,"swift_code":"UBBSBGSFXXX","bank_code":7343,"bank":"UNITED BULGARIAN BANK AD - DVE MOGILI BRANCH","zip":"1040","city":" SOFIA","address":"UNITED BULGARIAN BANK 5 SVETA SOFIA STREET","support_codes":1},
{"id":7368,"swift_code":"UBBSBGSFXXX","bank_code":7368,"bank":"UNITED BULGARIAN BANK AD - YAMBOL BRANCH","zip":"1040","city":" SOFIA","address":"UNITED BULGARIAN BANK 5 SVETA SOFIA STREET","support_codes":1},
{"id":7369,"swift_code":"UBBSBGSFXXX","bank_code":7369,"bank":"UNITED BULGARIAN BANK AD - DOBRICH BRANCH","zip":"1040","city":" SOFIA","address":"UNITED BULGARIAN BANK 5 SVETA SOFIA STREET","support_codes":1},
{"id":7370,"swift_code":"UBBSBGSFXXX","bank_code":7370,"bank":"UNITED BULGARIAN BANK AD - RAZGRAD BRANCH","zip":"1040","city":" SOFIA","address":"UNITED BULGARIAN BANK 5 SVETA SOFIA STREET","support_codes":1},
{"id":7371,"swift_code":"IORTBGSFXXX","bank_code":7371,"bank":"INVESTBANK PLC - SOFIA BRANCH ","zip":"1404","city":" SOFIA","address":"83A BULGARIA, BLVD.","support_codes":1},
{"id":7373,"swift_code":"IORTBGSFXXX","bank_code":7373,"bank":"INVESTBANK PLC - VIDIN BRANCH ","zip":"1404","city":" SOFIA","address":"83A BULGARIA, BLVD.","support_codes":1},
{"id":7375,"swift_code":"IORTBGSFXXX","bank_code":7375,"bank":"INVESTBANK PLC - PLOVDIV BRANCH ","zip":"1404","city":" SOFIA","address":"83A BULGARIA, BLVD.","support_codes":1},
{"id":7376,"swift_code":"IORTBGSFXXX","bank_code":7376,"bank":"INVESTBANK PLC - STARA ZAGORA BRANCH ","zip":"1404","city":" SOFIA","address":"83A BULGARIA, BLVD.","support_codes":1},
{"id":7377,"swift_code":"IORTBGSFXXX","bank_code":7377,"bank":"INVESTBANK PLC - VARNA BRANCH ","zip":"1404","city":" SOFIA","address":"83A BULGARIA, BLVD.","support_codes":1},
{"id":7378,"swift_code":"IORTBGSFXXX","bank_code":7378,"bank":"INVESTBANK PLC - BOURGAS BRANCH ","zip":"1404","city":" SOFIA","address":"83A BULGARIA, BLVD.","support_codes":1},
{"id":7379,"swift_code":"IORTBGSFXXX","bank_code":7379,"bank":"INVESTBANK PLC - ROUSSE BRANCH ","zip":"1404","city":" SOFIA","address":"83A BULGARIA, BLVD.","support_codes":1},
{"id":7380,"swift_code":"IORTBGSFXXX","bank_code":7380,"bank":"INVESTBANK PLC - PLEVEN BRANCH ","zip":"1404","city":" SOFIA","address":"83A BULGARIA, BLVD.","support_codes":1},
{"id":7426,"swift_code":"UBBSBGSFXXX","bank_code":7426,"bank":"UNITED BULGARIAN BANK AD - KOZLODUY BRANCH","zip":"1040","city":" SOFIA","address":"UNITED BULGARIAN BANK 5 SVETA SOFIA STREET","support_codes":1},
{"id":7428,"swift_code":"UBBSBGSFXXX","bank_code":7428,"bank":"UNITED BULGARIAN BANK AD - SHIPKA BRANCH","zip":"1040","city":" SOFIA","address":"UNITED BULGARIAN BANK 5 SVETA SOFIA STREET","support_codes":1},
{"id":7431,"swift_code":"IABGBGSFXXX","bank_code":7431,"bank":"INTERNATIONAL ASSET BANK AD - VELIKO TARNOVO BRANCH","zip":"1303","city":" SOFIA","address":"TODOR ALEXANDROV BLVD. 81-83","support_codes":1},
{"id":7432,"swift_code":"IABGBGSFXXX","bank_code":7432,"bank":"INTERNATIONAL ASSET BANK AD - SOFIA BRANCH","zip":"1303","city":" SOFIA","address":"TODOR ALEXANDROV BLVD. 81-83","support_codes":1},
{"id":7433,"swift_code":"IABGBGSFXXX","bank_code":7433,"bank":"INTERNATIONAL ASSET BANK AD - STARA ZAGORA BRANCH","zip":"1303","city":" SOFIA","address":"TODOR ALEXANDROV BLVD. 81-83","support_codes":1},
{"id":7444,"swift_code":"BUINBGSFXXX","bank_code":7444,"bank":"ALLIANZ BANK BULGARIA AD - EUROPE BRANCH","zip":"1202","city":" SOFIA","address":"79 MARIA LOUISA BOULEVARD","support_codes":1},
{"id":7456,"swift_code":"IABGBGSFXXX","bank_code":7456,"bank":"INTERNATIONAL ASSET BANK AD - LOVECH BRANCH","zip":"1303","city":" SOFIA","address":"TODOR ALEXANDROV BLVD. 81-83","support_codes":1},
{"id":7458,"swift_code":"IABGBGSFXXX","bank_code":7458,"bank":"INTERNATIONAL ASSET BANK AD - BLAGOEVGRAD BRANCH","zip":"1303","city":" SOFIA","address":"TODOR ALEXANDROV BLVD. 81-83","support_codes":1},
{"id":7459,"swift_code":"IABGBGSFXXX","bank_code":7459,"bank":"INTERNATIONAL ASSET BANK AD - SILISTRA BRANCH","zip":"1303","city":" SOFIA","address":"TODOR ALEXANDROV BLVD. 81-83","support_codes":1},
{"id":7460,"swift_code":"IABGBGSFXXX","bank_code":7460,"bank":"INTERNATIONAL ASSET BANK AD - RAZGRAD BRANCH","zip":"1303","city":" SOFIA","address":"TODOR ALEXANDROV BLVD. 81-83","support_codes":1},
{"id":7470,"swift_code":"BUINBGSFXXX","bank_code":7470,"bank":"ALLIANZ BANK BULGARIA AD - VRATSA BRANCH","zip":"1202","city":" SOFIA","address":"79 MARIA LOUISA BOULEVARD","support_codes":1},
{"id":7471,"swift_code":"IABGBGSFXXX","bank_code":7471,"bank":"INTERNATIONAL ASSET BANK AD - ROUSSE BRANCH","zip":"1303","city":" SOFIA","address":"TODOR ALEXANDROV BLVD. 81-83","support_codes":1},
{"id":7473,"swift_code":"IABGBGSFXXX","bank_code":7473,"bank":"INTERNATIONAL ASSET BANK AD - PLEVEN BRANCH","zip":"1303","city":" SOFIA","address":"TODOR ALEXANDROV BLVD. 81-83","support_codes":1},
{"id":7474,"swift_code":"IABGBGSFXXX","bank_code":7474,"bank":"INTERNATIONAL ASSET BANK AD - MONTANA BRANCH","zip":"1303","city":" SOFIA","address":"TODOR ALEXANDROV BLVD. 81-83","support_codes":1},
{"id":7475,"swift_code":"IABGBGSFXXX","bank_code":7475,"bank":"INTERNATIONAL ASSET BANK AD - BOURGAS BRANCH","zip":"1303","city":" SOFIA","address":"TODOR ALEXANDROV BLVD. 81-83","support_codes":1},
{"id":7477,"swift_code":"IABGBGSFXXX","bank_code":7477,"bank":"INTERNATIONAL ASSET BANK AD - SHUMEN BRANCH","zip":"1303","city":" SOFIA","address":"TODOR ALEXANDROV BLVD. 81-83","support_codes":1},
{"id":7478,"swift_code":"IABGBGSFXXX","bank_code":7478,"bank":"INTERNATIONAL ASSET BANK AD - PERNIK BRANCH","zip":"1303","city":" SOFIA","address":"TODOR ALEXANDROV BLVD. 81-83","support_codes":1},
{"id":7479,"swift_code":"IABGBGSFXXX","bank_code":7479,"bank":"INTERNATIONAL ASSET BANK AD - VARNA BRANCH","zip":"1303","city":" SOFIA","address":"TODOR ALEXANDROV BLVD. 81-83","support_codes":1},
{"id":7488,"swift_code":"IABGBGSFXXX","bank_code":7488,"bank":"INTERNATIONAL ASSET BANK AD - SLIVEN BRANCH","zip":"1303","city":" SOFIA","address":"TODOR ALEXANDROV BLVD. 81-83","support_codes":1},
{"id":7490,"swift_code":"IABGBGSFXXX","bank_code":7490,"bank":"INTERNATIONAL ASSET BANK AD - KYUSTENDIL BRANCH","zip":"1303","city":" SOFIA","address":"TODOR ALEXANDROV BLVD. 81-83","support_codes":1},
{"id":7491,"swift_code":"IABGBGSFXXX","bank_code":7491,"bank":"INTERNATIONAL ASSET BANK AD - SMOLYAN BRANCH","zip":"1303","city":" SOFIA","address":"TODOR ALEXANDROV BLVD. 81-83","support_codes":1},
{"id":7494,"swift_code":"IABGBGSFXXX","bank_code":7494,"bank":"INTERNATIONAL ASSET BANK AD - VRATSA BRANCH","zip":"1303","city":" SOFIA","address":"TODOR ALEXANDROV BLVD. 81-83","support_codes":1},
{"id":7495,"swift_code":"IABGBGSFXXX","bank_code":7495,"bank":"INTERNATIONAL ASSET BANK AD - DOBRICH BRANCH","zip":"1303","city":" SOFIA","address":"TODOR ALEXANDROV BLVD. 81-83","support_codes":1},
{"id":7496,"swift_code":"IABGBGSFXXX","bank_code":7496,"bank":"INTERNATIONAL ASSET BANK AD - VIDIN BRANCH","zip":"1303","city":" SOFIA","address":"TODOR ALEXANDROV BLVD. 81-83","support_codes":1},
{"id":7497,"swift_code":"IABGBGSFXXX","bank_code":7497,"bank":"INTERNATIONAL ASSET BANK AD - KARDZHALI BRANCH","zip":"1303","city":" SOFIA","address":"TODOR ALEXANDROV BLVD. 81-83","support_codes":1},
{"id":7498,"swift_code":"IABGBGSFXXX","bank_code":7498,"bank":"INTERNATIONAL ASSET BANK AD - GABROVO BRANCH","zip":"1303","city":" SOFIA","address":"TODOR ALEXANDROV BLVD. 81-83","support_codes":1},
{"id":7504,"swift_code":"UBBSBGSFXXX","bank_code":7504,"bank":"UNITED BULGARIAN BANK AD - BLAGOEVGRAD BRANCH","zip":"1040","city":" SOFIA","address":"UNITED BULGARIAN BANK 5 SVETA SOFIA STREET","support_codes":1},
{"id":7523,"swift_code":"UBBSBGSFXXX","bank_code":7523,"bank":"UNITED BULGARIAN BANK AD - LYUBIMETS BRANCH","zip":"1040","city":" SOFIA","address":"UNITED BULGARIAN BANK 5 SVETA SOFIA STREET","support_codes":1},
{"id":7525,"swift_code":"UBBSBGSFXXX","bank_code":7525,"bank":"UNITED BULGARIAN BANK AD - SVILENGRAD BRANCH","zip":"1040","city":" SOFIA","address":"UNITED BULGARIAN BANK 5 SVETA SOFIA STREET","support_codes":1},
{"id":7527,"swift_code":"UNCRBGSFXXX","bank_code":7527,"bank":"UNICREDIT BULBANK AD - HEBROS BRANCH","zip":"1000","city":" SOFIA","address":"7 SVETA NEDELYA SQUARE","support_codes":9},
{"id":7543,"swift_code":"UBBSBGSFXXX","bank_code":7543,"bank":"UNITED BULGARIAN BANK AD - VELIKI PRESLAV BRANCH","zip":"1040","city":" SOFIA","address":"UNITED BULGARIAN BANK 5 SVETA SOFIA STREET","support_codes":1},
{"id":7545,"swift_code":"BUINBGSFXXX","bank_code":7545,"bank":"ALLIANZ BANK BULGARIA AD - HASKOVO BRANCH","zip":"1202","city":" SOFIA","address":"79 MARIA LOUISA BOULEVARD","support_codes":1},
{"id":7562,"swift_code":"BUINBGSFXXX","bank_code":7562,"bank":"ALLIANZ BANK BULGARIA AD - YAMBOL BRANCH","zip":"1202","city":" SOFIA","address":"79 MARIA LOUISA BOULEVARD","support_codes":1},
{"id":7566,"swift_code":"UBBSBGSFXXX","bank_code":7566,"bank":"UNITED BULGARIAN BANK AD - SEVLIEVO BRANCH","zip":"1040","city":" SOFIA","address":"UNITED BULGARIAN BANK 5 SVETA SOFIA STREET","support_codes":1},
{"id":7604,"swift_code":"BUINBGSFXXX","bank_code":7604,"bank":"ALLIANZ BANK BULGARIA AD - KNYAGINYA MARIA LOUISA BRANCH","zip":"1202","city":" SOFIA","address":"79 MARIA LOUISA BOULEVARD","support_codes":1},
{"id":7630,"swift_code":"UNCRBGSFXXX","bank_code":7630,"bank":"UNICREDIT BULBANK AD - BULBANK BRANCH","zip":"1000","city":" SOFIA","address":"7 SVETA NEDELYA SQUARE","support_codes":9},
{"id":7648,"swift_code":"IABGBGSFXXX","bank_code":7648,"bank":"INTERNATIONAL ASSET BANK AD - SANDANSKI BRANCH","zip":"1303","city":" SOFIA","address":"TODOR ALEXANDROV BLVD. 81-83","support_codes":1},
{"id":7650,"swift_code":"BUINBGSFXXX","bank_code":7650,"bank":"ALLIANZ BANK BULGARIA AD - PRESTIGE BRANCH","zip":"1202","city":" SOFIA","address":"79 MARIA LOUISA BOULEVARD","support_codes":1},
{"id":7660,"swift_code":"BUINBGSFXXX","bank_code":7660,"bank":"ALLIANZ BANK BULGARIA AD - OPALCHENSKA BRANCH","zip":"1202","city":" SOFIA","address":"79 MARIA LOUISA BOULEVARD","support_codes":1},
{"id":7661,"swift_code":"BUINBGSFXXX","bank_code":7661,"bank":"ALLIANZ BANK BULGARIA AD - MONTANA BRANCH","zip":"1202","city":" SOFIA","address":"79 MARIA LOUISA BOULEVARD","support_codes":1},
{"id":7680,"swift_code":"BUINBGSFXXX","bank_code":7680,"bank":"ALLIANZ BANK BULGARIA AD - BLAGOEVGRAD BRANCH","zip":"1202","city":" SOFIA","address":"79 MARIA LOUISA BOULEVARD","support_codes":1},
{"id":7750,"swift_code":"BUINBGSFXXX","bank_code":7750,"bank":"ALLIANZ BANK BULGARIA AD - VLADISLAV BRANCH","zip":"1202","city":" SOFIA","address":"79 MARIA LOUISA BOULEVARD","support_codes":1},
{"id":7770,"swift_code":"BUINBGSFXXX","bank_code":7770,"bank":"ALLIANZ BANK BULGARIA AD - TROYAN BRANCH","zip":"1202","city":" SOFIA","address":"79 MARIA LOUISA BOULEVARD","support_codes":1},
{"id":7820,"swift_code":"UBBSBGSFXXX","bank_code":7820,"bank":"UNITED BULGARIAN BANK AD - FRIDTJOF NANSEN BRANCH","zip":"1040","city":" SOFIA","address":"UNITED BULGARIAN BANK 5 SVETA SOFIA STREET","support_codes":1},
{"id":7821,"swift_code":"UBBSBGSFXXX","bank_code":7821,"bank":"UNITED BULGARIAN BANK AD - PLOVDIV BRANCH","zip":"1040","city":" SOFIA","address":"UNITED BULGARIAN BANK 5 SVETA SOFIA STREET","support_codes":1},
{"id":7822,"swift_code":"UBBSBGSFXXX","bank_code":7822,"bank":"UNITED BULGARIAN BANK AD - VELIKO TARNOVO BRANCH","zip":"1040","city":" SOFIA","address":"UNITED BULGARIAN BANK 5 SVETA SOFIA STREET","support_codes":1},
{"id":7823,"swift_code":"UBBSBGSFXXX","bank_code":7823,"bank":"UNITED BULGARIAN BANK AD - BOURGAS BRANCH","zip":"1040","city":" SOFIA","address":"UNITED BULGARIAN BANK 5 SVETA SOFIA STREET","support_codes":1},
{"id":7824,"swift_code":"UBBSBGSFXXX","bank_code":7824,"bank":"UNITED BULGARIAN BANK AD - STARA ZAGORA BRANCH","zip":"1040","city":" SOFIA","address":"UNITED BULGARIAN BANK 5 SVETA SOFIA STREET","support_codes":1},
{"id":7825,"swift_code":"UBBSBGSFXXX","bank_code":7825,"bank":"UNITED BULGARIAN BANK AD - SMOLYAN BRANCH","zip":"1040","city":" SOFIA","address":"UNITED BULGARIAN BANK 5 SVETA SOFIA STREET","support_codes":1},
{"id":7826,"swift_code":"UBBSBGSFXXX","bank_code":7826,"bank":"UNITED BULGARIAN BANK AD - PRISTA BRANCH","zip":"1040","city":" SOFIA","address":"UNITED BULGARIAN BANK 5 SVETA SOFIA STREET","support_codes":1},
{"id":7827,"swift_code":"UBBSBGSFXXX","bank_code":7827,"bank":"UNITED BULGARIAN BANK AD - SVETA SOFIA BRANCH","zip":"1040","city":" SOFIA","address":"UNITED BULGARIAN BANK 5 SVETA SOFIA STREET","support_codes":1},
{"id":7828,"swift_code":"UBBSBGSFXXX","bank_code":7828,"bank":"UNITED BULGARIAN BANK AD - TROYAN BRANCH","zip":"1040","city":" SOFIA","address":"UNITED BULGARIAN BANK 5 SVETA SOFIA STREET","support_codes":1},
{"id":7855,"swift_code":"BUINBGSFXXX","bank_code":7855,"bank":"ALLIANZ BANK BULGARIA AD - BOURGAS BRANCH","zip":"1202","city":" SOFIA","address":"79 MARIA LOUISA BOULEVARD","support_codes":1},
{"id":7903,"swift_code":"BUINBGSFXXX","bank_code":7903,"bank":"ALLIANZ BANK BULGARIA AD - STARA ZAGORA BRANCH","zip":"1202","city":" SOFIA","address":"79 MARIA LOUISA BOULEVARD","support_codes":1},
{"id":7921,"swift_code":"BPBIBGSFXXX","bank_code":7921,"bank":"EUROBANK BULGARIA AD - ROUSSE BRANCH","zip":"1766","city":" SOFIA","address":"260 OKOLOVRASTEN PAT STR.","support_codes":1},
{"id":7922,"swift_code":"BPBIBGSFXXX","bank_code":7922,"bank":"EUROBANK BULGARIA AD - BLAGOEVGRAD BRANCH","zip":"1766","city":" SOFIA","address":"260 OKOLOVRASTEN PAT STR.","support_codes":1},
{"id":7923,"swift_code":"BPBIBGSFXXX","bank_code":7923,"bank":"EUROBANK BULGARIA AD - PLEVEN BRANCH","zip":"1766","city":" SOFIA","address":"260 OKOLOVRASTEN PAT STR.","support_codes":1},
{"id":7924,"swift_code":"BPBIBGSFXXX","bank_code":7924,"bank":"EUROBANK BULGARIA AD - PLOVDIV BRANCH","zip":"1766","city":" SOFIA","address":"260 OKOLOVRASTEN PAT STR.","support_codes":1},
{"id":7925,"swift_code":"BPBIBGSFXXX","bank_code":7925,"bank":"EUROBANK BULGARIA AD - KYUSTENDIL BRANCH","zip":"1766","city":" SOFIA","address":"260 OKOLOVRASTEN PAT STR.","support_codes":1},
{"id":7926,"swift_code":"BPBIBGSFXXX","bank_code":7926,"bank":"EUROBANK BULGARIA AD - HASKOVO BRANCH","zip":"1766","city":" SOFIA","address":"260 OKOLOVRASTEN PAT STR.","support_codes":1},
{"id":7927,"swift_code":"BPBIBGSFXXX","bank_code":7927,"bank":"EUROBANK BULGARIA AD - SMOLYAN BRANCH","zip":"1766","city":" SOFIA","address":"260 OKOLOVRASTEN PAT STR.","support_codes":1},
{"id":7928,"swift_code":"BPBIBGSFXXX","bank_code":7928,"bank":"EUROBANK BULGARIA AD - LOVECH BRANCH","zip":"1766","city":" SOFIA","address":"260 OKOLOVRASTEN PAT STR.","support_codes":1},
{"id":7929,"swift_code":"BPBIBGSFXXX","bank_code":7929,"bank":"EUROBANK BULGARIA AD - GABROVO BRANCH","zip":"1766","city":" SOFIA","address":"260 OKOLOVRASTEN PAT STR.","support_codes":1},
{"id":7930,"swift_code":"BPBIBGSFXXX","bank_code":7930,"bank":"EUROBANK BULGARIA AD - PAZARDZHIK BRANCH","zip":"1766","city":" SOFIA","address":"260 OKOLOVRASTEN PAT STR.","support_codes":1},
{"id":7931,"swift_code":"BPBIBGSFXXX","bank_code":7931,"bank":"EUROBANK BULGARIA AD - VELIKO TARNOVO BRANCH","zip":"1766","city":" SOFIA","address":"260 OKOLOVRASTEN PAT STR.","support_codes":1},
{"id":7932,"swift_code":"BPBIBGSFXXX","bank_code":7932,"bank":"EUROBANK BULGARIA AD - KARDZHALI BRANCH","zip":"1766","city":" SOFIA","address":"260 OKOLOVRASTEN PAT STR.","support_codes":1},
{"id":7933,"swift_code":"BPBIBGSFXXX","bank_code":7933,"bank":"EUROBANK BULGARIA AD - MONTANA BRANCH","zip":"1766","city":" SOFIA","address":"260 OKOLOVRASTEN PAT STR.","support_codes":1},
{"id":7934,"swift_code":"BPBIBGSFXXX","bank_code":7934,"bank":"EUROBANK BULGARIA AD - YAMBOL BRANCH","zip":"1766","city":" SOFIA","address":"260 OKOLOVRASTEN PAT STR.","support_codes":1},
{"id":7935,"swift_code":"BPBIBGSFXXX","bank_code":7935,"bank":"EUROBANK BULGARIA AD - STARA ZAGORA BRANCH","zip":"1766","city":" SOFIA","address":"260 OKOLOVRASTEN PAT STR.","support_codes":1},
{"id":7936,"swift_code":"BPBIBGSFXXX","bank_code":7936,"bank":"EUROBANK BULGARIA AD - SLIVEN BRANCH","zip":"1766","city":" SOFIA","address":"260 OKOLOVRASTEN PAT STR.","support_codes":1},
{"id":7937,"swift_code":"BPBIBGSFXXX","bank_code":7937,"bank":"EUROBANK BULGARIA AD - BOURGAS BRANCH","zip":"1766","city":" SOFIA","address":"260 OKOLOVRASTEN PAT STR.","support_codes":1},
{"id":7938,"swift_code":"BPBIBGSFXXX","bank_code":7938,"bank":"EUROBANK BULGARIA AD - DOBRICH BRANCH","zip":"1766","city":" SOFIA","address":"260 OKOLOVRASTEN PAT STR.","support_codes":1},
{"id":7939,"swift_code":"BPBIBGSFXXX","bank_code":7939,"bank":"EUROBANK BULGARIA AD - SOFIA BRANCH COUNTY - OFFICES","zip":"1766","city":" SOFIA","address":"260 OKOLOVRASTEN PAT STR.","support_codes":1},
{"id":7940,"swift_code":"BPBIBGSFXXX","bank_code":7940,"bank":"EUROBANK BULGARIA AD - SOFIA BRANCH","zip":"1766","city":" SOFIA","address":"260 OKOLOVRASTEN PAT STR.","support_codes":1},
{"id":7941,"swift_code":"BPBIBGSFXXX","bank_code":7941,"bank":"EUROBANK BULGARIA AD - SVISHTOV BRANCH","zip":"1766","city":" SOFIA","address":"260 OKOLOVRASTEN PAT STR.","support_codes":1},
{"id":7942,"swift_code":"BPBIBGSFXXX","bank_code":7942,"bank":"EUROBANK BULGARIA AD - SOFIA - COUNTY BRANCH ","zip":"1766","city":" SOFIA","address":"260 OKOLOVRASTEN PAT STR.","support_codes":1},
{"id":7943,"swift_code":"BPBIBGSFXXX","bank_code":7943,"bank":"EUROBANK BULGARIA AD - TARGOVISHTE BRANCH","zip":"1766","city":" SOFIA","address":"260 OKOLOVRASTEN PAT STR.","support_codes":1},
{"id":7944,"swift_code":"BPBIBGSFXXX","bank_code":7944,"bank":"EUROBANK BULGARIA AD - VRATSA BRANCH","zip":"1766","city":" SOFIA","address":"260 OKOLOVRASTEN PAT STR.","support_codes":1},
{"id":7945,"swift_code":"BPBIBGSFXXX","bank_code":7945,"bank":"EUROBANK BULGARIA AD - VARNA BRANCH","zip":"1766","city":" SOFIA","address":"260 OKOLOVRASTEN PAT STR.","support_codes":1},
{"id":7946,"swift_code":"BPBIBGSFXXX","bank_code":7946,"bank":"EUROBANK BULGARIA AD - SHUMEN BRANCH","zip":"1766","city":" SOFIA","address":"260 OKOLOVRASTEN PAT STR.","support_codes":1},
{"id":7947,"swift_code":"BPBIBGSFXXX","bank_code":7947,"bank":"EUROBANK BULGARIA AD - PERNIK BRANCH","zip":"1766","city":" SOFIA","address":"260 OKOLOVRASTEN PAT STR.","support_codes":1},
{"id":7948,"swift_code":"BPBIBGSFXXX","bank_code":7948,"bank":"EUROBANK BULGARIA AD - VIDIN BRANCH","zip":"1766","city":" SOFIA","address":"260 OKOLOVRASTEN PAT STR.","support_codes":1},
{"id":7949,"swift_code":"BPBIBGSFXXX","bank_code":7949,"bank":"EUROBANK BULGARIA AD - RAZGRAD BRANCH","zip":"1766","city":" SOFIA","address":"260 OKOLOVRASTEN PAT STR.","support_codes":1},
{"id":8002,"swift_code":"UBBSBGSFXXX","bank_code":8002,"bank":"UNITED BULGARIAN BANK AD - CENTRAL BRANCH","zip":"1040","city":" SOFIA","address":"UNITED BULGARIAN BANK 5 SVETA SOFIA STREET","support_codes":1},
{"id":8006,"swift_code":"IORTBGSFXXX","bank_code":8006,"bank":"INVESTBANK PLC - SHUMEN BRANCH ","zip":"1404","city":" SOFIA","address":"83A BULGARIA, BLVD.","support_codes":1},
{"id":8012,"swift_code":"BUINBGSFXXX","bank_code":8012,"bank":"ALLIANZ BANK BULGARIA AD - GABROVO BRANCH","zip":"1202","city":" SOFIA","address":"79 MARIA LOUISA BOULEVARD","support_codes":1},
{"id":8016,"swift_code":"BUINBGSFXXX","bank_code":8016,"bank":"ALLIANZ BANK BULGARIA AD - RAZGRAD BRANCH","zip":"1202","city":" SOFIA","address":"79 MARIA LOUISA BOULEVARD","support_codes":1},
{"id":8019,"swift_code":"IORTBGSFXXX","bank_code":8019,"bank":"INVESTBANK PLC - SMOLYAN BRANCH ","zip":"1404","city":" SOFIA","address":"83A BULGARIA, BLVD.","support_codes":1},
{"id":8023,"swift_code":"IORTBGSFXXX","bank_code":8023,"bank":"INVESTBANK PLC - KAZANLAK BRANCH ","zip":"1404","city":" SOFIA","address":"83A BULGARIA, BLVD.","support_codes":1},
{"id":8029,"swift_code":"IORTBGSFXXX","bank_code":8029,"bank":"INVESTBANK PLC - SLIVEN BRANCH","zip":"1404","city":" SOFIA","address":"83A BULGARIA, BLVD.","support_codes":1},
{"id":8031,"swift_code":"IORTBGSFXXX","bank_code":8031,"bank":"INVESTBANK PLC - HASKOVO BRANCH","zip":"1404","city":" SOFIA","address":"83A BULGARIA, BLVD.","support_codes":1},
{"id":8035,"swift_code":"BUINBGSFXXX","bank_code":8035,"bank":"ALLIANZ BANK BULGARIA AD - KARDZHALI BRANCH","zip":"1202","city":" SOFIA","address":"79 MARIA LOUISA BOULEVARD","support_codes":1},
{"id":8038,"swift_code":"IORTBGSFXXX","bank_code":8038,"bank":"INVESTBANK PLC - SOFIA 2 BRANCH","zip":"1404","city":" SOFIA","address":"83A BULGARIA, BLVD.","support_codes":1},
{"id":8043,"swift_code":"IORTBGSFXXX","bank_code":8043,"bank":"INVESTBANK PLC - VELIKO TARNOVO BRANCH","zip":"1404","city":" SOFIA","address":"83A BULGARIA, BLVD.","support_codes":1},
{"id":8045,"swift_code":"IORTBGSFXXX","bank_code":8045,"bank":"INVESTBANK PLC - SOFIA - ANGEL KANCHEV BRANCH","zip":"1404","city":" SOFIA","address":"83A BULGARIA, BLVD.","support_codes":1},
{"id":8046,"swift_code":"IORTBGSFXXX","bank_code":8046,"bank":"INVESTBANK PLC - LOVECH BRANCH","zip":"1404","city":" SOFIA","address":"83A BULGARIA, BLVD.","support_codes":1},
{"id":8047,"swift_code":"IORTBGSFXXX","bank_code":8047,"bank":"INVESTBANK PLC - SILISTRA BRANCH","support_codes":1},
{"id":8048,"swift_code":"IORTBGSFXXX","bank_code":8048,"bank":"INVESTBANK PLC - CENTER BRANCH","zip":"1404","city":" SOFIA","address":"83A BULGARIA, BLVD.","support_codes":1},
{"id":8049,"swift_code":"IORTBGSFXXX","bank_code":8049,"bank":"INVESTBANK PLC - BLAGOEVGRAD BRANCH","zip":"1404","city":" SOFIA","address":"83A BULGARIA, BLVD.","support_codes":1},
{"id":8074,"swift_code":"IABGBGSFXXX","bank_code":8074,"bank":"INTERNATIONAL ASSET BANK AD - LOZENETS BRANCH","zip":"1303","city":" SOFIA","address":"TODOR ALEXANDROV BLVD. 81-83","support_codes":1},
{"id":8088,"swift_code":"IORTBGSFXXX","bank_code":8088,"bank":"INVESTBANK PLC - DOBRICH BRANCH","zip":"1404","city":" SOFIA","address":"83A BULGARIA, BLVD.","support_codes":1},
{"id":8090,"swift_code":"BUINBGSFXXX","bank_code":8090,"bank":"ALLIANZ BANK BULGARIA AD - PLISKA BRANCH","zip":"1202","city":" SOFIA","address":"79 MARIA LOUISA BOULEVARD","support_codes":1},
{"id":8092,"swift_code":"BUINBGSFXXX","bank_code":8092,"bank":"ALLIANZ BANK BULGARIA AD - LOVECH BRANCH","zip":"1202","city":" SOFIA","address":"79 MARIA LOUISA BOULEVARD","support_codes":1},
{"id":8093,"swift_code":"IORTBGSFXXX","bank_code":8093,"bank":"INVESTBANK PLC","zip":"1404","city":" SOFIA","address":"83A BULGARIA, BLVD.","support_codes":1},
{"id":8094,"swift_code":"IORTBGSFXXX","bank_code":8094,"bank":"INVESTBANK PLC - SOFIA - VITOSHA BRANCH","zip":"1404","city":" SOFIA","address":"83A BULGARIA, BLVD.","support_codes":1},
{"id":8095,"swift_code":"IORTBGSFXXX","bank_code":8095,"bank":"INVESTBANK PLC - GABROVO BRANCH","zip":"1404","city":" SOFIA","address":"83A BULGARIA, BLVD.","support_codes":1},
{"id":8097,"swift_code":"IABGBGSFXXX","bank_code":8097,"bank":"INTERNATIONAL ASSET BANK AD","zip":"1303","city":" SOFIA","address":"TODOR ALEXANDROV BLVD. 81-83","support_codes":1},
{"id":8098,"swift_code":"IABGBGSFXXX","bank_code":8098,"bank":"INTERNATIONAL ASSET BANK AD - CENTRAL BRANCH","support_codes":1},
{"id":8102,"swift_code":"IORTBGSFXXX","bank_code":8102,"bank":"INVESTBANK PLC - SOFIA - MLADOST BRANCH","zip":"1404","city":" SOFIA","address":"83A BULGARIA, BLVD.","support_codes":1},
{"id":8103,"swift_code":"IORTBGSFXXX","bank_code":8103,"bank":"INVESTBANK PLC - LULIN BRANCH","support_codes":1},
{"id":8111,"swift_code":"IORTBGSFXXX","bank_code":8111,"bank":"INVESTBANK PLC - PERNIK BRANCH","support_codes":1},
{"id":8113,"swift_code":"IORTBGSFXXX","bank_code":8113,"bank":"INVESTBANK PLC","zip":"1404","city":" SOFIA","address":"83A BULGARIA, BLVD.","support_codes":1},
{"id":8115,"swift_code":"UNCRBGSFXXX","bank_code":8115,"bank":"UNICREDIT BULBANK AD - VIRTUAL BRANCH","zip":"1000","city":" SOFIA","address":"7 SVETA NEDELYA SQUARE","support_codes":9},
{"id":8116,"swift_code":"IORTBGSFXXX","bank_code":8116,"bank":"INVESTBANK PLC - RAZGRAD BRANCH","zip":"1404","city":" SOFIA","address":"83A BULGARIA, BLVD.","support_codes":1},
{"id":8117,"swift_code":"IORTBGSFXXX","bank_code":8117,"bank":"INVESTBANK PLC","zip":"1404","city":" SOFIA","address":"83A BULGARIA, BLVD.","support_codes":1},
{"id":8118,"swift_code":"IABGBGSFXXX","bank_code":8118,"bank":"INTERNATIONAL ASSET BANK AD - MLADOST BRANCH","zip":"1303","city":" SOFIA","address":"TODOR ALEXANDROV BLVD. 81-83","support_codes":1},
{"id":8121,"swift_code":"UBBSBGSFXXX","bank_code":8121,"bank":"UNITED BULGARIAN BANK AD - VRATSA BRANCH","zip":"1040","city":" SOFIA","address":"UNITED BULGARIAN BANK 5 SVETA SOFIA STREET","support_codes":1},
{"id":8122,"swift_code":"IABGBGSFXXX","bank_code":8122,"bank":"INTERNATIONAL ASSET BANK","zip":"1303","city":" SOFIA","address":"TODOR ALEXANDROV BLVD. 81-83","support_codes":1},
{"id":8123,"swift_code":"IABGBGSFXXX","bank_code":8123,"bank":"INTERNATIONAL ASSET BANK AD - GALAXY BRANCH - SOFIA","zip":"1303","city":" SOFIA","address":"TODOR ALEXANDROV BLVD. 81-83","support_codes":1},
{"id":8127,"swift_code":"IORTBGSFXXX","bank_code":8127,"bank":"INVESTBANK PLC - SEVLIEVO BRANCH","support_codes":1},
{"id":8128,"swift_code":"IORTBGSFXXX","bank_code":8128,"bank":"INVESTBANK PLC - STAMBOLOV BRANCH","support_codes":1},
{"id":8129,"swift_code":"IORTBGSFXXX","bank_code":8129,"bank":"INVESTBANK PLC - SHESTI SEPTEMVRI BRANCH","support_codes":1},
{"id":8130,"swift_code":"IORTBGSFXXX","bank_code":8130,"bank":"INVESTBANK PLC - DOIRAN BRANCH","support_codes":1},
{"id":8131,"swift_code":"IORTBGSFXXX","bank_code":8131,"bank":"INVESTBANK PLC - VRATSA BRANCH","support_codes":1},
{"id":8132,"swift_code":"IORTBGSFXXX","bank_code":8132,"bank":"INVESTBANK PLC - BOTEVGRAD BRANCH","support_codes":1},
{"id":8135,"swift_code":"UNCRBGSFXXX","bank_code":8135,"bank":"UNICREDIT BULBANK AD - VIRTUAL BRANCH CASH COLLECTION","zip":"1000","city":" SOFIA","address":"7 SVETA NEDELYA SQUARE","support_codes":9},
{"id":8137,"swift_code":"IORTBGSFXXX","bank_code":8137,"bank":"INVESTBANK PLC - SVISHTOV BRANCH","support_codes":1},
{"id":8138,"swift_code":"IORTBGSFXXX","bank_code":8138,"bank":"INVESTBANK PLC - TROYAN BRANCH","support_codes":1},
{"id":8139,"swift_code":"IORTBGSFXXX","bank_code":8139,"bank":"INVESTBANK PLC - PLISKA BRANCH","support_codes":1},
{"id":8141,"swift_code":"UBBSBGSFXXX","bank_code":8141,"bank":"UNITED BULGARIAN BANK AD - GABROVO BRANCH","zip":"1040","city":" SOFIA","address":"UNITED BULGARIAN BANK 5 SVETA SOFIA STREET","support_codes":1},
{"id":8161,"swift_code":"UBBSBGSFXXX","bank_code":8161,"bank":"UNITED BULGARIAN BANK AD - KARDZHALI BRANCH","zip":"1040","city":" SOFIA","address":"UNITED BULGARIAN BANK 5 SVETA SOFIA STREET","support_codes":1},
{"id":8163,"swift_code":"IORTBGSFXXX","bank_code":8163,"bank":"INVESTBANK PLC - PRAGA - SOFIA BRANCH","support_codes":1},
{"id":8164,"swift_code":"IORTBGSFXXX","bank_code":8164,"bank":"INVESTBANK PLC - VARNA - SLIVNITSA BRANCH","support_codes":1},
{"id":8165,"swift_code":"IORTBGSFXXX","bank_code":8165,"bank":"INVESTBANK PLC - BOURGAS - IVAN VAZOV BRANCH","support_codes":1},
{"id":8166,"swift_code":"IORTBGSFXXX","bank_code":8166,"bank":"INVESTBANK PLC - VELIKO TARNOVO 2 BRANCH","support_codes":1},
{"id":8167,"swift_code":"IORTBGSFXXX","bank_code":8167,"bank":"INVESTBANK PLC - GORNA ORYAHOVITSA  BRANCH","support_codes":1},
{"id":8168,"swift_code":"IORTBGSFXXX","bank_code":8168,"bank":"INVESTBANK PLC - SOFIA -OBORISHTE  BRANCH","support_codes":1},
{"id":8170,"swift_code":"BPBIBGSFXXX","bank_code":8170,"bank":"EUROBANK BULGARIA AD","support_codes":1},
{"id":8201,"swift_code":"UBBSBGSFXXX","bank_code":8201,"bank":"UNITED BULGARIAN BANK AD - LOVECH BRANCH","zip":"1040","city":" SOFIA","address":"UNITED BULGARIAN BANK 5 SVETA SOFIA STREET","support_codes":1},
{"id":8221,"swift_code":"UBBSBGSFXXX","bank_code":8221,"bank":"UNITED BULGARIAN BANK AD - MONTANA BRANCH","zip":"1040","city":" SOFIA","address":"UNITED BULGARIAN BANK 5 SVETA SOFIA STREET","support_codes":1},
{"id":8241,"swift_code":"UBBSBGSFXXX","bank_code":8241,"bank":"UNITED BULGARIAN BANK AD - PAZARDZHIK BRANCH","zip":"1040","city":" SOFIA","address":"UNITED BULGARIAN BANK 5 SVETA SOFIA STREET","support_codes":1},
{"id":8246,"swift_code":"UBBSBGSFXXX","bank_code":8246,"bank":"UNITED BULGARIAN BANK AD - PESHTERA BRANCH","zip":"1040","city":" SOFIA","address":"UNITED BULGARIAN BANK 5 SVETA SOFIA STREET","support_codes":1},
{"id":8261,"swift_code":"UBBSBGSFXXX","bank_code":8261,"bank":"UNITED BULGARIAN BANK AD - PERNIK BRANCH","zip":"1040","city":" SOFIA","address":"UNITED BULGARIAN BANK 5 SVETA SOFIA STREET","support_codes":1},
{"id":8266,"swift_code":"IORTBGSFXXX","bank_code":8266,"bank":"INVESTBANK PLC - MONTANA BRANCH","support_codes":1},
{"id":8281,"swift_code":"UBBSBGSFXXX","bank_code":8281,"bank":"UNITED BULGARIAN BANK AD - PLEVEN BRANCH","zip":"1040","city":" SOFIA","address":"UNITED BULGARIAN BANK 5 SVETA SOFIA STREET","support_codes":1},
{"id":8300,"swift_code":"STSABGSFXXX","bank_code":8300,"bank":"DSK Bank EAD","support_codes":1},
{"id":8341,"swift_code":"UBBSBGSFXXX","bank_code":8341,"bank":"UNITED BULGARIAN BANK AD - ROUSSE BRANCH","zip":"1040","city":" SOFIA","address":"UNITED BULGARIAN BANK 5 SVETA SOFIA STREET","support_codes":1},
{"id":8381,"swift_code":"UBBSBGSFXXX","bank_code":8381,"bank":"UNITED BULGARIAN BANK AD - SLIVEN BRANCH","zip":"1040","city":" SOFIA","address":"UNITED BULGARIAN BANK 5 SVETA SOFIA STREET","support_codes":1},
{"id":8383,"swift_code":"UBBSBGSFXXX","bank_code":8383,"bank":"UNITED BULGARIAN BANK AD - NOVA ZAGORA BRANCH","zip":"1040","city":" SOFIA","address":"UNITED BULGARIAN BANK 5 SVETA SOFIA STREET","support_codes":1},
{"id":8423,"swift_code":"UBBSBGSFXXX","bank_code":8423,"bank":"UNITED BULGARIAN BANK AD - KNYAGINYA MARIA LOUISA BRANCH","zip":"1040","city":" SOFIA","address":"UNITED BULGARIAN BANK 5 SVETA SOFIA STREET","support_codes":1},
{"id":8427,"swift_code":"UBBSBGSFXXX","bank_code":8427,"bank":"UNITED BULGARIAN BANK AD - ISKAR BRANCH","zip":"1040","city":" SOFIA","address":"UNITED BULGARIAN BANK 5 SVETA SOFIA STREET","support_codes":1},
{"id":8428,"swift_code":"IABGBGSFXXX","bank_code":8428,"bank":"INTERNATIONAL ASSET BANK AD - KREMIKOVTSI BRANCH","zip":"1303","city":" SOFIA","address":"TODOR ALEXANDROV BLVD. 81-83","support_codes":1},
{"id":8429,"swift_code":"IABGBGSFXXX","bank_code":8429,"bank":"International Asset Bank AD - Virtual Branch","support_codes":1},
{"id":8442,"swift_code":"UBBSBGSFXXX","bank_code":8442,"bank":"UNITED BULGARIAN BANK AD - BOTEVGRAD BRANCH","zip":"1040","city":" SOFIA","address":"UNITED BULGARIAN BANK 5 SVETA SOFIA STREET","support_codes":1},
{"id":8448,"swift_code":"UBBSBGSFXXX","bank_code":8448,"bank":"UNITED BULGARIAN BANK AD - SAMOKOV BRANCH","zip":"1040","city":" SOFIA","address":"UNITED BULGARIAN BANK 5 SVETA SOFIA STREET","support_codes":1},
{"id":8501,"swift_code":"UBBSBGSFXXX","bank_code":8501,"bank":"UNITED BULGARIAN BANK AD - TARGOVISHTE BRANCH","zip":"1040","city":" SOFIA","address":"UNITED BULGARIAN BANK 5 SVETA SOFIA STREET","support_codes":1},
{"id":8503,"swift_code":"UBBSBGSFXXX","bank_code":8503,"bank":"UNITED BULGARIAN BANK AD - POPOVO BRANCH","zip":"1040","city":" SOFIA","address":"UNITED BULGARIAN BANK 5 SVETA SOFIA STREET","support_codes":1},
{"id":8505,"swift_code":"UBBSBGSFXXX","bank_code":8505,"bank":"UNITED BULGARIAN BANK AD - VIRTUAL BRANCH","zip":"1040","city":" SOFIA","address":"UNITED BULGARIAN BANK 5 SVETA SOFIA STREET","support_codes":1},
{"id":8521,"swift_code":"UBBSBGSFXXX","bank_code":8521,"bank":"UNITED BULGARIAN BANK AD - HASKOVO BRANCH","zip":"1040","city":" SOFIA","address":"UNITED BULGARIAN BANK 5 SVETA SOFIA STREET","support_codes":1},
{"id":8541,"swift_code":"UBBSBGSFXXX","bank_code":8541,"bank":"UNITED BULGARIAN BANK AD - SHUMEN BRANCH","zip":"1040","city":" SOFIA","address":"UNITED BULGARIAN BANK 5 SVETA SOFIA STREET","support_codes":1},
{"id":8562,"swift_code":"UBBSBGSFXXX","bank_code":8562,"bank":"UNITED BULGARIAN BANK AD - ELHOVO BRANCH","zip":"1040","city":" SOFIA","address":"UNITED BULGARIAN BANK 5 SVETA SOFIA STREET","support_codes":1},
{"id":8888,"swift_code":"UBBSBGSFXXX","bank_code":8888,"bank":"United Bulgarian Bank AD, Millennium Branch","support_codes":1},
{"id":8898,"swift_code":"BPBIBGSFXXX","bank_code":8898,"bank":"EUROBANK BULGARIA AD - SOFIA CENTRAL BRANCH","zip":"1766","city":"SOFIA","address":"260 OKOLOVRASTEN PAT STR.","support_codes":1},
{"id":9120,"swift_code":"IORTBGSFXXX","bank_code":9120,"bank":"INVESTBANK PLC","zip":"1404","city":" SOFIA","address":"83A BULGARIA, BLVD.","support_codes":1},
{"id":9130,"swift_code":"SOMBBGSFXXX","bank_code":9130,"bank":"MUNICIPAL BANK AD - SOFIA","zip":"1000","city":" SOFIA","address":"6 VRABCHA STREET","support_codes":1},
{"id":9145,"swift_code":"INGBBGSFXXX","bank_code":9145,"bank":"ING BANK N.V. - SOFIA BRANCH","zip":"1408","city":" SOFIA","address":"EMIL BERSINSKI STREET 12 IVAN VAZOV REGION","support_codes":15},
{"id":9150,"swift_code":"FINVBGSFXXX","bank_code":9150,"bank":"FIRST INVESTMENT BANK AD","zip":"1797","city":" SOFIA","address":"37,DRAGAN TZANKOV BLVD.","support_codes":1},
{"id":9155,"swift_code":"RZBBBGSFXXX","bank_code":9155,"bank":"RAIFFEISENBANK (BULGARIA) EAD","zip":"1504","city":" SOFIA","address":"18-20 GOGOL STREET","support_codes":1},
{"id":9160,"swift_code":"BGUSBGSFXXX","bank_code":9160,"bank":"BULGARIAN-AMERICAN CREDIT BANK AD","zip":"1000","city":" SOFIA","address":"SLAVYANSKA STR. 2","support_codes":1},
{"id":9200,"swift_code":"UBBSBGSFXXX","bank_code":9200,"bank":"UNITED BULGARIAN BANK AD","zip":"1040","city":" SOFIA","address":"UNITED BULGARIAN BANK 5 SVETA SOFIA STREET","support_codes":1},
{"id":9230,"swift_code":"PRCBBGSFXXX","bank_code":9230,"bank":"PROCREDIT BANK (BULGARIA) AD","zip":"1233","city":" SOFIA","address":"131 HRISTO BOTEV BLVD","support_codes":1},
{"id":9240,"swift_code":"DEMIBGSFXXX","bank_code":9240,"bank":"D COMMERCE BANK AD","zip":"1000","city":" SOFIA","address":"8, TSAR OSVOBODITEL BLVD.","support_codes":1},
{"id":9250,"swift_code":"CITIBGSFXXX","bank_code":9250,"bank":"CITIBANK EUROPE PLC. - BULGARIA BRANCH ","zip":"1000","city":" SOFIA","address":"TZUM BUSINESS CENTRE FLOOR 5 2 MARIA LOUIZA BLVD.","support_codes":15},
{"id":9260,"swift_code":"CREXBGSFXXX","bank_code":9260,"bank":"TOKUDA BANK AD","zip":"1000","city":" SOFIA","address":"GRAF IGNATIEF 3","support_codes":1},
{"id":9300,"swift_code":"STSABGSFXXX","bank_code":9300,"bank":"DSK BANK EAD","zip":"1040","city":" SOFIA","address":"19 MOSKOVSKA STREET","support_codes":1},
{"id":9310,"swift_code":"TBIBBGSFXXX","bank_code":9310,"bank":"TBI BANK EAD","zip":"1040","city":" SOFIA","address":"INTERPRED WTC SOFIA 36, DRAGAN TSANKOV BLVD","support_codes":1},
{"id":9350,"swift_code":"TCZBBGSFXXX","bank_code":9350,"bank":"T.C. ZIRAAT BANKASI - SOFIA BRANCH","zip":"1000","city":" SOFIA","address":"SVETA NEDELYA SQUARE 19","support_codes":1},
{"id":9400,"swift_code":"TTBBBG22XXX","bank_code":9400,"bank":"SOCIETE GENERALE EXPRESSBANK AD","zip":"9000","city":" VARNA","address":"92,VL.VARNENCHIK BLVD"},
{"id":9440,"swift_code":"BNPABGSXXXX","bank_code":9440,"bank":"BNP PARIBAS S.A. - SOFIA BRANCH ","zip":"1000","city":" SOFIA","address":"2, TZAR OSVOBODITEL BLVD","support_codes":15},
{"id":9470,"swift_code":"IABGBGSFXXX","bank_code":9470,"bank":"INTERNATIONAL ASSET BANK AD","zip":"1303","city":" SOFIA","address":"TODOR ALEXANDROV BLVD. 81-83","support_codes":1},
{"id":9545,"swift_code":"TEXIBGSFXXX","bank_code":9545,"bank":"TEXIM BANK AD ","zip":"1309","city":" SOFIA","address":"TODOR ALEXANDROV BLVD. 141","support_codes":1},
{"id":9561,"swift_code":"BUINBGSFXXX","bank_code":9561,"bank":"ALLIANZ BANK BULGARIA AD","zip":"1202","city":" SOFIA","address":"79 MARIA LOUISA BOULEVARD","support_codes":1},
{"id":9620,"swift_code":"NASBBGSFXXX","bank_code":9620,"bank":"BULGARIAN DEVELOPMENT BANK AD","zip":"1000","city":" SOFIA","address":"10 STEFAN KARADZHA STREET","support_codes":1},
{"id":9660,"swift_code":"UNCRBGSFXXX","bank_code":9660,"bank":"UNICREDIT BULBANK AD","zip":"1000","city":" SOFIA","address":"7 SVETA NEDELYA SQUARE","support_codes":9},
{"id":9790,"swift_code":"CECBBGSFXXX","bank_code":9790,"bank":"CENTRAL COOPERATIVE BANK AD","zip":"1000","city":" SOFIA","address":"CENTRAL COOPERATIVE BANK RAKOVSKY STREET 103","support_codes":1},
{"id":9920,"swift_code":"BPBIBGSFXXX","bank_code":9920,"bank":"EUROBANK BULGARIA AD","zip":"1766","city":" SOFIA","address":"260 OKOLOVRASTEN PAT STR.","support_codes":1}
    ]
}
