{
    "country": "Finland",
    "country_code": "FI",
    "isSEPAcountry": true,
    "ISO_3166_1": { "name": "Finland" , "name_fr": "Finlande (la)" , "alpha2": "FI" , "alpha3": "FIN" , "numeric": 246 },
    "list": [
{"zip":"00100","bank_code":100,"bank":"NORDEA","support_codes":15,"address":"ALEKSANTERINKATU 36","city":"HELSINKI","swift_code":"NDEAFIHHXXX","id":100},
{"zip":"00100","bank_code":101,"bank":"NORDEA BANK FINLAND PLC","support_codes":15,"address":"ALEKSANTERINKATU 36","city":"HELSINKI","swift_code":"NDEAFIHHXXX","id":101},
{"zip":"00100","bank_code":102,"bank":"NORDEA BANK FINLAND PLC","support_codes":15,"address":"ALEKSANTERINKATU 36","city":"HELSINKI","swift_code":"NDEAFIHHXXX","id":102},
{"zip":"00100","bank_code":103,"bank":"NORDEA BANK FINLAND PLC","support_codes":15,"address":"ALEKSANTERINKATU 36","city":"HELSINKI","swift_code":"NDEAFIHHXXX","id":103},
{"zip":"00100","bank_code":104,"bank":"NORDEA BANK FINLAND PLC","support_codes":15,"address":"ALEKSANTERINKATU 36","city":"HELSINKI","swift_code":"NDEAFIHHXXX","id":104},
{"zip":"00100","bank_code":105,"bank":"NORDEA BANK FINLAND PLC","support_codes":15,"address":"ALEKSANTERINKATU 36","city":"HELSINKI","swift_code":"NDEAFIHHXXX","id":105},
{"zip":"00100","bank_code":106,"bank":"NORDEA BANK FINLAND PLC","support_codes":15,"address":"ALEKSANTERINKATU 36","city":"HELSINKI","swift_code":"NDEAFIHHXXX","id":106},
{"zip":"00100","bank_code":107,"bank":"NORDEA BANK FINLAND PLC","support_codes":15,"address":"ALEKSANTERINKATU 36","city":"HELSINKI","swift_code":"NDEAFIHHXXX","id":107},
{"zip":"00100","bank_code":108,"bank":"NORDEA BANK FINLAND PLC","support_codes":15,"address":"ALEKSANTERINKATU 36","city":"HELSINKI","swift_code":"NDEAFIHHXXX","id":108},
{"zip":"00100","bank_code":109,"bank":"NORDEA BANK FINLAND PLC","support_codes":15,"address":"ALEKSANTERINKATU 36","city":"HELSINKI","swift_code":"NDEAFIHHXXX","id":109},
{"zip":"00100","bank_code":110,"bank":"NORDEA BANK FINLAND PLC","support_codes":15,"address":"ALEKSANTERINKATU 36","city":"HELSINKI","swift_code":"NDEAFIHHXXX","id":110},
{"zip":"00100","bank_code":111,"bank":"NORDEA BANK FINLAND PLC","support_codes":15,"address":"ALEKSANTERINKATU 36","city":"HELSINKI","swift_code":"NDEAFIHHXXX","id":111},
{"zip":"00100","bank_code":112,"bank":"NORDEA BANK FINLAND PLC","support_codes":15,"address":"ALEKSANTERINKATU 36","city":"HELSINKI","swift_code":"NDEAFIHHXXX","id":112},
{"zip":"00100","bank_code":113,"bank":"NORDEA BANK FINLAND PLC","support_codes":15,"address":"ALEKSANTERINKATU 36","city":"HELSINKI","swift_code":"NDEAFIHHXXX","id":113},
{"zip":"00100","bank_code":114,"bank":"NORDEA BANK FINLAND PLC","support_codes":15,"address":"ALEKSANTERINKATU 36","city":"HELSINKI","swift_code":"NDEAFIHHXXX","id":114},
{"zip":"00100","bank_code":115,"bank":"NORDEA BANK FINLAND PLC","support_codes":15,"address":"ALEKSANTERINKATU 36","city":"HELSINKI","swift_code":"NDEAFIHHXXX","id":115},
{"zip":"00100","bank_code":116,"bank":"NORDEA BANK FINLAND PLC","support_codes":15,"address":"ALEKSANTERINKATU 36","city":"HELSINKI","swift_code":"NDEAFIHHXXX","id":116},
{"zip":"00100","bank_code":117,"bank":"NORDEA BANK FINLAND PLC","support_codes":15,"address":"ALEKSANTERINKATU 36","city":"HELSINKI","swift_code":"NDEAFIHHXXX","id":117},
{"zip":"00100","bank_code":118,"bank":"NORDEA BANK FINLAND PLC","support_codes":15,"address":"ALEKSANTERINKATU 36","city":"HELSINKI","swift_code":"NDEAFIHHXXX","id":118},
{"zip":"00100","bank_code":119,"bank":"NORDEA BANK FINLAND PLC","support_codes":15,"address":"ALEKSANTERINKATU 36","city":"HELSINKI","swift_code":"NDEAFIHHXXX","id":119},
{"zip":"00100","bank_code":120,"bank":"NORDEA BANK FINLAND PLC","support_codes":15,"address":"ALEKSANTERINKATU 36","city":"HELSINKI","swift_code":"NDEAFIHHXXX","id":120},
{"zip":"00100","bank_code":121,"bank":"NORDEA BANK FINLAND PLC","support_codes":15,"address":"ALEKSANTERINKATU 36","city":"HELSINKI","swift_code":"NDEAFIHHXXX","id":121},
{"zip":"00100","bank_code":122,"bank":"NORDEA BANK FINLAND PLC","support_codes":15,"address":"ALEKSANTERINKATU 36","city":"HELSINKI","swift_code":"NDEAFIHHXXX","id":122},
{"zip":"00100","bank_code":123,"bank":"NORDEA BANK FINLAND PLC","support_codes":15,"address":"ALEKSANTERINKATU 36","city":"HELSINKI","swift_code":"NDEAFIHHXXX","id":123},
{"zip":"00100","bank_code":124,"bank":"NORDEA BANK FINLAND PLC","support_codes":15,"address":"ALEKSANTERINKATU 36","city":"HELSINKI","swift_code":"NDEAFIHHXXX","id":124},
{"zip":"00100","bank_code":125,"bank":"NORDEA BANK FINLAND PLC","support_codes":15,"address":"ALEKSANTERINKATU 36","city":"HELSINKI","swift_code":"NDEAFIHHXXX","id":125},
{"zip":"00100","bank_code":126,"bank":"NORDEA BANK FINLAND PLC","support_codes":15,"address":"ALEKSANTERINKATU 36","city":"HELSINKI","swift_code":"NDEAFIHHXXX","id":126},
{"zip":"00100","bank_code":127,"bank":"NORDEA BANK FINLAND PLC","support_codes":15,"address":"ALEKSANTERINKATU 36","city":"HELSINKI","swift_code":"NDEAFIHHXXX","id":127},
{"zip":"00100","bank_code":128,"bank":"NORDEA BANK FINLAND PLC","support_codes":15,"address":"ALEKSANTERINKATU 36","city":"HELSINKI","swift_code":"NDEAFIHHXXX","id":128},
{"zip":"00100","bank_code":129,"bank":"NORDEA BANK FINLAND PLC","support_codes":15,"address":"ALEKSANTERINKATU 36","city":"HELSINKI","swift_code":"NDEAFIHHXXX","id":129},
{"zip":"00100","bank_code":130,"bank":"NORDEA BANK FINLAND PLC","support_codes":15,"address":"ALEKSANTERINKATU 36","city":"HELSINKI","swift_code":"NDEAFIHHXXX","id":130},
{"zip":"00100","bank_code":131,"bank":"NORDEA BANK FINLAND PLC","support_codes":15,"address":"ALEKSANTERINKATU 36","city":"HELSINKI","swift_code":"NDEAFIHHXXX","id":131},
{"zip":"00100","bank_code":132,"bank":"NORDEA BANK FINLAND PLC","support_codes":15,"address":"ALEKSANTERINKATU 36","city":"HELSINKI","swift_code":"NDEAFIHHXXX","id":132},
{"zip":"00100","bank_code":133,"bank":"NORDEA BANK FINLAND PLC","support_codes":15,"address":"ALEKSANTERINKATU 36","city":"HELSINKI","swift_code":"NDEAFIHHXXX","id":133},
{"zip":"00100","bank_code":134,"bank":"NORDEA BANK FINLAND PLC","support_codes":15,"address":"ALEKSANTERINKATU 36","city":"HELSINKI","swift_code":"NDEAFIHHXXX","id":134},
{"zip":"00100","bank_code":135,"bank":"NORDEA BANK FINLAND PLC","support_codes":15,"address":"ALEKSANTERINKATU 36","city":"HELSINKI","swift_code":"NDEAFIHHXXX","id":135},
{"zip":"00100","bank_code":136,"bank":"NORDEA BANK FINLAND PLC","support_codes":15,"address":"ALEKSANTERINKATU 36","city":"HELSINKI","swift_code":"NDEAFIHHXXX","id":136},
{"zip":"00100","bank_code":137,"bank":"NORDEA BANK FINLAND PLC","support_codes":15,"address":"ALEKSANTERINKATU 36","city":"HELSINKI","swift_code":"NDEAFIHHXXX","id":137},
{"zip":"00100","bank_code":138,"bank":"NORDEA BANK FINLAND PLC","support_codes":15,"address":"ALEKSANTERINKATU 36","city":"HELSINKI","swift_code":"NDEAFIHHXXX","id":138},
{"zip":"00100","bank_code":139,"bank":"NORDEA BANK FINLAND PLC","support_codes":15,"address":"ALEKSANTERINKATU 36","city":"HELSINKI","swift_code":"NDEAFIHHXXX","id":139},
{"zip":"00100","bank_code":140,"bank":"NORDEA BANK FINLAND PLC","support_codes":15,"address":"ALEKSANTERINKATU 36","city":"HELSINKI","swift_code":"NDEAFIHHXXX","id":140},
{"zip":"00100","bank_code":141,"bank":"NORDEA BANK FINLAND PLC","support_codes":15,"address":"ALEKSANTERINKATU 36","city":"HELSINKI","swift_code":"NDEAFIHHXXX","id":141},
{"zip":"00100","bank_code":142,"bank":"NORDEA BANK FINLAND PLC","support_codes":15,"address":"ALEKSANTERINKATU 36","city":"HELSINKI","swift_code":"NDEAFIHHXXX","id":142},
{"zip":"00100","bank_code":143,"bank":"NORDEA BANK FINLAND PLC","support_codes":15,"address":"ALEKSANTERINKATU 36","city":"HELSINKI","swift_code":"NDEAFIHHXXX","id":143},
{"zip":"00100","bank_code":144,"bank":"NORDEA BANK FINLAND PLC","support_codes":15,"address":"ALEKSANTERINKATU 36","city":"HELSINKI","swift_code":"NDEAFIHHXXX","id":144},
{"zip":"00100","bank_code":145,"bank":"NORDEA BANK FINLAND PLC","support_codes":15,"address":"ALEKSANTERINKATU 36","city":"HELSINKI","swift_code":"NDEAFIHHXXX","id":145},
{"zip":"00100","bank_code":146,"bank":"NORDEA BANK FINLAND PLC","support_codes":15,"address":"ALEKSANTERINKATU 36","city":"HELSINKI","swift_code":"NDEAFIHHXXX","id":146},
{"zip":"00100","bank_code":147,"bank":"NORDEA BANK FINLAND PLC","support_codes":15,"address":"ALEKSANTERINKATU 36","city":"HELSINKI","swift_code":"NDEAFIHHXXX","id":147},
{"zip":"00100","bank_code":148,"bank":"NORDEA BANK FINLAND PLC","support_codes":15,"address":"ALEKSANTERINKATU 36","city":"HELSINKI","swift_code":"NDEAFIHHXXX","id":148},
{"zip":"00100","bank_code":149,"bank":"NORDEA BANK FINLAND PLC","support_codes":15,"address":"ALEKSANTERINKATU 36","city":"HELSINKI","swift_code":"NDEAFIHHXXX","id":149},
{"zip":"00100","bank_code":150,"bank":"NORDEA BANK FINLAND PLC","support_codes":15,"address":"ALEKSANTERINKATU 36","city":"HELSINKI","swift_code":"NDEAFIHHXXX","id":150},
{"zip":"00100","bank_code":151,"bank":"NORDEA BANK FINLAND PLC","support_codes":15,"address":"ALEKSANTERINKATU 36","city":"HELSINKI","swift_code":"NDEAFIHHXXX","id":151},
{"zip":"00100","bank_code":152,"bank":"NORDEA BANK FINLAND PLC","support_codes":15,"address":"ALEKSANTERINKATU 36","city":"HELSINKI","swift_code":"NDEAFIHHXXX","id":152},
{"zip":"00100","bank_code":153,"bank":"NORDEA BANK FINLAND PLC","support_codes":15,"address":"ALEKSANTERINKATU 36","city":"HELSINKI","swift_code":"NDEAFIHHXXX","id":153},
{"zip":"00100","bank_code":154,"bank":"NORDEA BANK FINLAND PLC","support_codes":15,"address":"ALEKSANTERINKATU 36","city":"HELSINKI","swift_code":"NDEAFIHHXXX","id":154},
{"zip":"00100","bank_code":155,"bank":"NORDEA BANK FINLAND PLC","support_codes":15,"address":"ALEKSANTERINKATU 36","city":"HELSINKI","swift_code":"NDEAFIHHXXX","id":155},
{"zip":"00100","bank_code":156,"bank":"NORDEA BANK FINLAND PLC","support_codes":15,"address":"ALEKSANTERINKATU 36","city":"HELSINKI","swift_code":"NDEAFIHHXXX","id":156},
{"zip":"00100","bank_code":157,"bank":"NORDEA BANK FINLAND PLC","support_codes":15,"address":"ALEKSANTERINKATU 36","city":"HELSINKI","swift_code":"NDEAFIHHXXX","id":157},
{"zip":"00100","bank_code":158,"bank":"NORDEA BANK FINLAND PLC","support_codes":15,"address":"ALEKSANTERINKATU 36","city":"HELSINKI","swift_code":"NDEAFIHHXXX","id":158},
{"zip":"00100","bank_code":159,"bank":"NORDEA BANK FINLAND PLC","support_codes":15,"address":"ALEKSANTERINKATU 36","city":"HELSINKI","swift_code":"NDEAFIHHXXX","id":159},
{"zip":"00100","bank_code":160,"bank":"NORDEA BANK FINLAND PLC","support_codes":15,"address":"ALEKSANTERINKATU 36","city":"HELSINKI","swift_code":"NDEAFIHHXXX","id":160},
{"zip":"00100","bank_code":161,"bank":"NORDEA BANK FINLAND PLC","support_codes":15,"address":"ALEKSANTERINKATU 36","city":"HELSINKI","swift_code":"NDEAFIHHXXX","id":161},
{"zip":"00100","bank_code":162,"bank":"NORDEA BANK FINLAND PLC","support_codes":15,"address":"ALEKSANTERINKATU 36","city":"HELSINKI","swift_code":"NDEAFIHHXXX","id":162},
{"zip":"00100","bank_code":163,"bank":"NORDEA BANK FINLAND PLC","support_codes":15,"address":"ALEKSANTERINKATU 36","city":"HELSINKI","swift_code":"NDEAFIHHXXX","id":163},
{"zip":"00100","bank_code":164,"bank":"NORDEA BANK FINLAND PLC","support_codes":15,"address":"ALEKSANTERINKATU 36","city":"HELSINKI","swift_code":"NDEAFIHHXXX","id":164},
{"zip":"00100","bank_code":165,"bank":"NORDEA BANK FINLAND PLC","support_codes":15,"address":"ALEKSANTERINKATU 36","city":"HELSINKI","swift_code":"NDEAFIHHXXX","id":165},
{"zip":"00100","bank_code":166,"bank":"NORDEA BANK FINLAND PLC","support_codes":15,"address":"ALEKSANTERINKATU 36","city":"HELSINKI","swift_code":"NDEAFIHHXXX","id":166},
{"zip":"00100","bank_code":167,"bank":"NORDEA BANK FINLAND PLC","support_codes":15,"address":"ALEKSANTERINKATU 36","city":"HELSINKI","swift_code":"NDEAFIHHXXX","id":167},
{"zip":"00100","bank_code":168,"bank":"NORDEA BANK FINLAND PLC","support_codes":15,"address":"ALEKSANTERINKATU 36","city":"HELSINKI","swift_code":"NDEAFIHHXXX","id":168},
{"zip":"00100","bank_code":169,"bank":"NORDEA BANK FINLAND PLC","support_codes":15,"address":"ALEKSANTERINKATU 36","city":"HELSINKI","swift_code":"NDEAFIHHXXX","id":169},
{"zip":"00100","bank_code":170,"bank":"NORDEA BANK FINLAND PLC","support_codes":15,"address":"ALEKSANTERINKATU 36","city":"HELSINKI","swift_code":"NDEAFIHHXXX","id":170},
{"zip":"00100","bank_code":171,"bank":"NORDEA BANK FINLAND PLC","support_codes":15,"address":"ALEKSANTERINKATU 36","city":"HELSINKI","swift_code":"NDEAFIHHXXX","id":171},
{"zip":"00100","bank_code":172,"bank":"NORDEA BANK FINLAND PLC","support_codes":15,"address":"ALEKSANTERINKATU 36","city":"HELSINKI","swift_code":"NDEAFIHHXXX","id":172},
{"zip":"00100","bank_code":173,"bank":"NORDEA BANK FINLAND PLC","support_codes":15,"address":"ALEKSANTERINKATU 36","city":"HELSINKI","swift_code":"NDEAFIHHXXX","id":173},
{"zip":"00100","bank_code":174,"bank":"NORDEA BANK FINLAND PLC","support_codes":15,"address":"ALEKSANTERINKATU 36","city":"HELSINKI","swift_code":"NDEAFIHHXXX","id":174},
{"zip":"00100","bank_code":175,"bank":"NORDEA BANK FINLAND PLC","support_codes":15,"address":"ALEKSANTERINKATU 36","city":"HELSINKI","swift_code":"NDEAFIHHXXX","id":175},
{"zip":"00100","bank_code":176,"bank":"NORDEA BANK FINLAND PLC","support_codes":15,"address":"ALEKSANTERINKATU 36","city":"HELSINKI","swift_code":"NDEAFIHHXXX","id":176},
{"zip":"00100","bank_code":177,"bank":"NORDEA BANK FINLAND PLC","support_codes":15,"address":"ALEKSANTERINKATU 36","city":"HELSINKI","swift_code":"NDEAFIHHXXX","id":177},
{"zip":"00100","bank_code":178,"bank":"NORDEA BANK FINLAND PLC","support_codes":15,"address":"ALEKSANTERINKATU 36","city":"HELSINKI","swift_code":"NDEAFIHHXXX","id":178},
{"zip":"00100","bank_code":179,"bank":"NORDEA BANK FINLAND PLC","support_codes":15,"address":"ALEKSANTERINKATU 36","city":"HELSINKI","swift_code":"NDEAFIHHXXX","id":179},
{"zip":"00100","bank_code":180,"bank":"NORDEA BANK FINLAND PLC","support_codes":15,"address":"ALEKSANTERINKATU 36","city":"HELSINKI","swift_code":"NDEAFIHHXXX","id":180},
{"zip":"00100","bank_code":181,"bank":"NORDEA BANK FINLAND PLC","support_codes":15,"address":"ALEKSANTERINKATU 36","city":"HELSINKI","swift_code":"NDEAFIHHXXX","id":181},
{"zip":"00100","bank_code":182,"bank":"NORDEA BANK FINLAND PLC","support_codes":15,"address":"ALEKSANTERINKATU 36","city":"HELSINKI","swift_code":"NDEAFIHHXXX","id":182},
{"zip":"00100","bank_code":183,"bank":"NORDEA BANK FINLAND PLC","support_codes":15,"address":"ALEKSANTERINKATU 36","city":"HELSINKI","swift_code":"NDEAFIHHXXX","id":183},
{"zip":"00100","bank_code":184,"bank":"NORDEA BANK FINLAND PLC","support_codes":15,"address":"ALEKSANTERINKATU 36","city":"HELSINKI","swift_code":"NDEAFIHHXXX","id":184},
{"zip":"00100","bank_code":185,"bank":"NORDEA BANK FINLAND PLC","support_codes":15,"address":"ALEKSANTERINKATU 36","city":"HELSINKI","swift_code":"NDEAFIHHXXX","id":185},
{"zip":"00100","bank_code":186,"bank":"NORDEA BANK FINLAND PLC","support_codes":15,"address":"ALEKSANTERINKATU 36","city":"HELSINKI","swift_code":"NDEAFIHHXXX","id":186},
{"zip":"00100","bank_code":187,"bank":"NORDEA BANK FINLAND PLC","support_codes":15,"address":"ALEKSANTERINKATU 36","city":"HELSINKI","swift_code":"NDEAFIHHXXX","id":187},
{"zip":"00100","bank_code":188,"bank":"NORDEA BANK FINLAND PLC","support_codes":15,"address":"ALEKSANTERINKATU 36","city":"HELSINKI","swift_code":"NDEAFIHHXXX","id":188},
{"zip":"00100","bank_code":189,"bank":"NORDEA BANK FINLAND PLC","support_codes":15,"address":"ALEKSANTERINKATU 36","city":"HELSINKI","swift_code":"NDEAFIHHXXX","id":189},
{"zip":"00100","bank_code":190,"bank":"NORDEA BANK FINLAND PLC","support_codes":15,"address":"ALEKSANTERINKATU 36","city":"HELSINKI","swift_code":"NDEAFIHHXXX","id":190},
{"zip":"00100","bank_code":191,"bank":"NORDEA BANK FINLAND PLC","support_codes":15,"address":"ALEKSANTERINKATU 36","city":"HELSINKI","swift_code":"NDEAFIHHXXX","id":191},
{"zip":"00100","bank_code":192,"bank":"NORDEA BANK FINLAND PLC","support_codes":15,"address":"ALEKSANTERINKATU 36","city":"HELSINKI","swift_code":"NDEAFIHHXXX","id":192},
{"zip":"00100","bank_code":193,"bank":"NORDEA BANK FINLAND PLC","support_codes":15,"address":"ALEKSANTERINKATU 36","city":"HELSINKI","swift_code":"NDEAFIHHXXX","id":193},
{"zip":"00100","bank_code":194,"bank":"NORDEA BANK FINLAND PLC","support_codes":15,"address":"ALEKSANTERINKATU 36","city":"HELSINKI","swift_code":"NDEAFIHHXXX","id":194},
{"zip":"00100","bank_code":195,"bank":"NORDEA BANK FINLAND PLC","support_codes":15,"address":"ALEKSANTERINKATU 36","city":"HELSINKI","swift_code":"NDEAFIHHXXX","id":195},
{"zip":"00100","bank_code":196,"bank":"NORDEA BANK FINLAND PLC","support_codes":15,"address":"ALEKSANTERINKATU 36","city":"HELSINKI","swift_code":"NDEAFIHHXXX","id":196},
{"zip":"00100","bank_code":197,"bank":"NORDEA BANK FINLAND PLC","support_codes":15,"address":"ALEKSANTERINKATU 36","city":"HELSINKI","swift_code":"NDEAFIHHXXX","id":197},
{"zip":"00100","bank_code":198,"bank":"NORDEA BANK FINLAND PLC","support_codes":15,"address":"ALEKSANTERINKATU 36","city":"HELSINKI","swift_code":"NDEAFIHHXXX","id":198},
{"zip":"00100","bank_code":199,"bank":"NORDEA BANK FINLAND PLC","support_codes":15,"address":"ALEKSANTERINKATU 36","city":"HELSINKI","swift_code":"NDEAFIHHXXX","id":199},
{"zip":"00100","bank_code":200,"bank":"NORDEA BANK FINLAND PLC","support_codes":15,"address":"ALEKSANTERINKATU 36","city":"HELSINKI","swift_code":"NDEAFIHHXXX","id":200},
{"zip":"00100","bank_code":201,"bank":"NORDEA BANK FINLAND PLC","support_codes":15,"address":"ALEKSANTERINKATU 36","city":"HELSINKI","swift_code":"NDEAFIHHXXX","id":201},
{"zip":"00100","bank_code":202,"bank":"NORDEA BANK FINLAND PLC","support_codes":15,"address":"ALEKSANTERINKATU 36","city":"HELSINKI","swift_code":"NDEAFIHHXXX","id":202},
{"zip":"00100","bank_code":203,"bank":"NORDEA BANK FINLAND PLC","support_codes":15,"address":"ALEKSANTERINKATU 36","city":"HELSINKI","swift_code":"NDEAFIHHXXX","id":203},
{"zip":"00100","bank_code":204,"bank":"NORDEA BANK FINLAND PLC","support_codes":15,"address":"ALEKSANTERINKATU 36","city":"HELSINKI","swift_code":"NDEAFIHHXXX","id":204},
{"zip":"00100","bank_code":205,"bank":"NORDEA BANK FINLAND PLC","support_codes":15,"address":"ALEKSANTERINKATU 36","city":"HELSINKI","swift_code":"NDEAFIHHXXX","id":205},
{"zip":"00100","bank_code":206,"bank":"NORDEA BANK FINLAND PLC","support_codes":15,"address":"ALEKSANTERINKATU 36","city":"HELSINKI","swift_code":"NDEAFIHHXXX","id":206},
{"zip":"00100","bank_code":207,"bank":"NORDEA BANK FINLAND PLC","support_codes":15,"address":"ALEKSANTERINKATU 36","city":"HELSINKI","swift_code":"NDEAFIHHXXX","id":207},
{"zip":"00100","bank_code":208,"bank":"NORDEA BANK FINLAND PLC","support_codes":15,"address":"ALEKSANTERINKATU 36","city":"HELSINKI","swift_code":"NDEAFIHHXXX","id":208},
{"zip":"00100","bank_code":209,"bank":"NORDEA BANK FINLAND PLC","support_codes":15,"address":"ALEKSANTERINKATU 36","city":"HELSINKI","swift_code":"NDEAFIHHXXX","id":209},
{"zip":"00100","bank_code":210,"bank":"NORDEA BANK FINLAND PLC","support_codes":15,"address":"ALEKSANTERINKATU 36","city":"HELSINKI","swift_code":"NDEAFIHHXXX","id":210},
{"zip":"00100","bank_code":211,"bank":"NORDEA BANK FINLAND PLC","support_codes":15,"address":"ALEKSANTERINKATU 36","city":"HELSINKI","swift_code":"NDEAFIHHXXX","id":211},
{"zip":"00100","bank_code":212,"bank":"NORDEA BANK FINLAND PLC","support_codes":15,"address":"ALEKSANTERINKATU 36","city":"HELSINKI","swift_code":"NDEAFIHHXXX","id":212},
{"zip":"00100","bank_code":213,"bank":"NORDEA BANK FINLAND PLC","support_codes":15,"address":"ALEKSANTERINKATU 36","city":"HELSINKI","swift_code":"NDEAFIHHXXX","id":213},
{"zip":"00100","bank_code":214,"bank":"NORDEA BANK FINLAND PLC","support_codes":15,"address":"ALEKSANTERINKATU 36","city":"HELSINKI","swift_code":"NDEAFIHHXXX","id":214},
{"zip":"00100","bank_code":215,"bank":"NORDEA BANK FINLAND PLC","support_codes":15,"address":"ALEKSANTERINKATU 36","city":"HELSINKI","swift_code":"NDEAFIHHXXX","id":215},
{"zip":"00100","bank_code":216,"bank":"NORDEA BANK FINLAND PLC","support_codes":15,"address":"ALEKSANTERINKATU 36","city":"HELSINKI","swift_code":"NDEAFIHHXXX","id":216},
{"zip":"00100","bank_code":217,"bank":"NORDEA BANK FINLAND PLC","support_codes":15,"address":"ALEKSANTERINKATU 36","city":"HELSINKI","swift_code":"NDEAFIHHXXX","id":217},
{"zip":"00100","bank_code":218,"bank":"NORDEA BANK FINLAND PLC","support_codes":15,"address":"ALEKSANTERINKATU 36","city":"HELSINKI","swift_code":"NDEAFIHHXXX","id":218},
{"zip":"00100","bank_code":219,"bank":"NORDEA BANK FINLAND PLC","support_codes":15,"address":"ALEKSANTERINKATU 36","city":"HELSINKI","swift_code":"NDEAFIHHXXX","id":219},
{"zip":"00100","bank_code":220,"bank":"NORDEA BANK FINLAND PLC","support_codes":15,"address":"ALEKSANTERINKATU 36","city":"HELSINKI","swift_code":"NDEAFIHHXXX","id":220},
{"zip":"00100","bank_code":221,"bank":"NORDEA BANK FINLAND PLC","support_codes":15,"address":"ALEKSANTERINKATU 36","city":"HELSINKI","swift_code":"NDEAFIHHXXX","id":221},
{"zip":"00100","bank_code":222,"bank":"NORDEA BANK FINLAND PLC","support_codes":15,"address":"ALEKSANTERINKATU 36","city":"HELSINKI","swift_code":"NDEAFIHHXXX","id":222},
{"zip":"00100","bank_code":223,"bank":"NORDEA BANK FINLAND PLC","support_codes":15,"address":"ALEKSANTERINKATU 36","city":"HELSINKI","swift_code":"NDEAFIHHXXX","id":223},
{"zip":"00100","bank_code":224,"bank":"NORDEA BANK FINLAND PLC","support_codes":15,"address":"ALEKSANTERINKATU 36","city":"HELSINKI","swift_code":"NDEAFIHHXXX","id":224},
{"zip":"00100","bank_code":225,"bank":"NORDEA BANK FINLAND PLC","support_codes":15,"address":"ALEKSANTERINKATU 36","city":"HELSINKI","swift_code":"NDEAFIHHXXX","id":225},
{"zip":"00100","bank_code":226,"bank":"NORDEA BANK FINLAND PLC","support_codes":15,"address":"ALEKSANTERINKATU 36","city":"HELSINKI","swift_code":"NDEAFIHHXXX","id":226},
{"zip":"00100","bank_code":227,"bank":"NORDEA BANK FINLAND PLC","support_codes":15,"address":"ALEKSANTERINKATU 36","city":"HELSINKI","swift_code":"NDEAFIHHXXX","id":227},
{"zip":"00100","bank_code":228,"bank":"NORDEA BANK FINLAND PLC","support_codes":15,"address":"ALEKSANTERINKATU 36","city":"HELSINKI","swift_code":"NDEAFIHHXXX","id":228},
{"zip":"00100","bank_code":229,"bank":"NORDEA BANK FINLAND PLC","support_codes":15,"address":"ALEKSANTERINKATU 36","city":"HELSINKI","swift_code":"NDEAFIHHXXX","id":229},
{"zip":"00100","bank_code":230,"bank":"NORDEA BANK FINLAND PLC","support_codes":15,"address":"ALEKSANTERINKATU 36","city":"HELSINKI","swift_code":"NDEAFIHHXXX","id":230},
{"zip":"00100","bank_code":231,"bank":"NORDEA BANK FINLAND PLC","support_codes":15,"address":"ALEKSANTERINKATU 36","city":"HELSINKI","swift_code":"NDEAFIHHXXX","id":231},
{"zip":"00100","bank_code":232,"bank":"NORDEA BANK FINLAND PLC","support_codes":15,"address":"ALEKSANTERINKATU 36","city":"HELSINKI","swift_code":"NDEAFIHHXXX","id":232},
{"zip":"00100","bank_code":233,"bank":"NORDEA BANK FINLAND PLC","support_codes":15,"address":"ALEKSANTERINKATU 36","city":"HELSINKI","swift_code":"NDEAFIHHXXX","id":233},
{"zip":"00100","bank_code":234,"bank":"NORDEA BANK FINLAND PLC","support_codes":15,"address":"ALEKSANTERINKATU 36","city":"HELSINKI","swift_code":"NDEAFIHHXXX","id":234},
{"zip":"00100","bank_code":235,"bank":"NORDEA BANK FINLAND PLC","support_codes":15,"address":"ALEKSANTERINKATU 36","city":"HELSINKI","swift_code":"NDEAFIHHXXX","id":235},
{"zip":"00100","bank_code":236,"bank":"NORDEA BANK FINLAND PLC","support_codes":15,"address":"ALEKSANTERINKATU 36","city":"HELSINKI","swift_code":"NDEAFIHHXXX","id":236},
{"zip":"00100","bank_code":237,"bank":"NORDEA BANK FINLAND PLC","support_codes":15,"address":"ALEKSANTERINKATU 36","city":"HELSINKI","swift_code":"NDEAFIHHXXX","id":237},
{"zip":"00100","bank_code":238,"bank":"NORDEA BANK FINLAND PLC","support_codes":15,"address":"ALEKSANTERINKATU 36","city":"HELSINKI","swift_code":"NDEAFIHHXXX","id":238},
{"zip":"00100","bank_code":239,"bank":"NORDEA BANK FINLAND PLC","support_codes":15,"address":"ALEKSANTERINKATU 36","city":"HELSINKI","swift_code":"NDEAFIHHXXX","id":239},
{"zip":"00100","bank_code":240,"bank":"NORDEA BANK FINLAND PLC","support_codes":15,"address":"ALEKSANTERINKATU 36","city":"HELSINKI","swift_code":"NDEAFIHHXXX","id":240},
{"zip":"00100","bank_code":241,"bank":"NORDEA BANK FINLAND PLC","support_codes":15,"address":"ALEKSANTERINKATU 36","city":"HELSINKI","swift_code":"NDEAFIHHXXX","id":241},
{"zip":"00100","bank_code":242,"bank":"NORDEA BANK FINLAND PLC","support_codes":15,"address":"ALEKSANTERINKATU 36","city":"HELSINKI","swift_code":"NDEAFIHHXXX","id":242},
{"zip":"00100","bank_code":243,"bank":"NORDEA BANK FINLAND PLC","support_codes":15,"address":"ALEKSANTERINKATU 36","city":"HELSINKI","swift_code":"NDEAFIHHXXX","id":243},
{"zip":"00100","bank_code":244,"bank":"NORDEA BANK FINLAND PLC","support_codes":15,"address":"ALEKSANTERINKATU 36","city":"HELSINKI","swift_code":"NDEAFIHHXXX","id":244},
{"zip":"00100","bank_code":245,"bank":"NORDEA BANK FINLAND PLC","support_codes":15,"address":"ALEKSANTERINKATU 36","city":"HELSINKI","swift_code":"NDEAFIHHXXX","id":245},
{"zip":"00100","bank_code":246,"bank":"NORDEA BANK FINLAND PLC","support_codes":15,"address":"ALEKSANTERINKATU 36","city":"HELSINKI","swift_code":"NDEAFIHHXXX","id":246},
{"zip":"00100","bank_code":247,"bank":"NORDEA BANK FINLAND PLC","support_codes":15,"address":"ALEKSANTERINKATU 36","city":"HELSINKI","swift_code":"NDEAFIHHXXX","id":247},
{"zip":"00100","bank_code":248,"bank":"NORDEA BANK FINLAND PLC","support_codes":15,"address":"ALEKSANTERINKATU 36","city":"HELSINKI","swift_code":"NDEAFIHHXXX","id":248},
{"zip":"00100","bank_code":249,"bank":"NORDEA BANK FINLAND PLC","support_codes":15,"address":"ALEKSANTERINKATU 36","city":"HELSINKI","swift_code":"NDEAFIHHXXX","id":249},
{"zip":"00100","bank_code":250,"bank":"NORDEA BANK FINLAND PLC","support_codes":15,"address":"ALEKSANTERINKATU 36","city":"HELSINKI","swift_code":"NDEAFIHHXXX","id":250},
{"zip":"00100","bank_code":251,"bank":"NORDEA BANK FINLAND PLC","support_codes":15,"address":"ALEKSANTERINKATU 36","city":"HELSINKI","swift_code":"NDEAFIHHXXX","id":251},
{"zip":"00100","bank_code":252,"bank":"NORDEA BANK FINLAND PLC","support_codes":15,"address":"ALEKSANTERINKATU 36","city":"HELSINKI","swift_code":"NDEAFIHHXXX","id":252},
{"zip":"00100","bank_code":253,"bank":"NORDEA BANK FINLAND PLC","support_codes":15,"address":"ALEKSANTERINKATU 36","city":"HELSINKI","swift_code":"NDEAFIHHXXX","id":253},
{"zip":"00100","bank_code":254,"bank":"NORDEA BANK FINLAND PLC","support_codes":15,"address":"ALEKSANTERINKATU 36","city":"HELSINKI","swift_code":"NDEAFIHHXXX","id":254},
{"zip":"00100","bank_code":255,"bank":"NORDEA BANK FINLAND PLC","support_codes":15,"address":"ALEKSANTERINKATU 36","city":"HELSINKI","swift_code":"NDEAFIHHXXX","id":255},
{"zip":"00100","bank_code":256,"bank":"NORDEA BANK FINLAND PLC","support_codes":15,"address":"ALEKSANTERINKATU 36","city":"HELSINKI","swift_code":"NDEAFIHHXXX","id":256},
{"zip":"00100","bank_code":257,"bank":"NORDEA BANK FINLAND PLC","support_codes":15,"address":"ALEKSANTERINKATU 36","city":"HELSINKI","swift_code":"NDEAFIHHXXX","id":257},
{"zip":"00100","bank_code":258,"bank":"NORDEA BANK FINLAND PLC","support_codes":15,"address":"ALEKSANTERINKATU 36","city":"HELSINKI","swift_code":"NDEAFIHHXXX","id":258},
{"zip":"00100","bank_code":259,"bank":"NORDEA BANK FINLAND PLC","support_codes":15,"address":"ALEKSANTERINKATU 36","city":"HELSINKI","swift_code":"NDEAFIHHXXX","id":259},
{"zip":"00100","bank_code":260,"bank":"NORDEA BANK FINLAND PLC","support_codes":15,"address":"ALEKSANTERINKATU 36","city":"HELSINKI","swift_code":"NDEAFIHHXXX","id":260},
{"zip":"00100","bank_code":261,"bank":"NORDEA BANK FINLAND PLC","support_codes":15,"address":"ALEKSANTERINKATU 36","city":"HELSINKI","swift_code":"NDEAFIHHXXX","id":261},
{"zip":"00100","bank_code":262,"bank":"NORDEA BANK FINLAND PLC","support_codes":15,"address":"ALEKSANTERINKATU 36","city":"HELSINKI","swift_code":"NDEAFIHHXXX","id":262},
{"zip":"00100","bank_code":263,"bank":"NORDEA BANK FINLAND PLC","support_codes":15,"address":"ALEKSANTERINKATU 36","city":"HELSINKI","swift_code":"NDEAFIHHXXX","id":263},
{"zip":"00100","bank_code":264,"bank":"NORDEA BANK FINLAND PLC","support_codes":15,"address":"ALEKSANTERINKATU 36","city":"HELSINKI","swift_code":"NDEAFIHHXXX","id":264},
{"zip":"00100","bank_code":265,"bank":"NORDEA BANK FINLAND PLC","support_codes":15,"address":"ALEKSANTERINKATU 36","city":"HELSINKI","swift_code":"NDEAFIHHXXX","id":265},
{"zip":"00100","bank_code":266,"bank":"NORDEA BANK FINLAND PLC","support_codes":15,"address":"ALEKSANTERINKATU 36","city":"HELSINKI","swift_code":"NDEAFIHHXXX","id":266},
{"zip":"00100","bank_code":267,"bank":"NORDEA BANK FINLAND PLC","support_codes":15,"address":"ALEKSANTERINKATU 36","city":"HELSINKI","swift_code":"NDEAFIHHXXX","id":267},
{"zip":"00100","bank_code":268,"bank":"NORDEA BANK FINLAND PLC","support_codes":15,"address":"ALEKSANTERINKATU 36","city":"HELSINKI","swift_code":"NDEAFIHHXXX","id":268},
{"zip":"00100","bank_code":269,"bank":"NORDEA BANK FINLAND PLC","support_codes":15,"address":"ALEKSANTERINKATU 36","city":"HELSINKI","swift_code":"NDEAFIHHXXX","id":269},
{"zip":"00100","bank_code":270,"bank":"NORDEA BANK FINLAND PLC","support_codes":15,"address":"ALEKSANTERINKATU 36","city":"HELSINKI","swift_code":"NDEAFIHHXXX","id":270},
{"zip":"00100","bank_code":271,"bank":"NORDEA BANK FINLAND PLC","support_codes":15,"address":"ALEKSANTERINKATU 36","city":"HELSINKI","swift_code":"NDEAFIHHXXX","id":271},
{"zip":"00100","bank_code":272,"bank":"NORDEA BANK FINLAND PLC","support_codes":15,"address":"ALEKSANTERINKATU 36","city":"HELSINKI","swift_code":"NDEAFIHHXXX","id":272},
{"zip":"00100","bank_code":273,"bank":"NORDEA BANK FINLAND PLC","support_codes":15,"address":"ALEKSANTERINKATU 36","city":"HELSINKI","swift_code":"NDEAFIHHXXX","id":273},
{"zip":"00100","bank_code":274,"bank":"NORDEA BANK FINLAND PLC","support_codes":15,"address":"ALEKSANTERINKATU 36","city":"HELSINKI","swift_code":"NDEAFIHHXXX","id":274},
{"zip":"00100","bank_code":275,"bank":"NORDEA BANK FINLAND PLC","support_codes":15,"address":"ALEKSANTERINKATU 36","city":"HELSINKI","swift_code":"NDEAFIHHXXX","id":275},
{"zip":"00100","bank_code":276,"bank":"NORDEA BANK FINLAND PLC","support_codes":15,"address":"ALEKSANTERINKATU 36","city":"HELSINKI","swift_code":"NDEAFIHHXXX","id":276},
{"zip":"00100","bank_code":277,"bank":"NORDEA BANK FINLAND PLC","support_codes":15,"address":"ALEKSANTERINKATU 36","city":"HELSINKI","swift_code":"NDEAFIHHXXX","id":277},
{"zip":"00100","bank_code":278,"bank":"NORDEA BANK FINLAND PLC","support_codes":15,"address":"ALEKSANTERINKATU 36","city":"HELSINKI","swift_code":"NDEAFIHHXXX","id":278},
{"zip":"00100","bank_code":279,"bank":"NORDEA BANK FINLAND PLC","support_codes":15,"address":"ALEKSANTERINKATU 36","city":"HELSINKI","swift_code":"NDEAFIHHXXX","id":279},
{"zip":"00100","bank_code":280,"bank":"NORDEA BANK FINLAND PLC","support_codes":15,"address":"ALEKSANTERINKATU 36","city":"HELSINKI","swift_code":"NDEAFIHHXXX","id":280},
{"zip":"00100","bank_code":281,"bank":"NORDEA BANK FINLAND PLC","support_codes":15,"address":"ALEKSANTERINKATU 36","city":"HELSINKI","swift_code":"NDEAFIHHXXX","id":281},
{"zip":"00100","bank_code":282,"bank":"NORDEA BANK FINLAND PLC","support_codes":15,"address":"ALEKSANTERINKATU 36","city":"HELSINKI","swift_code":"NDEAFIHHXXX","id":282},
{"zip":"00100","bank_code":283,"bank":"NORDEA BANK FINLAND PLC","support_codes":15,"address":"ALEKSANTERINKATU 36","city":"HELSINKI","swift_code":"NDEAFIHHXXX","id":283},
{"zip":"00100","bank_code":284,"bank":"NORDEA BANK FINLAND PLC","support_codes":15,"address":"ALEKSANTERINKATU 36","city":"HELSINKI","swift_code":"NDEAFIHHXXX","id":284},
{"zip":"00100","bank_code":285,"bank":"NORDEA BANK FINLAND PLC","support_codes":15,"address":"ALEKSANTERINKATU 36","city":"HELSINKI","swift_code":"NDEAFIHHXXX","id":285},
{"zip":"00100","bank_code":286,"bank":"NORDEA BANK FINLAND PLC","support_codes":15,"address":"ALEKSANTERINKATU 36","city":"HELSINKI","swift_code":"NDEAFIHHXXX","id":286},
{"zip":"00100","bank_code":287,"bank":"NORDEA BANK FINLAND PLC","support_codes":15,"address":"ALEKSANTERINKATU 36","city":"HELSINKI","swift_code":"NDEAFIHHXXX","id":287},
{"zip":"00100","bank_code":288,"bank":"NORDEA BANK FINLAND PLC","support_codes":15,"address":"ALEKSANTERINKATU 36","city":"HELSINKI","swift_code":"NDEAFIHHXXX","id":288},
{"zip":"00100","bank_code":289,"bank":"NORDEA BANK FINLAND PLC","support_codes":15,"address":"ALEKSANTERINKATU 36","city":"HELSINKI","swift_code":"NDEAFIHHXXX","id":289},
{"zip":"00100","bank_code":290,"bank":"NORDEA BANK FINLAND PLC","support_codes":15,"address":"ALEKSANTERINKATU 36","city":"HELSINKI","swift_code":"NDEAFIHHXXX","id":290},
{"zip":"00100","bank_code":291,"bank":"NORDEA BANK FINLAND PLC","support_codes":15,"address":"ALEKSANTERINKATU 36","city":"HELSINKI","swift_code":"NDEAFIHHXXX","id":291},
{"zip":"00100","bank_code":292,"bank":"NORDEA BANK FINLAND PLC","support_codes":15,"address":"ALEKSANTERINKATU 36","city":"HELSINKI","swift_code":"NDEAFIHHXXX","id":292},
{"zip":"00100","bank_code":293,"bank":"NORDEA BANK FINLAND PLC","support_codes":15,"address":"ALEKSANTERINKATU 36","city":"HELSINKI","swift_code":"NDEAFIHHXXX","id":293},
{"zip":"00100","bank_code":294,"bank":"NORDEA BANK FINLAND PLC","support_codes":15,"address":"ALEKSANTERINKATU 36","city":"HELSINKI","swift_code":"NDEAFIHHXXX","id":294},
{"zip":"00100","bank_code":295,"bank":"NORDEA BANK FINLAND PLC","support_codes":15,"address":"ALEKSANTERINKATU 36","city":"HELSINKI","swift_code":"NDEAFIHHXXX","id":295},
{"zip":"00100","bank_code":296,"bank":"NORDEA BANK FINLAND PLC","support_codes":15,"address":"ALEKSANTERINKATU 36","city":"HELSINKI","swift_code":"NDEAFIHHXXX","id":296},
{"zip":"00100","bank_code":297,"bank":"NORDEA BANK FINLAND PLC","support_codes":15,"address":"ALEKSANTERINKATU 36","city":"HELSINKI","swift_code":"NDEAFIHHXXX","id":297},
{"zip":"00100","bank_code":298,"bank":"NORDEA BANK FINLAND PLC","support_codes":15,"address":"ALEKSANTERINKATU 36","city":"HELSINKI","swift_code":"NDEAFIHHXXX","id":298},
{"zip":"00100","bank_code":299,"bank":"NORDEA BANK FINLAND PLC","support_codes":15,"address":"ALEKSANTERINKATU 36","city":"HELSINKI","swift_code":"NDEAFIHHXXX","id":299},
{"zip":"00100","bank_code":310,"bank":"SVENSKA HANDELSBANKEN","support_codes":15,"address":"ALEKSANTERINKATU 11","city":"HELSINKI","swift_code":"HANDFIHHXXX","id":310},
{"zip":"00100","bank_code":311,"bank":"SVENSKA HANDELSBANKEN","support_codes":15,"address":"ALEKSANTERINKATU 11","city":"HELSINKI","swift_code":"HANDFIHHXXX","id":311},
{"zip":"00100","bank_code":312,"bank":"SVENSKA HANDELSBANKEN","support_codes":15,"address":"ALEKSANTERINKATU 11","city":"HELSINKI","swift_code":"HANDFIHHXXX","id":312},
{"zip":"00100","bank_code":313,"bank":"SVENSKA HANDELSBANKEN","support_codes":15,"address":"ALEKSANTERINKATU 11","city":"HELSINKI","swift_code":"HANDFIHHXXX","id":313},
{"zip":"00100","bank_code":314,"bank":"SVENSKA HANDELSBANKEN","support_codes":15,"address":"ALEKSANTERINKATU 11","city":"HELSINKI","swift_code":"HANDFIHHXXX","id":314},
{"zip":"00100","bank_code":315,"bank":"SVENSKA HANDELSBANKEN","support_codes":15,"address":"ALEKSANTERINKATU 11","city":"HELSINKI","swift_code":"HANDFIHHXXX","id":315},
{"zip":"00100","bank_code":316,"bank":"SVENSKA HANDELSBANKEN","support_codes":15,"address":"ALEKSANTERINKATU 11","city":"HELSINKI","swift_code":"HANDFIHHXXX","id":316},
{"zip":"00100","bank_code":317,"bank":"SVENSKA HANDELSBANKEN","support_codes":15,"address":"ALEKSANTERINKATU 11","city":"HELSINKI","swift_code":"HANDFIHHXXX","id":317},
{"zip":"00100","bank_code":318,"bank":"SVENSKA HANDELSBANKEN","support_codes":15,"address":"ALEKSANTERINKATU 11","city":"HELSINKI","swift_code":"HANDFIHHXXX","id":318},
{"zip":"00100","bank_code":319,"bank":"SVENSKA HANDELSBANKEN","support_codes":15,"address":"ALEKSANTERINKATU 11","city":"HELSINKI","swift_code":"HANDFIHHXXX","id":319},
{"zip":"00100","bank_code":330,"bank":"SKANDINAVISKA ENSKILDA BANKEN","support_codes":15,"address":"UNIONSGATAN 30","city":"HELSINKI","swift_code":"ESSEFIHXXXX","id":330},
{"zip":"00100","bank_code":331,"bank":"SKANDINAVISKA ENSKILDA BANKEN","support_codes":15,"address":"UNIONSGATAN 30","city":"HELSINKI","swift_code":"ESSEFIHXXXX","id":331},
{"zip":"00100","bank_code":332,"bank":"SKANDINAVISKA ENSKILDA BANKEN","support_codes":15,"address":"UNIONSGATAN 30","city":"HELSINKI","swift_code":"ESSEFIHXXXX","id":332},
{"zip":"00100","bank_code":333,"bank":"SKANDINAVISKA ENSKILDA BANKEN","support_codes":15,"address":"UNIONSGATAN 30","city":"HELSINKI","swift_code":"ESSEFIHXXXX","id":333},
{"zip":"00100","bank_code":334,"bank":"SKANDINAVISKA ENSKILDA BANKEN","support_codes":15,"address":"UNIONSGATAN 30","city":"HELSINKI","swift_code":"ESSEFIHXXXX","id":334},
{"zip":"00100","bank_code":335,"bank":"SKANDINAVISKA ENSKILDA BANKEN","support_codes":15,"address":"UNIONSGATAN 30","city":"HELSINKI","swift_code":"ESSEFIHXXXX","id":335},
{"zip":"00100","bank_code":336,"bank":"SKANDINAVISKA ENSKILDA BANKEN","support_codes":15,"address":"UNIONSGATAN 30","city":"HELSINKI","swift_code":"ESSEFIHXXXX","id":336},
{"zip":"00100","bank_code":337,"bank":"SKANDINAVISKA ENSKILDA BANKEN","support_codes":15,"address":"UNIONSGATAN 30","city":"HELSINKI","swift_code":"ESSEFIHXXXX","id":337},
{"zip":"00100","bank_code":338,"bank":"SKANDINAVISKA ENSKILDA BANKEN","support_codes":15,"address":"UNIONSGATAN 30","city":"HELSINKI","swift_code":"ESSEFIHXXXX","id":338},
{"zip":"00100","bank_code":339,"bank":"SKANDINAVISKA ENSKILDA BANKEN","support_codes":15,"address":"UNIONSGATAN 30","city":"HELSINKI","swift_code":"ESSEFIHXXXX","id":339},
{"zip":"00075","bank_code":340,"bank":"DANSKE BANK A\/S","support_codes":15,"address":"C\/O SAMPO PANKKI  HIILILAITURINKUJA SAMPO PANKKI","city":"HELSINKI","swift_code":"DABAFIHHXXX","id":340},
{"zip":"00075","bank_code":341,"bank":"DANSKE BANK A\/S","support_codes":15,"address":"C\/O SAMPO PANKKI  HIILILAITURINKUJA SAMPO PANKKI","city":"HELSINKI","swift_code":"DABAFIHHXXX","id":341},
{"zip":"00075","bank_code":342,"bank":"DANSKE BANK A\/S","support_codes":15,"address":"C\/O SAMPO PANKKI  HIILILAITURINKUJA SAMPO PANKKI","city":"HELSINKI","swift_code":"DABAFIHHXXX","id":342},
{"zip":"00075","bank_code":343,"bank":"DANSKE BANK A\/S","support_codes":15,"address":"C\/O SAMPO PANKKI  HIILILAITURINKUJA SAMPO PANKKI","city":"HELSINKI","swift_code":"DABAFIHHXXX","id":343},
{"zip":"00075","bank_code":344,"bank":"DANSKE BANK A\/S","support_codes":15,"address":"C\/O SAMPO PANKKI  HIILILAITURINKUJA SAMPO PANKKI","city":"HELSINKI","swift_code":"DABAFIHHXXX","id":344},
{"zip":"00075","bank_code":345,"bank":"DANSKE BANK A\/S","support_codes":15,"address":"C\/O SAMPO PANKKI  HIILILAITURINKUJA SAMPO PANKKI","city":"HELSINKI","swift_code":"DABAFIHHXXX","id":345},
{"zip":"00075","bank_code":346,"bank":"DANSKE BANK A\/S","support_codes":15,"address":"C\/O SAMPO PANKKI  HIILILAITURINKUJA SAMPO PANKKI","city":"HELSINKI","swift_code":"DABAFIHHXXX","id":346},
{"zip":"00075","bank_code":347,"bank":"DANSKE BANK A\/S","support_codes":15,"address":"C\/O SAMPO PANKKI  HIILILAITURINKUJA SAMPO PANKKI","city":"HELSINKI","swift_code":"DABAFIHHXXX","id":347},
{"zip":"00075","bank_code":348,"bank":"DANSKE BANK A\/S","support_codes":15,"address":"C\/O SAMPO PANKKI  HIILILAITURINKUJA SAMPO PANKKI","city":"HELSINKI","swift_code":"DABAFIHHXXX","id":348},
{"zip":"00075","bank_code":349,"bank":"DANSKE BANK A\/S","support_codes":15,"address":"C\/O SAMPO PANKKI  HIILILAITURINKUJA SAMPO PANKKI","city":"HELSINKI","swift_code":"DABAFIHHXXX","id":349},
{"zip":"02010","bank_code":360,"bank":"S-BANK LTD","support_codes":7,"address":"LAENSITUULENTIE 1","city":"TAPIOLA","swift_code":"SBANFIHHXXX","id":360},
{"zip":"02010","bank_code":361,"bank":"S-BANK LTD","support_codes":7,"address":"LAENSITUULENTIE 1","city":"TAPIOLA","swift_code":"SBANFIHHXXX","id":361},
{"zip":"02010","bank_code":362,"bank":"S-BANK LTD","support_codes":7,"address":"LAENSITUULENTIE 1","city":"TAPIOLA","swift_code":"SBANFIHHXXX","id":362},
{"zip":"02010","bank_code":363,"bank":"S-BANK LTD","support_codes":7,"address":"LAENSITUULENTIE 1","city":"TAPIOLA","swift_code":"SBANFIHHXXX","id":363},
{"zip":"02010","bank_code":364,"bank":"S-BANK LTD","support_codes":7,"address":"LAENSITUULENTIE 1","city":"TAPIOLA","swift_code":"SBANFIHHXXX","id":364},
{"zip":"02010","bank_code":365,"bank":"S-BANK LTD","support_codes":7,"address":"LAENSITUULENTIE 1","city":"TAPIOLA","swift_code":"SBANFIHHXXX","id":365},
{"zip":"02010","bank_code":366,"bank":"S-BANK LTD","support_codes":7,"address":"LAENSITUULENTIE 1","city":"TAPIOLA","swift_code":"SBANFIHHXXX","id":366},
{"zip":"02010","bank_code":367,"bank":"S-BANK LTD","support_codes":7,"address":"LAENSITUULENTIE 1","city":"TAPIOLA","swift_code":"SBANFIHHXXX","id":367},
{"zip":"02010","bank_code":368,"bank":"S-BANK LTD","support_codes":7,"address":"LAENSITUULENTIE 1","city":"TAPIOLA","swift_code":"SBANFIHHXXX","id":368},
{"zip":"02010","bank_code":369,"bank":"S-BANK LTD","support_codes":7,"address":"LAENSITUULENTIE 1","city":"TAPIOLA","swift_code":"SBANFIHHXXX","id":369},
{"zip":"00100","bank_code":370,"bank":"DNB NOR BANK ASA, FILIAL FINLAND","support_codes":1,"address":"MANNERHEIMVAEGEN 8","city":"HELSINKI","swift_code":"DNBAFIHXXXX","id":370},
{"zip":"00100","bank_code":371,"bank":"DNB NOR BANK ASA, FILIAL FINLAND","support_codes":1,"address":"MANNERHEIMVAEGEN 8","city":"HELSINKI","swift_code":"DNBAFIHXXXX","id":371},
{"zip":"00100","bank_code":372,"bank":"DNB NOR BANK ASA, FILIAL FINLAND","support_codes":1,"address":"MANNERHEIMVAEGEN 8","city":"HELSINKI","swift_code":"DNBAFIHXXXX","id":372},
{"zip":"00100","bank_code":373,"bank":"DNB NOR BANK ASA, FILIAL FINLAND","support_codes":1,"address":"MANNERHEIMVAEGEN 8","city":"HELSINKI","swift_code":"DNBAFIHXXXX","id":373},
{"zip":"00100","bank_code":374,"bank":"DNB NOR BANK ASA, FILIAL FINLAND","support_codes":1,"address":"MANNERHEIMVAEGEN 8","city":"HELSINKI","swift_code":"DNBAFIHXXXX","id":374},
{"zip":"00100","bank_code":375,"bank":"DNB NOR BANK ASA, FILIAL FINLAND","support_codes":1,"address":"MANNERHEIMVAEGEN 8","city":"HELSINKI","swift_code":"DNBAFIHXXXX","id":375},
{"zip":"00100","bank_code":376,"bank":"DNB NOR BANK ASA, FILIAL FINLAND","support_codes":1,"address":"MANNERHEIMVAEGEN 8","city":"HELSINKI","swift_code":"DNBAFIHXXXX","id":376},
{"zip":"00100","bank_code":377,"bank":"DNB NOR BANK ASA, FILIAL FINLAND","support_codes":1,"address":"MANNERHEIMVAEGEN 8","city":"HELSINKI","swift_code":"DNBAFIHXXXX","id":377},
{"zip":"00100","bank_code":378,"bank":"DNB NOR BANK ASA, FILIAL FINLAND","support_codes":1,"address":"MANNERHEIMVAEGEN 8","city":"HELSINKI","swift_code":"DNBAFIHXXXX","id":378},
{"zip":"00100","bank_code":379,"bank":"DNB NOR BANK ASA, FILIAL FINLAND","support_codes":1,"address":"MANNERHEIMVAEGEN 8","city":"HELSINKI","swift_code":"DNBAFIHXXXX","id":379},
{"zip":"00101","bank_code":380,"bank":"SWEDBANK (FORENINGSSPARBANKEN AB) FILIAL SWEDBANK","support_codes":1,"address":"MANNERHEIMINTIE 14B","city":"HELSINKI","swift_code":"SWEDFIHHXXX","id":380},
{"zip":"00101","bank_code":381,"bank":"SWEDBANK (FORENINGSSPARBANKEN AB) FILIAL SWEDBANK","support_codes":1,"address":"MANNERHEIMINTIE 14B","city":"HELSINKI","swift_code":"SWEDFIHHXXX","id":381},
{"zip":"00101","bank_code":382,"bank":"SWEDBANK (FORENINGSSPARBANKEN AB) FILIAL SWEDBANK","support_codes":1,"address":"MANNERHEIMINTIE 14B","city":"HELSINKI","swift_code":"SWEDFIHHXXX","id":382},
{"zip":"00101","bank_code":383,"bank":"SWEDBANK (FORENINGSSPARBANKEN AB) FILIAL SWEDBANK","support_codes":1,"address":"MANNERHEIMINTIE 14B","city":"HELSINKI","swift_code":"SWEDFIHHXXX","id":383},
{"zip":"00101","bank_code":384,"bank":"SWEDBANK (FORENINGSSPARBANKEN AB) FILIAL SWEDBANK","support_codes":1,"address":"MANNERHEIMINTIE 14B","city":"HELSINKI","swift_code":"SWEDFIHHXXX","id":384},
{"zip":"00101","bank_code":385,"bank":"SWEDBANK (FORENINGSSPARBANKEN AB) FILIAL SWEDBANK","support_codes":1,"address":"MANNERHEIMINTIE 14B","city":"HELSINKI","swift_code":"SWEDFIHHXXX","id":385},
{"zip":"00101","bank_code":386,"bank":"SWEDBANK (FORENINGSSPARBANKEN AB) FILIAL SWEDBANK","support_codes":1,"address":"MANNERHEIMINTIE 14B","city":"HELSINKI","swift_code":"SWEDFIHHXXX","id":386},
{"zip":"00101","bank_code":387,"bank":"SWEDBANK (FORENINGSSPARBANKEN AB) FILIAL SWEDBANK","support_codes":1,"address":"MANNERHEIMINTIE 14B","city":"HELSINKI","swift_code":"SWEDFIHHXXX","id":387},
{"zip":"00101","bank_code":388,"bank":"SWEDBANK (FORENINGSSPARBANKEN AB) FILIAL SWEDBANK","support_codes":1,"address":"MANNERHEIMINTIE 14B","city":"HELSINKI","swift_code":"SWEDFIHHXXX","id":388},
{"zip":"00101","bank_code":389,"bank":"SWEDBANK (FORENINGSSPARBANKEN AB) FILIAL SWEDBANK","support_codes":1,"address":"MANNERHEIMINTIE 14B","city":"HELSINKI","swift_code":"SWEDFIHHXXX","id":389},
{"zip":"00510","bank_code":390,"bank":"S-BANK LTD","support_codes":7,"address":"FLEMINGINKATU 34","city":"HELSINKI","swift_code":"SBANFIHHXXX","id":390},
{"zip":"00510","bank_code":391,"bank":"S-BANK LTD","support_codes":7,"address":"FLEMINGINKATU 34","city":"HELSINKI","swift_code":"SBANFIHHXXX","id":391},
{"zip":"00510","bank_code":392,"bank":"S-BANK LTD","support_codes":7,"address":"FLEMINGINKATU 34","city":"HELSINKI","swift_code":"SBANFIHHXXX","id":392},
{"zip":"00510","bank_code":393,"bank":"S-BANK LTD","support_codes":7,"address":"FLEMINGINKATU 34","city":"HELSINKI","swift_code":"SBANFIHHXXX","id":393},
{"zip":"00510","bank_code":394,"bank":"S-BANK LTD","support_codes":7,"address":"FLEMINGINKATU 34","city":"HELSINKI","swift_code":"SBANFIHHXXX","id":394},
{"zip":"00510","bank_code":395,"bank":"S-BANK LTD","support_codes":7,"address":"FLEMINGINKATU 34","city":"HELSINKI","swift_code":"SBANFIHHXXX","id":395},
{"zip":"00510","bank_code":396,"bank":"S-BANK LTD","support_codes":7,"address":"FLEMINGINKATU 34","city":"HELSINKI","swift_code":"SBANFIHHXXX","id":396},
{"zip":"00510","bank_code":397,"bank":"S-BANK LTD","support_codes":7,"address":"FLEMINGINKATU 34","city":"HELSINKI","swift_code":"SBANFIHHXXX","id":397},
{"zip":"00510","bank_code":398,"bank":"S-BANK LTD","support_codes":7,"address":"FLEMINGINKATU 34","city":"HELSINKI","swift_code":"SBANFIHHXXX","id":398},
{"zip":"00510","bank_code":399,"bank":"S-BANK LTD","support_codes":7,"address":"FLEMINGINKATU 34","city":"HELSINKI","swift_code":"SBANFIHHXXX","id":399},
{"zip":"02600","bank_code":400,"bank":"SAVINGS BANK FINLAND","support_codes":7,"address":"HEVOSENKENKA 3","city":"ESPOO","swift_code":"ITELFIHHXXX","id":400},
{"zip":"02600","bank_code":402,"bank":"SAVINGS BANK FINLAND","support_codes":7,"address":"HEVOSENKENKA 3","city":"ESPOO","swift_code":"ITELFIHHXXX","id":402},
{"zip":"02600","bank_code":403,"bank":"SAVINGS BANK FINLAND","support_codes":7,"address":"HEVOSENKENKA 3","city":"ESPOO","swift_code":"ITELFIHHXXX","id":403},
{"zip":"00100","bank_code":405,"bank":"AKTIA BANK P.L.C.","support_codes":7,"address":"MANNERHEIMINTIE 14","city":"HELSINKI","swift_code":"HELSFIHHXXX","id":405},
{"zip":"02600","bank_code":406,"bank":"SAVINGS BANK FINLAND","support_codes":7,"address":"HEVOSENKENKA 3","city":"ESPOO","swift_code":"ITELFIHHXXX","id":406},
{"zip":"02600","bank_code":407,"bank":"SAVINGS BANK FINLAND","support_codes":7,"address":"HEVOSENKENKA 3","city":"ESPOO","swift_code":"ITELFIHHXXX","id":407},
{"zip":"02600","bank_code":408,"bank":"SAVINGS BANK FINLAND","support_codes":7,"address":"HEVOSENKENKA 3","city":"ESPOO","swift_code":"ITELFIHHXXX","id":408},
{"zip":"02600","bank_code":410,"bank":"SAVINGS BANK FINLAND","support_codes":7,"address":"HEVOSENKENKA 3","city":"ESPOO","swift_code":"ITELFIHHXXX","id":410},
{"zip":"02600","bank_code":411,"bank":"SAVINGS BANK FINLAND","support_codes":7,"address":"HEVOSENKENKA 3","city":"ESPOO","swift_code":"ITELFIHHXXX","id":411},
{"zip":"02600","bank_code":412,"bank":"SAVINGS BANK FINLAND","support_codes":7,"address":"HEVOSENKENKA 3","city":"ESPOO","swift_code":"ITELFIHHXXX","id":412},
{"zip":"02600","bank_code":414,"bank":"SAVINGS BANK FINLAND","support_codes":7,"address":"HEVOSENKENKA 3","city":"ESPOO","swift_code":"ITELFIHHXXX","id":414},
{"zip":"02600","bank_code":415,"bank":"SAVINGS BANK FINLAND","support_codes":7,"address":"HEVOSENKENKA 3","city":"ESPOO","swift_code":"ITELFIHHXXX","id":415},
{"zip":"02600","bank_code":416,"bank":"SAVINGS BANK FINLAND","support_codes":7,"address":"HEVOSENKENKA 3","city":"ESPOO","swift_code":"ITELFIHHXXX","id":416},
{"zip":"02600","bank_code":417,"bank":"SAVINGS BANK FINLAND","support_codes":7,"address":"HEVOSENKENKA 3","city":"ESPOO","swift_code":"ITELFIHHXXX","id":417},
{"zip":"02600","bank_code":418,"bank":"SAVINGS BANK FINLAND","support_codes":7,"address":"HEVOSENKENKA 3","city":"ESPOO","swift_code":"ITELFIHHXXX","id":418},
{"zip":"02600","bank_code":419,"bank":"SAVINGS BANK FINLAND","support_codes":7,"address":"HEVOSENKENKA 3","city":"ESPOO","swift_code":"ITELFIHHXXX","id":419},
{"zip":"02600","bank_code":420,"bank":"SAVINGS BANK FINLAND","support_codes":7,"address":"HEVOSENKENKA 3","city":"ESPOO","swift_code":"ITELFIHHXXX","id":420},
{"zip":"02600","bank_code":421,"bank":"SAVINGS BANK FINLAND","support_codes":7,"address":"HEVOSENKENKA 3","city":"ESPOO","swift_code":"ITELFIHHXXX","id":421},
{"zip":"02600","bank_code":423,"bank":"SAVINGS BANK FINLAND","support_codes":7,"address":"HEVOSENKENKA 3","city":"ESPOO","swift_code":"ITELFIHHXXX","id":423},
{"zip":"02600","bank_code":424,"bank":"SAVINGS BANK FINLAND","support_codes":7,"address":"HEVOSENKENKA 3","city":"ESPOO","swift_code":"ITELFIHHXXX","id":424},
{"zip":"02600","bank_code":425,"bank":"SAVINGS BANK FINLAND","support_codes":7,"address":"HEVOSENKENKA 3","city":"ESPOO","swift_code":"ITELFIHHXXX","id":425},
{"zip":"02600","bank_code":426,"bank":"SAVINGS BANK FINLAND","support_codes":7,"address":"HEVOSENKENKA 3","city":"ESPOO","swift_code":"ITELFIHHXXX","id":426},
{"zip":"02600","bank_code":427,"bank":"SAVINGS BANK FINLAND","support_codes":7,"address":"HEVOSENKENKA 3","city":"ESPOO","swift_code":"ITELFIHHXXX","id":427},
{"zip":"02600","bank_code":428,"bank":"SAVINGS BANK FINLAND","support_codes":7,"address":"HEVOSENKENKA 3","city":"ESPOO","swift_code":"ITELFIHHXXX","id":428},
{"zip":"02600","bank_code":429,"bank":"SAVINGS BANK FINLAND","support_codes":7,"address":"HEVOSENKENKA 3","city":"ESPOO","swift_code":"ITELFIHHXXX","id":429},
{"zip":"02600","bank_code":430,"bank":"SAVINGS BANK FINLAND","support_codes":7,"address":"HEVOSENKENKA 3","city":"ESPOO","swift_code":"ITELFIHHXXX","id":430},
{"zip":"02600","bank_code":431,"bank":"SAVINGS BANK FINLAND","support_codes":7,"address":"HEVOSENKENKA 3","city":"ESPOO","swift_code":"ITELFIHHXXX","id":431},
{"zip":"02600","bank_code":432,"bank":"SAVINGS BANK FINLAND","support_codes":7,"address":"HEVOSENKENKA 3","city":"ESPOO","swift_code":"ITELFIHHXXX","id":432},
{"zip":"02600","bank_code":435,"bank":"SAVINGS BANK FINLAND","support_codes":7,"address":"HEVOSENKENKA 3","city":"ESPOO","swift_code":"ITELFIHHXXX","id":435},
{"zip":"02600","bank_code":436,"bank":"SAVINGS BANK FINLAND","support_codes":7,"address":"HEVOSENKENKA 3","city":"ESPOO","swift_code":"ITELFIHHXXX","id":436},
{"zip":"02600","bank_code":437,"bank":"SAVINGS BANK FINLAND","support_codes":7,"address":"HEVOSENKENKA 3","city":"ESPOO","swift_code":"ITELFIHHXXX","id":437},
{"zip":"02600","bank_code":438,"bank":"SAVINGS BANK FINLAND","support_codes":7,"address":"HEVOSENKENKA 3","city":"ESPOO","swift_code":"ITELFIHHXXX","id":438},
{"zip":"02600","bank_code":439,"bank":"SAVINGS BANK FINLAND","support_codes":7,"address":"HEVOSENKENKA 3","city":"ESPOO","swift_code":"ITELFIHHXXX","id":439},
{"zip":"02600","bank_code":440,"bank":"SAVINGS BANK FINLAND","support_codes":7,"address":"HEVOSENKENKA 3","city":"ESPOO","swift_code":"ITELFIHHXXX","id":440},
{"zip":"02600","bank_code":441,"bank":"SAVINGS BANK FINLAND","support_codes":7,"address":"HEVOSENKENKA 3","city":"ESPOO","swift_code":"ITELFIHHXXX","id":441},
{"zip":"02600","bank_code":442,"bank":"SAVINGS BANK FINLAND","support_codes":7,"address":"HEVOSENKENKA 3","city":"ESPOO","swift_code":"ITELFIHHXXX","id":442},
{"zip":"02600","bank_code":443,"bank":"SAVINGS BANK FINLAND","support_codes":7,"address":"HEVOSENKENKA 3","city":"ESPOO","swift_code":"ITELFIHHXXX","id":443},
{"zip":"02600","bank_code":444,"bank":"SAVINGS BANK FINLAND","support_codes":7,"address":"HEVOSENKENKA 3","city":"ESPOO","swift_code":"ITELFIHHXXX","id":444},
{"zip":"02600","bank_code":445,"bank":"SAVINGS BANK FINLAND","support_codes":7,"address":"HEVOSENKENKA 3","city":"ESPOO","swift_code":"ITELFIHHXXX","id":445},
{"zip":"02600","bank_code":446,"bank":"SAVINGS BANK FINLAND","support_codes":7,"address":"HEVOSENKENKA 3","city":"ESPOO","swift_code":"ITELFIHHXXX","id":446},
{"zip":"02600","bank_code":447,"bank":"SAVINGS BANK FINLAND","support_codes":7,"address":"HEVOSENKENKA 3","city":"ESPOO","swift_code":"ITELFIHHXXX","id":447},
{"zip":"02600","bank_code":448,"bank":"SAVINGS BANK FINLAND","support_codes":7,"address":"HEVOSENKENKA 3","city":"ESPOO","swift_code":"ITELFIHHXXX","id":448},
{"zip":"02600","bank_code":449,"bank":"SAVINGS BANK FINLAND","support_codes":7,"address":"HEVOSENKENKA 3","city":"ESPOO","swift_code":"ITELFIHHXXX","id":449},
{"zip":"02600","bank_code":450,"bank":"SAVINGS BANK FINLAND","support_codes":7,"address":"HEVOSENKENKA 3","city":"ESPOO","swift_code":"ITELFIHHXXX","id":450},
{"zip":"02600","bank_code":451,"bank":"SAVINGS BANK FINLAND","support_codes":7,"address":"HEVOSENKENKA 3","city":"ESPOO","swift_code":"ITELFIHHXXX","id":451},
{"zip":"02600","bank_code":452,"bank":"SAVINGS BANK FINLAND","support_codes":7,"address":"HEVOSENKENKA 3","city":"ESPOO","swift_code":"ITELFIHHXXX","id":452},
{"zip":"02600","bank_code":454,"bank":"SAVINGS BANK FINLAND","support_codes":7,"address":"HEVOSENKENKA 3","city":"ESPOO","swift_code":"ITELFIHHXXX","id":454},
{"zip":"02600","bank_code":455,"bank":"SAVINGS BANK FINLAND","support_codes":7,"address":"HEVOSENKENKA 3","city":"ESPOO","swift_code":"ITELFIHHXXX","id":455},
{"zip":"02600","bank_code":456,"bank":"SAVINGS BANK FINLAND","support_codes":7,"address":"HEVOSENKENKA 3","city":"ESPOO","swift_code":"ITELFIHHXXX","id":456},
{"zip":"02600","bank_code":457,"bank":"SAVINGS BANK FINLAND","support_codes":7,"address":"HEVOSENKENKA 3","city":"ESPOO","swift_code":"ITELFIHHXXX","id":457},
{"zip":"02600","bank_code":458,"bank":"SAVINGS BANK FINLAND","support_codes":7,"address":"HEVOSENKENKA 3","city":"ESPOO","swift_code":"ITELFIHHXXX","id":458},
{"zip":"02600","bank_code":459,"bank":"SAVINGS BANK FINLAND","support_codes":7,"address":"HEVOSENKENKA 3","city":"ESPOO","swift_code":"ITELFIHHXXX","id":459},
{"zip":"02600","bank_code":460,"bank":"SAVINGS BANK FINLAND","support_codes":7,"address":"HEVOSENKENKA 3","city":"ESPOO","swift_code":"ITELFIHHXXX","id":460},
{"zip":"02600","bank_code":461,"bank":"SAVINGS BANK FINLAND","support_codes":7,"address":"HEVOSENKENKA 3","city":"ESPOO","swift_code":"ITELFIHHXXX","id":461},
{"zip":"02600","bank_code":462,"bank":"SAVINGS BANK FINLAND","support_codes":7,"address":"HEVOSENKENKA 3","city":"ESPOO","swift_code":"ITELFIHHXXX","id":462},
{"zip":"02600","bank_code":463,"bank":"SAVINGS BANK FINLAND","support_codes":7,"address":"HEVOSENKENKA 3","city":"ESPOO","swift_code":"ITELFIHHXXX","id":463},
{"zip":"02600","bank_code":464,"bank":"SAVINGS BANK FINLAND","support_codes":7,"address":"HEVOSENKENKA 3","city":"ESPOO","swift_code":"ITELFIHHXXX","id":464},
{"zip":"00100","bank_code":470,"bank":"POP BANK","support_codes":7,"address":"MANNERHEIMINTIE 14","city":"HELSINKI","swift_code":"POPFFI22XXX","id":470},
{"zip":"00100","bank_code":471,"bank":"POP BANK","support_codes":7,"address":"MANNERHEIMINTIE 14","city":"HELSINKI","swift_code":"POPFFI22XXX","id":471},
{"zip":"00100","bank_code":472,"bank":"POP BANK","support_codes":7,"address":"MANNERHEIMINTIE 14","city":"HELSINKI","swift_code":"POPFFI22XXX","id":472},
{"zip":"00100","bank_code":473,"bank":"POP BANK","support_codes":7,"address":"MANNERHEIMINTIE 14","city":"HELSINKI","swift_code":"POPFFI22XXX","id":473},
{"zip":"00100","bank_code":474,"bank":"POP BANK","support_codes":7,"address":"MANNERHEIMINTIE 14","city":"HELSINKI","swift_code":"POPFFI22XXX","id":474},
{"zip":"00100","bank_code":475,"bank":"POP BANK","support_codes":7,"address":"MANNERHEIMINTIE 14","city":"HELSINKI","swift_code":"POPFFI22XXX","id":475},
{"zip":"00100","bank_code":476,"bank":"POP BANK","support_codes":7,"address":"MANNERHEIMINTIE 14","city":"HELSINKI","swift_code":"POPFFI22XXX","id":476},
{"zip":"00100","bank_code":477,"bank":"POP BANK","support_codes":7,"address":"MANNERHEIMINTIE 14","city":"HELSINKI","swift_code":"POPFFI22XXX","id":477},
{"zip":"00100","bank_code":478,"bank":"POP BANK","support_codes":7,"address":"MANNERHEIMINTIE 14","city":"HELSINKI","swift_code":"POPFFI22XXX","id":478},
{"zip":"#N\/A","bank_code":479,"bank":"BONUM BANK LTD","support_codes":7,"address":"#N\/A","city":"#N\/A","swift_code":"POPFFI22XXX","id":479},
{"zip":"02600","bank_code":483,"bank":"SAVINGS BANK FINLAND","support_codes":7,"address":"HEVOSENKENKA 3","city":"ESPOO","swift_code":"ITELFIHHXXX","id":483},
{"zip":"02600","bank_code":484,"bank":"SAVINGS BANK FINLAND","support_codes":7,"address":"HEVOSENKENKA 3","city":"ESPOO","swift_code":"ITELFIHHXXX","id":484},
{"zip":"02600","bank_code":485,"bank":"SAVINGS BANK FINLAND","support_codes":7,"address":"HEVOSENKENKA 3","city":"ESPOO","swift_code":"ITELFIHHXXX","id":485},
{"zip":"02600","bank_code":486,"bank":"SAVINGS BANK FINLAND","support_codes":7,"address":"HEVOSENKENKA 3","city":"ESPOO","swift_code":"ITELFIHHXXX","id":486},
{"zip":"02600","bank_code":487,"bank":"SAVINGS BANK FINLAND","support_codes":7,"address":"HEVOSENKENKA 3","city":"ESPOO","swift_code":"ITELFIHHXXX","id":487},
{"zip":"02600","bank_code":488,"bank":"SAVINGS BANK FINLAND","support_codes":7,"address":"HEVOSENKENKA 3","city":"ESPOO","swift_code":"ITELFIHHXXX","id":488},
{"zip":"02600","bank_code":489,"bank":"SAVINGS BANK FINLAND","support_codes":7,"address":"HEVOSENKENKA 3","city":"ESPOO","swift_code":"ITELFIHHXXX","id":489},
{"zip":"02600","bank_code":490,"bank":"SAVINGS BANK FINLAND","support_codes":7,"address":"HEVOSENKENKA 3","city":"ESPOO","swift_code":"ITELFIHHXXX","id":490},
{"zip":"02600","bank_code":491,"bank":"SAVINGS BANK FINLAND","support_codes":7,"address":"HEVOSENKENKA 3","city":"ESPOO","swift_code":"ITELFIHHXXX","id":491},
{"zip":"02600","bank_code":492,"bank":"SAVINGS BANK FINLAND","support_codes":7,"address":"HEVOSENKENKA 3","city":"ESPOO","swift_code":"ITELFIHHXXX","id":492},
{"zip":"02600","bank_code":493,"bank":"SAVINGS BANK FINLAND","support_codes":7,"address":"HEVOSENKENKA 3","city":"ESPOO","swift_code":"ITELFIHHXXX","id":493},
{"zip":"02600","bank_code":495,"bank":"SAVINGS BANK FINLAND","support_codes":7,"address":"HEVOSENKENKA 3","city":"ESPOO","swift_code":"ITELFIHHXXX","id":495},
{"zip":"02600","bank_code":496,"bank":"SAVINGS BANK FINLAND","support_codes":7,"address":"HEVOSENKENKA 3","city":"ESPOO","swift_code":"ITELFIHHXXX","id":496},
{"zip":"00100","bank_code":497,"bank":"AKTIA BANK P.L.C.","support_codes":7,"address":"MANNERHEIMINTIE 14","city":"HELSINKI","swift_code":"HELSFIHHXXX","id":497},
{"zip":"00510","bank_code":500,"bank":"POHJOLA PANKKI OYJ (POHJOLA BANK PLC)","support_codes":7,"address":"TEOLLISUUSKATU 1B \/ VA3A","city":"HELSINKI","swift_code":"OKOYFIHHXXX","id":500},
{"zip":"00510","bank_code":501,"bank":"POHJOLA PANKKI OYJ (POHJOLA BANK PLC)","support_codes":7,"address":"TEOLLISUUSKATU 1B \/ VA3A","city":"HELSINKI","swift_code":"OKOYFIHHXXX","id":501},
{"zip":"00510","bank_code":502,"bank":"POHJOLA PANKKI OYJ (POHJOLA BANK PLC)","support_codes":7,"address":"TEOLLISUUSKATU 1B \/ VA3A","city":"HELSINKI","swift_code":"OKOYFIHHXXX","id":502},
{"zip":"00510","bank_code":503,"bank":"POHJOLA PANKKI OYJ (POHJOLA BANK PLC)","support_codes":7,"address":"TEOLLISUUSKATU 1B \/ VA3A","city":"HELSINKI","swift_code":"OKOYFIHHXXX","id":503},
{"zip":"00510","bank_code":504,"bank":"POHJOLA PANKKI OYJ (POHJOLA BANK PLC)","support_codes":7,"address":"TEOLLISUUSKATU 1B \/ VA3A","city":"HELSINKI","swift_code":"OKOYFIHHXXX","id":504},
{"zip":"00510","bank_code":505,"bank":"POHJOLA PANKKI OYJ (POHJOLA BANK PLC)","support_codes":7,"address":"TEOLLISUUSKATU 1B \/ VA3A","city":"HELSINKI","swift_code":"OKOYFIHHXXX","id":505},
{"zip":"00510","bank_code":506,"bank":"POHJOLA PANKKI OYJ (POHJOLA BANK PLC)","support_codes":7,"address":"TEOLLISUUSKATU 1B \/ VA3A","city":"HELSINKI","swift_code":"OKOYFIHHXXX","id":506},
{"zip":"00510","bank_code":507,"bank":"POHJOLA PANKKI OYJ (POHJOLA BANK PLC)","support_codes":7,"address":"TEOLLISUUSKATU 1B \/ VA3A","city":"HELSINKI","swift_code":"OKOYFIHHXXX","id":507},
{"zip":"00510","bank_code":508,"bank":"POHJOLA PANKKI OYJ (POHJOLA BANK PLC)","support_codes":7,"address":"TEOLLISUUSKATU 1B \/ VA3A","city":"HELSINKI","swift_code":"OKOYFIHHXXX","id":508},
{"zip":"00510","bank_code":509,"bank":"POHJOLA PANKKI OYJ (POHJOLA BANK PLC)","support_codes":7,"address":"TEOLLISUUSKATU 1B \/ VA3A","city":"HELSINKI","swift_code":"OKOYFIHHXXX","id":509},
{"zip":"00510","bank_code":510,"bank":"POHJOLA PANKKI OYJ (POHJOLA BANK PLC)","support_codes":7,"address":"TEOLLISUUSKATU 1B \/ VA3A","city":"HELSINKI","swift_code":"OKOYFIHHXXX","id":510},
{"zip":"00510","bank_code":511,"bank":"POHJOLA PANKKI OYJ (POHJOLA BANK PLC)","support_codes":7,"address":"TEOLLISUUSKATU 1B \/ VA3A","city":"HELSINKI","swift_code":"OKOYFIHHXXX","id":511},
{"zip":"00510","bank_code":512,"bank":"POHJOLA PANKKI OYJ (POHJOLA BANK PLC)","support_codes":7,"address":"TEOLLISUUSKATU 1B \/ VA3A","city":"HELSINKI","swift_code":"OKOYFIHHXXX","id":512},
{"zip":"00510","bank_code":513,"bank":"POHJOLA PANKKI OYJ (POHJOLA BANK PLC)","support_codes":7,"address":"TEOLLISUUSKATU 1B \/ VA3A","city":"HELSINKI","swift_code":"OKOYFIHHXXX","id":513},
{"zip":"00510","bank_code":514,"bank":"POHJOLA PANKKI OYJ (POHJOLA BANK PLC)","support_codes":7,"address":"TEOLLISUUSKATU 1B \/ VA3A","city":"HELSINKI","swift_code":"OKOYFIHHXXX","id":514},
{"zip":"00510","bank_code":515,"bank":"POHJOLA PANKKI OYJ (POHJOLA BANK PLC)","support_codes":7,"address":"TEOLLISUUSKATU 1B \/ VA3A","city":"HELSINKI","swift_code":"OKOYFIHHXXX","id":515},
{"zip":"00510","bank_code":516,"bank":"POHJOLA PANKKI OYJ (POHJOLA BANK PLC)","support_codes":7,"address":"TEOLLISUUSKATU 1B \/ VA3A","city":"HELSINKI","swift_code":"OKOYFIHHXXX","id":516},
{"zip":"00510","bank_code":517,"bank":"POHJOLA PANKKI OYJ (POHJOLA BANK PLC)","support_codes":7,"address":"TEOLLISUUSKATU 1B \/ VA3A","city":"HELSINKI","swift_code":"OKOYFIHHXXX","id":517},
{"zip":"00510","bank_code":518,"bank":"POHJOLA PANKKI OYJ (POHJOLA BANK PLC)","support_codes":7,"address":"TEOLLISUUSKATU 1B \/ VA3A","city":"HELSINKI","swift_code":"OKOYFIHHXXX","id":518},
{"zip":"00510","bank_code":519,"bank":"POHJOLA PANKKI OYJ (POHJOLA BANK PLC)","support_codes":7,"address":"TEOLLISUUSKATU 1B \/ VA3A","city":"HELSINKI","swift_code":"OKOYFIHHXXX","id":519},
{"zip":"00510","bank_code":520,"bank":"POHJOLA PANKKI OYJ (POHJOLA BANK PLC)","support_codes":7,"address":"TEOLLISUUSKATU 1B \/ VA3A","city":"HELSINKI","swift_code":"OKOYFIHHXXX","id":520},
{"zip":"00510","bank_code":521,"bank":"POHJOLA PANKKI OYJ (POHJOLA BANK PLC)","support_codes":7,"address":"TEOLLISUUSKATU 1B \/ VA3A","city":"HELSINKI","swift_code":"OKOYFIHHXXX","id":521},
{"zip":"00510","bank_code":522,"bank":"POHJOLA PANKKI OYJ (POHJOLA BANK PLC)","support_codes":7,"address":"TEOLLISUUSKATU 1B \/ VA3A","city":"HELSINKI","swift_code":"OKOYFIHHXXX","id":522},
{"zip":"00510","bank_code":523,"bank":"POHJOLA PANKKI OYJ (POHJOLA BANK PLC)","support_codes":7,"address":"TEOLLISUUSKATU 1B \/ VA3A","city":"HELSINKI","swift_code":"OKOYFIHHXXX","id":523},
{"zip":"00510","bank_code":524,"bank":"POHJOLA PANKKI OYJ (POHJOLA BANK PLC)","support_codes":7,"address":"TEOLLISUUSKATU 1B \/ VA3A","city":"HELSINKI","swift_code":"OKOYFIHHXXX","id":524},
{"zip":"00510","bank_code":525,"bank":"POHJOLA PANKKI OYJ (POHJOLA BANK PLC)","support_codes":7,"address":"TEOLLISUUSKATU 1B \/ VA3A","city":"HELSINKI","swift_code":"OKOYFIHHXXX","id":525},
{"zip":"00510","bank_code":526,"bank":"POHJOLA PANKKI OYJ (POHJOLA BANK PLC)","support_codes":7,"address":"TEOLLISUUSKATU 1B \/ VA3A","city":"HELSINKI","swift_code":"OKOYFIHHXXX","id":526},
{"zip":"00510","bank_code":527,"bank":"POHJOLA PANKKI OYJ (POHJOLA BANK PLC)","support_codes":7,"address":"TEOLLISUUSKATU 1B \/ VA3A","city":"HELSINKI","swift_code":"OKOYFIHHXXX","id":527},
{"zip":"00510","bank_code":528,"bank":"POHJOLA PANKKI OYJ (POHJOLA BANK PLC)","support_codes":7,"address":"TEOLLISUUSKATU 1B \/ VA3A","city":"HELSINKI","swift_code":"OKOYFIHHXXX","id":528},
{"zip":"00510","bank_code":529,"bank":"POHJOLA PANKKI OYJ (POHJOLA BANK PLC)","support_codes":7,"address":"TEOLLISUUSKATU 1B \/ VA3A","city":"HELSINKI","swift_code":"OKOYFIHHXXX","id":529},
{"zip":"00510","bank_code":530,"bank":"POHJOLA PANKKI OYJ (POHJOLA BANK PLC)","support_codes":7,"address":"TEOLLISUUSKATU 1B \/ VA3A","city":"HELSINKI","swift_code":"OKOYFIHHXXX","id":530},
{"zip":"00510","bank_code":531,"bank":"POHJOLA PANKKI OYJ (POHJOLA BANK PLC)","support_codes":7,"address":"TEOLLISUUSKATU 1B \/ VA3A","city":"HELSINKI","swift_code":"OKOYFIHHXXX","id":531},
{"zip":"00510","bank_code":532,"bank":"POHJOLA PANKKI OYJ (POHJOLA BANK PLC)","support_codes":7,"address":"TEOLLISUUSKATU 1B \/ VA3A","city":"HELSINKI","swift_code":"OKOYFIHHXXX","id":532},
{"zip":"00510","bank_code":533,"bank":"POHJOLA PANKKI OYJ (POHJOLA BANK PLC)","support_codes":7,"address":"TEOLLISUUSKATU 1B \/ VA3A","city":"HELSINKI","swift_code":"OKOYFIHHXXX","id":533},
{"zip":"00510","bank_code":534,"bank":"POHJOLA PANKKI OYJ (POHJOLA BANK PLC)","support_codes":7,"address":"TEOLLISUUSKATU 1B \/ VA3A","city":"HELSINKI","swift_code":"OKOYFIHHXXX","id":534},
{"zip":"00510","bank_code":535,"bank":"POHJOLA PANKKI OYJ (POHJOLA BANK PLC)","support_codes":7,"address":"TEOLLISUUSKATU 1B \/ VA3A","city":"HELSINKI","swift_code":"OKOYFIHHXXX","id":535},
{"zip":"00510","bank_code":536,"bank":"POHJOLA PANKKI OYJ (POHJOLA BANK PLC)","support_codes":7,"address":"TEOLLISUUSKATU 1B \/ VA3A","city":"HELSINKI","swift_code":"OKOYFIHHXXX","id":536},
{"zip":"00510","bank_code":537,"bank":"POHJOLA PANKKI OYJ (POHJOLA BANK PLC)","support_codes":7,"address":"TEOLLISUUSKATU 1B \/ VA3A","city":"HELSINKI","swift_code":"OKOYFIHHXXX","id":537},
{"zip":"00510","bank_code":538,"bank":"POHJOLA PANKKI OYJ (POHJOLA BANK PLC)","support_codes":7,"address":"TEOLLISUUSKATU 1B \/ VA3A","city":"HELSINKI","swift_code":"OKOYFIHHXXX","id":538},
{"zip":"00510","bank_code":539,"bank":"POHJOLA PANKKI OYJ (POHJOLA BANK PLC)","support_codes":7,"address":"TEOLLISUUSKATU 1B \/ VA3A","city":"HELSINKI","swift_code":"OKOYFIHHXXX","id":539},
{"zip":"00510","bank_code":540,"bank":"POHJOLA PANKKI OYJ (POHJOLA BANK PLC)","support_codes":7,"address":"TEOLLISUUSKATU 1B \/ VA3A","city":"HELSINKI","swift_code":"OKOYFIHHXXX","id":540},
{"zip":"00510","bank_code":541,"bank":"POHJOLA PANKKI OYJ (POHJOLA BANK PLC)","support_codes":7,"address":"TEOLLISUUSKATU 1B \/ VA3A","city":"HELSINKI","swift_code":"OKOYFIHHXXX","id":541},
{"zip":"00510","bank_code":542,"bank":"POHJOLA PANKKI OYJ (POHJOLA BANK PLC)","support_codes":7,"address":"TEOLLISUUSKATU 1B \/ VA3A","city":"HELSINKI","swift_code":"OKOYFIHHXXX","id":542},
{"zip":"00510","bank_code":543,"bank":"POHJOLA PANKKI OYJ (POHJOLA BANK PLC)","support_codes":7,"address":"TEOLLISUUSKATU 1B \/ VA3A","city":"HELSINKI","swift_code":"OKOYFIHHXXX","id":543},
{"zip":"00510","bank_code":544,"bank":"POHJOLA PANKKI OYJ (POHJOLA BANK PLC)","support_codes":7,"address":"TEOLLISUUSKATU 1B \/ VA3A","city":"HELSINKI","swift_code":"OKOYFIHHXXX","id":544},
{"zip":"00510","bank_code":545,"bank":"POHJOLA PANKKI OYJ (POHJOLA BANK PLC)","support_codes":7,"address":"TEOLLISUUSKATU 1B \/ VA3A","city":"HELSINKI","swift_code":"OKOYFIHHXXX","id":545},
{"zip":"00510","bank_code":546,"bank":"POHJOLA PANKKI OYJ (POHJOLA BANK PLC)","support_codes":7,"address":"TEOLLISUUSKATU 1B \/ VA3A","city":"HELSINKI","swift_code":"OKOYFIHHXXX","id":546},
{"zip":"00510","bank_code":547,"bank":"POHJOLA PANKKI OYJ (POHJOLA BANK PLC)","support_codes":7,"address":"TEOLLISUUSKATU 1B \/ VA3A","city":"HELSINKI","swift_code":"OKOYFIHHXXX","id":547},
{"zip":"00510","bank_code":548,"bank":"POHJOLA PANKKI OYJ (POHJOLA BANK PLC)","support_codes":7,"address":"TEOLLISUUSKATU 1B \/ VA3A","city":"HELSINKI","swift_code":"OKOYFIHHXXX","id":548},
{"zip":"00510","bank_code":549,"bank":"POHJOLA PANKKI OYJ (POHJOLA BANK PLC)","support_codes":7,"address":"TEOLLISUUSKATU 1B \/ VA3A","city":"HELSINKI","swift_code":"OKOYFIHHXXX","id":549},
{"zip":"00510","bank_code":550,"bank":"POHJOLA PANKKI OYJ (POHJOLA BANK PLC)","support_codes":7,"address":"TEOLLISUUSKATU 1B \/ VA3A","city":"HELSINKI","swift_code":"OKOYFIHHXXX","id":550},
{"zip":"00510","bank_code":551,"bank":"POHJOLA PANKKI OYJ (POHJOLA BANK PLC)","support_codes":7,"address":"TEOLLISUUSKATU 1B \/ VA3A","city":"HELSINKI","swift_code":"OKOYFIHHXXX","id":551},
{"zip":"00510","bank_code":552,"bank":"POHJOLA PANKKI OYJ (POHJOLA BANK PLC)","support_codes":7,"address":"TEOLLISUUSKATU 1B \/ VA3A","city":"HELSINKI","swift_code":"OKOYFIHHXXX","id":552},
{"zip":"00510","bank_code":553,"bank":"POHJOLA PANKKI OYJ (POHJOLA BANK PLC)","support_codes":7,"address":"TEOLLISUUSKATU 1B \/ VA3A","city":"HELSINKI","swift_code":"OKOYFIHHXXX","id":553},
{"zip":"00510","bank_code":554,"bank":"POHJOLA PANKKI OYJ (POHJOLA BANK PLC)","support_codes":7,"address":"TEOLLISUUSKATU 1B \/ VA3A","city":"HELSINKI","swift_code":"OKOYFIHHXXX","id":554},
{"zip":"00510","bank_code":555,"bank":"POHJOLA PANKKI OYJ (POHJOLA BANK PLC)","support_codes":7,"address":"TEOLLISUUSKATU 1B \/ VA3A","city":"HELSINKI","swift_code":"OKOYFIHHXXX","id":555},
{"zip":"00510","bank_code":556,"bank":"POHJOLA PANKKI OYJ (POHJOLA BANK PLC)","support_codes":7,"address":"TEOLLISUUSKATU 1B \/ VA3A","city":"HELSINKI","swift_code":"OKOYFIHHXXX","id":556},
{"zip":"00510","bank_code":557,"bank":"POHJOLA PANKKI OYJ (POHJOLA BANK PLC)","support_codes":7,"address":"TEOLLISUUSKATU 1B \/ VA3A","city":"HELSINKI","swift_code":"OKOYFIHHXXX","id":557},
{"zip":"00510","bank_code":558,"bank":"POHJOLA PANKKI OYJ (POHJOLA BANK PLC)","support_codes":7,"address":"TEOLLISUUSKATU 1B \/ VA3A","city":"HELSINKI","swift_code":"OKOYFIHHXXX","id":558},
{"zip":"00510","bank_code":559,"bank":"POHJOLA PANKKI OYJ (POHJOLA BANK PLC)","support_codes":7,"address":"TEOLLISUUSKATU 1B \/ VA3A","city":"HELSINKI","swift_code":"OKOYFIHHXXX","id":559},
{"zip":"00510","bank_code":560,"bank":"POHJOLA PANKKI OYJ (POHJOLA BANK PLC)","support_codes":7,"address":"TEOLLISUUSKATU 1B \/ VA3A","city":"HELSINKI","swift_code":"OKOYFIHHXXX","id":560},
{"zip":"00510","bank_code":561,"bank":"POHJOLA PANKKI OYJ (POHJOLA BANK PLC)","support_codes":7,"address":"TEOLLISUUSKATU 1B \/ VA3A","city":"HELSINKI","swift_code":"OKOYFIHHXXX","id":561},
{"zip":"00510","bank_code":562,"bank":"POHJOLA PANKKI OYJ (POHJOLA BANK PLC)","support_codes":7,"address":"TEOLLISUUSKATU 1B \/ VA3A","city":"HELSINKI","swift_code":"OKOYFIHHXXX","id":562},
{"zip":"00510","bank_code":563,"bank":"POHJOLA PANKKI OYJ (POHJOLA BANK PLC)","support_codes":7,"address":"TEOLLISUUSKATU 1B \/ VA3A","city":"HELSINKI","swift_code":"OKOYFIHHXXX","id":563},
{"zip":"00510","bank_code":564,"bank":"POHJOLA PANKKI OYJ (POHJOLA BANK PLC)","support_codes":7,"address":"TEOLLISUUSKATU 1B \/ VA3A","city":"HELSINKI","swift_code":"OKOYFIHHXXX","id":564},
{"zip":"00510","bank_code":565,"bank":"POHJOLA PANKKI OYJ (POHJOLA BANK PLC)","support_codes":7,"address":"TEOLLISUUSKATU 1B \/ VA3A","city":"HELSINKI","swift_code":"OKOYFIHHXXX","id":565},
{"zip":"00510","bank_code":566,"bank":"POHJOLA PANKKI OYJ (POHJOLA BANK PLC)","support_codes":7,"address":"TEOLLISUUSKATU 1B \/ VA3A","city":"HELSINKI","swift_code":"OKOYFIHHXXX","id":566},
{"zip":"00510","bank_code":567,"bank":"POHJOLA PANKKI OYJ (POHJOLA BANK PLC)","support_codes":7,"address":"TEOLLISUUSKATU 1B \/ VA3A","city":"HELSINKI","swift_code":"OKOYFIHHXXX","id":567},
{"zip":"00510","bank_code":568,"bank":"POHJOLA PANKKI OYJ (POHJOLA BANK PLC)","support_codes":7,"address":"TEOLLISUUSKATU 1B \/ VA3A","city":"HELSINKI","swift_code":"OKOYFIHHXXX","id":568},
{"zip":"00510","bank_code":569,"bank":"POHJOLA PANKKI OYJ (POHJOLA BANK PLC)","support_codes":7,"address":"TEOLLISUUSKATU 1B \/ VA3A","city":"HELSINKI","swift_code":"OKOYFIHHXXX","id":569},
{"zip":"00510","bank_code":570,"bank":"POHJOLA PANKKI OYJ (POHJOLA BANK PLC)","support_codes":7,"address":"TEOLLISUUSKATU 1B \/ VA3A","city":"HELSINKI","swift_code":"OKOYFIHHXXX","id":570},
{"zip":"00510","bank_code":571,"bank":"POHJOLA PANKKI OYJ (POHJOLA BANK PLC)","support_codes":7,"address":"TEOLLISUUSKATU 1B \/ VA3A","city":"HELSINKI","swift_code":"OKOYFIHHXXX","id":571},
{"zip":"00510","bank_code":572,"bank":"POHJOLA PANKKI OYJ (POHJOLA BANK PLC)","support_codes":7,"address":"TEOLLISUUSKATU 1B \/ VA3A","city":"HELSINKI","swift_code":"OKOYFIHHXXX","id":572},
{"zip":"00510","bank_code":573,"bank":"POHJOLA PANKKI OYJ (POHJOLA BANK PLC)","support_codes":7,"address":"TEOLLISUUSKATU 1B \/ VA3A","city":"HELSINKI","swift_code":"OKOYFIHHXXX","id":573},
{"zip":"00510","bank_code":574,"bank":"POHJOLA PANKKI OYJ (POHJOLA BANK PLC)","support_codes":7,"address":"TEOLLISUUSKATU 1B \/ VA3A","city":"HELSINKI","swift_code":"OKOYFIHHXXX","id":574},
{"zip":"00510","bank_code":575,"bank":"POHJOLA PANKKI OYJ (POHJOLA BANK PLC)","support_codes":7,"address":"TEOLLISUUSKATU 1B \/ VA3A","city":"HELSINKI","swift_code":"OKOYFIHHXXX","id":575},
{"zip":"00510","bank_code":576,"bank":"POHJOLA PANKKI OYJ (POHJOLA BANK PLC)","support_codes":7,"address":"TEOLLISUUSKATU 1B \/ VA3A","city":"HELSINKI","swift_code":"OKOYFIHHXXX","id":576},
{"zip":"00510","bank_code":577,"bank":"POHJOLA PANKKI OYJ (POHJOLA BANK PLC)","support_codes":7,"address":"TEOLLISUUSKATU 1B \/ VA3A","city":"HELSINKI","swift_code":"OKOYFIHHXXX","id":577},
{"zip":"00510","bank_code":578,"bank":"POHJOLA PANKKI OYJ (POHJOLA BANK PLC)","support_codes":7,"address":"TEOLLISUUSKATU 1B \/ VA3A","city":"HELSINKI","swift_code":"OKOYFIHHXXX","id":578},
{"zip":"00510","bank_code":579,"bank":"POHJOLA PANKKI OYJ (POHJOLA BANK PLC)","support_codes":7,"address":"TEOLLISUUSKATU 1B \/ VA3A","city":"HELSINKI","swift_code":"OKOYFIHHXXX","id":579},
{"zip":"00510","bank_code":580,"bank":"POHJOLA PANKKI OYJ (POHJOLA BANK PLC)","support_codes":7,"address":"TEOLLISUUSKATU 1B \/ VA3A","city":"HELSINKI","swift_code":"OKOYFIHHXXX","id":580},
{"zip":"00510","bank_code":581,"bank":"POHJOLA PANKKI OYJ (POHJOLA BANK PLC)","support_codes":7,"address":"TEOLLISUUSKATU 1B \/ VA3A","city":"HELSINKI","swift_code":"OKOYFIHHXXX","id":581},
{"zip":"00510","bank_code":582,"bank":"POHJOLA PANKKI OYJ (POHJOLA BANK PLC)","support_codes":7,"address":"TEOLLISUUSKATU 1B \/ VA3A","city":"HELSINKI","swift_code":"OKOYFIHHXXX","id":582},
{"zip":"00510","bank_code":583,"bank":"POHJOLA PANKKI OYJ (POHJOLA BANK PLC)","support_codes":7,"address":"TEOLLISUUSKATU 1B \/ VA3A","city":"HELSINKI","swift_code":"OKOYFIHHXXX","id":583},
{"zip":"00510","bank_code":584,"bank":"POHJOLA PANKKI OYJ (POHJOLA BANK PLC)","support_codes":7,"address":"TEOLLISUUSKATU 1B \/ VA3A","city":"HELSINKI","swift_code":"OKOYFIHHXXX","id":584},
{"zip":"00510","bank_code":585,"bank":"POHJOLA PANKKI OYJ (POHJOLA BANK PLC)","support_codes":7,"address":"TEOLLISUUSKATU 1B \/ VA3A","city":"HELSINKI","swift_code":"OKOYFIHHXXX","id":585},
{"zip":"00510","bank_code":586,"bank":"POHJOLA PANKKI OYJ (POHJOLA BANK PLC)","support_codes":7,"address":"TEOLLISUUSKATU 1B \/ VA3A","city":"HELSINKI","swift_code":"OKOYFIHHXXX","id":586},
{"zip":"00510","bank_code":587,"bank":"POHJOLA PANKKI OYJ (POHJOLA BANK PLC)","support_codes":7,"address":"TEOLLISUUSKATU 1B \/ VA3A","city":"HELSINKI","swift_code":"OKOYFIHHXXX","id":587},
{"zip":"00510","bank_code":588,"bank":"POHJOLA PANKKI OYJ (POHJOLA BANK PLC)","support_codes":7,"address":"TEOLLISUUSKATU 1B \/ VA3A","city":"HELSINKI","swift_code":"OKOYFIHHXXX","id":588},
{"zip":"00510","bank_code":589,"bank":"POHJOLA PANKKI OYJ (POHJOLA BANK PLC)","support_codes":7,"address":"TEOLLISUUSKATU 1B \/ VA3A","city":"HELSINKI","swift_code":"OKOYFIHHXXX","id":589},
{"zip":"00510","bank_code":590,"bank":"POHJOLA PANKKI OYJ (POHJOLA BANK PLC)","support_codes":7,"address":"TEOLLISUUSKATU 1B \/ VA3A","city":"HELSINKI","swift_code":"OKOYFIHHXXX","id":590},
{"zip":"00510","bank_code":591,"bank":"POHJOLA PANKKI OYJ (POHJOLA BANK PLC)","support_codes":7,"address":"TEOLLISUUSKATU 1B \/ VA3A","city":"HELSINKI","swift_code":"OKOYFIHHXXX","id":591},
{"zip":"00510","bank_code":592,"bank":"POHJOLA PANKKI OYJ (POHJOLA BANK PLC)","support_codes":7,"address":"TEOLLISUUSKATU 1B \/ VA3A","city":"HELSINKI","swift_code":"OKOYFIHHXXX","id":592},
{"zip":"00510","bank_code":593,"bank":"POHJOLA PANKKI OYJ (POHJOLA BANK PLC)","support_codes":7,"address":"TEOLLISUUSKATU 1B \/ VA3A","city":"HELSINKI","swift_code":"OKOYFIHHXXX","id":593},
{"zip":"00510","bank_code":594,"bank":"POHJOLA PANKKI OYJ (POHJOLA BANK PLC)","support_codes":7,"address":"TEOLLISUUSKATU 1B \/ VA3A","city":"HELSINKI","swift_code":"OKOYFIHHXXX","id":594},
{"zip":"00510","bank_code":595,"bank":"POHJOLA PANKKI OYJ (POHJOLA BANK PLC)","support_codes":7,"address":"TEOLLISUUSKATU 1B \/ VA3A","city":"HELSINKI","swift_code":"OKOYFIHHXXX","id":595},
{"zip":"00510","bank_code":596,"bank":"POHJOLA PANKKI OYJ (POHJOLA BANK PLC)","support_codes":7,"address":"TEOLLISUUSKATU 1B \/ VA3A","city":"HELSINKI","swift_code":"OKOYFIHHXXX","id":596},
{"zip":"00510","bank_code":597,"bank":"POHJOLA PANKKI OYJ (POHJOLA BANK PLC)","support_codes":7,"address":"TEOLLISUUSKATU 1B \/ VA3A","city":"HELSINKI","swift_code":"OKOYFIHHXXX","id":597},
{"zip":"00510","bank_code":598,"bank":"POHJOLA PANKKI OYJ (POHJOLA BANK PLC)","support_codes":7,"address":"TEOLLISUUSKATU 1B \/ VA3A","city":"HELSINKI","swift_code":"OKOYFIHHXXX","id":598},
{"zip":"00510","bank_code":599,"bank":"POHJOLA PANKKI OYJ (POHJOLA BANK PLC)","support_codes":7,"address":"TEOLLISUUSKATU 1B \/ VA3A","city":"HELSINKI","swift_code":"OKOYFIHHXXX","id":599},
{"zip":"22100","bank_code":600,"bank":"BANK OF ALAND PLC","support_codes":7,"address":"NYGATAN 2","city":"MARIEHAMN","swift_code":"AABAFI22XXX","id":600},
{"zip":"22100","bank_code":601,"bank":"BANK OF ALAND PLC","support_codes":7,"address":"NYGATAN 2","city":"MARIEHAMN","swift_code":"AABAFI22XXX","id":601},
{"zip":"22100","bank_code":602,"bank":"BANK OF ALAND PLC","support_codes":7,"address":"NYGATAN 2","city":"MARIEHAMN","swift_code":"AABAFI22XXX","id":602},
{"zip":"22100","bank_code":603,"bank":"BANK OF ALAND PLC","support_codes":7,"address":"NYGATAN 2","city":"MARIEHAMN","swift_code":"AABAFI22XXX","id":603},
{"zip":"22100","bank_code":604,"bank":"BANK OF ALAND PLC","support_codes":7,"address":"NYGATAN 2","city":"MARIEHAMN","swift_code":"AABAFI22XXX","id":604},
{"zip":"22100","bank_code":605,"bank":"BANK OF ALAND PLC","support_codes":7,"address":"NYGATAN 2","city":"MARIEHAMN","swift_code":"AABAFI22XXX","id":605},
{"zip":"22100","bank_code":606,"bank":"BANK OF ALAND PLC","support_codes":7,"address":"NYGATAN 2","city":"MARIEHAMN","swift_code":"AABAFI22XXX","id":606},
{"zip":"22100","bank_code":607,"bank":"BANK OF ALAND PLC","support_codes":7,"address":"NYGATAN 2","city":"MARIEHAMN","swift_code":"AABAFI22XXX","id":607},
{"zip":"22100","bank_code":608,"bank":"BANK OF ALAND PLC","support_codes":7,"address":"NYGATAN 2","city":"MARIEHAMN","swift_code":"AABAFI22XXX","id":608},
{"zip":"22100","bank_code":609,"bank":"BANK OF ALAND PLC","support_codes":7,"address":"NYGATAN 2","city":"MARIEHAMN","swift_code":"AABAFI22XXX","id":609},
{"zip":"22100","bank_code":610,"bank":"BANK OF ALAND PLC","support_codes":7,"address":"NYGATAN 2","city":"MARIEHAMN","swift_code":"AABAFI22XXX","id":610},
{"zip":"22100","bank_code":611,"bank":"BANK OF ALAND PLC","support_codes":7,"address":"NYGATAN 2","city":"MARIEHAMN","swift_code":"AABAFI22XXX","id":611},
{"zip":"22100","bank_code":612,"bank":"BANK OF ALAND PLC","support_codes":7,"address":"NYGATAN 2","city":"MARIEHAMN","swift_code":"AABAFI22XXX","id":612},
{"zip":"22100","bank_code":613,"bank":"BANK OF ALAND PLC","support_codes":7,"address":"NYGATAN 2","city":"MARIEHAMN","swift_code":"AABAFI22XXX","id":613},
{"zip":"22100","bank_code":614,"bank":"BANK OF ALAND PLC","support_codes":7,"address":"NYGATAN 2","city":"MARIEHAMN","swift_code":"AABAFI22XXX","id":614},
{"zip":"22100","bank_code":615,"bank":"BANK OF ALAND PLC","support_codes":7,"address":"NYGATAN 2","city":"MARIEHAMN","swift_code":"AABAFI22XXX","id":615},
{"zip":"22100","bank_code":616,"bank":"BANK OF ALAND PLC","support_codes":7,"address":"NYGATAN 2","city":"MARIEHAMN","swift_code":"AABAFI22XXX","id":616},
{"zip":"22100","bank_code":617,"bank":"BANK OF ALAND PLC","support_codes":7,"address":"NYGATAN 2","city":"MARIEHAMN","swift_code":"AABAFI22XXX","id":617},
{"zip":"22100","bank_code":618,"bank":"BANK OF ALAND PLC","support_codes":7,"address":"NYGATAN 2","city":"MARIEHAMN","swift_code":"AABAFI22XXX","id":618},
{"zip":"22100","bank_code":619,"bank":"BANK OF ALAND PLC","support_codes":7,"address":"NYGATAN 2","city":"MARIEHAMN","swift_code":"AABAFI22XXX","id":619},
{"zip":"22100","bank_code":620,"bank":"BANK OF ALAND PLC","support_codes":7,"address":"NYGATAN 2","city":"MARIEHAMN","swift_code":"AABAFI22XXX","id":620},
{"zip":"22100","bank_code":621,"bank":"BANK OF ALAND PLC","support_codes":7,"address":"NYGATAN 2","city":"MARIEHAMN","swift_code":"AABAFI22XXX","id":621},
{"zip":"22100","bank_code":622,"bank":"BANK OF ALAND PLC","support_codes":7,"address":"NYGATAN 2","city":"MARIEHAMN","swift_code":"AABAFI22XXX","id":622},
{"zip":"22100","bank_code":623,"bank":"BANK OF ALAND PLC","support_codes":7,"address":"NYGATAN 2","city":"MARIEHAMN","swift_code":"AABAFI22XXX","id":623},
{"zip":"22100","bank_code":624,"bank":"BANK OF ALAND PLC","support_codes":7,"address":"NYGATAN 2","city":"MARIEHAMN","swift_code":"AABAFI22XXX","id":624},
{"zip":"22100","bank_code":625,"bank":"BANK OF ALAND PLC","support_codes":7,"address":"NYGATAN 2","city":"MARIEHAMN","swift_code":"AABAFI22XXX","id":625},
{"zip":"22100","bank_code":626,"bank":"BANK OF ALAND PLC","support_codes":7,"address":"NYGATAN 2","city":"MARIEHAMN","swift_code":"AABAFI22XXX","id":626},
{"zip":"22100","bank_code":627,"bank":"BANK OF ALAND PLC","support_codes":7,"address":"NYGATAN 2","city":"MARIEHAMN","swift_code":"AABAFI22XXX","id":627},
{"zip":"22100","bank_code":628,"bank":"BANK OF ALAND PLC","support_codes":7,"address":"NYGATAN 2","city":"MARIEHAMN","swift_code":"AABAFI22XXX","id":628},
{"zip":"22100","bank_code":629,"bank":"BANK OF ALAND PLC","support_codes":7,"address":"NYGATAN 2","city":"MARIEHAMN","swift_code":"AABAFI22XXX","id":629},
{"zip":"22100","bank_code":630,"bank":"BANK OF ALAND PLC","support_codes":7,"address":"NYGATAN 2","city":"MARIEHAMN","swift_code":"AABAFI22XXX","id":630},
{"zip":"22100","bank_code":631,"bank":"BANK OF ALAND PLC","support_codes":7,"address":"NYGATAN 2","city":"MARIEHAMN","swift_code":"AABAFI22XXX","id":631},
{"zip":"22100","bank_code":632,"bank":"BANK OF ALAND PLC","support_codes":7,"address":"NYGATAN 2","city":"MARIEHAMN","swift_code":"AABAFI22XXX","id":632},
{"zip":"22100","bank_code":633,"bank":"BANK OF ALAND PLC","support_codes":7,"address":"NYGATAN 2","city":"MARIEHAMN","swift_code":"AABAFI22XXX","id":633},
{"zip":"22100","bank_code":634,"bank":"BANK OF ALAND PLC","support_codes":7,"address":"NYGATAN 2","city":"MARIEHAMN","swift_code":"AABAFI22XXX","id":634},
{"zip":"22100","bank_code":635,"bank":"BANK OF ALAND PLC","support_codes":7,"address":"NYGATAN 2","city":"MARIEHAMN","swift_code":"AABAFI22XXX","id":635},
{"zip":"22100","bank_code":636,"bank":"BANK OF ALAND PLC","support_codes":7,"address":"NYGATAN 2","city":"MARIEHAMN","swift_code":"AABAFI22XXX","id":636},
{"zip":"22100","bank_code":637,"bank":"BANK OF ALAND PLC","support_codes":7,"address":"NYGATAN 2","city":"MARIEHAMN","swift_code":"AABAFI22XXX","id":637},
{"zip":"22100","bank_code":638,"bank":"BANK OF ALAND PLC","support_codes":7,"address":"NYGATAN 2","city":"MARIEHAMN","swift_code":"AABAFI22XXX","id":638},
{"zip":"22100","bank_code":639,"bank":"BANK OF ALAND PLC","support_codes":7,"address":"NYGATAN 2","city":"MARIEHAMN","swift_code":"AABAFI22XXX","id":639},
{"zip":"22100","bank_code":640,"bank":"BANK OF ALAND PLC","support_codes":7,"address":"NYGATAN 2","city":"MARIEHAMN","swift_code":"AABAFI22XXX","id":640},
{"zip":"22100","bank_code":641,"bank":"BANK OF ALAND PLC","support_codes":7,"address":"NYGATAN 2","city":"MARIEHAMN","swift_code":"AABAFI22XXX","id":641},
{"zip":"22100","bank_code":642,"bank":"BANK OF ALAND PLC","support_codes":7,"address":"NYGATAN 2","city":"MARIEHAMN","swift_code":"AABAFI22XXX","id":642},
{"zip":"22100","bank_code":643,"bank":"BANK OF ALAND PLC","support_codes":7,"address":"NYGATAN 2","city":"MARIEHAMN","swift_code":"AABAFI22XXX","id":643},
{"zip":"22100","bank_code":644,"bank":"BANK OF ALAND PLC","support_codes":7,"address":"NYGATAN 2","city":"MARIEHAMN","swift_code":"AABAFI22XXX","id":644},
{"zip":"22100","bank_code":645,"bank":"BANK OF ALAND PLC","support_codes":7,"address":"NYGATAN 2","city":"MARIEHAMN","swift_code":"AABAFI22XXX","id":645},
{"zip":"22100","bank_code":646,"bank":"BANK OF ALAND PLC","support_codes":7,"address":"NYGATAN 2","city":"MARIEHAMN","swift_code":"AABAFI22XXX","id":646},
{"zip":"22100","bank_code":647,"bank":"BANK OF ALAND PLC","support_codes":7,"address":"NYGATAN 2","city":"MARIEHAMN","swift_code":"AABAFI22XXX","id":647},
{"zip":"22100","bank_code":648,"bank":"BANK OF ALAND PLC","support_codes":7,"address":"NYGATAN 2","city":"MARIEHAMN","swift_code":"AABAFI22XXX","id":648},
{"zip":"22100","bank_code":649,"bank":"BANK OF ALAND PLC","support_codes":7,"address":"NYGATAN 2","city":"MARIEHAMN","swift_code":"AABAFI22XXX","id":649},
{"zip":"22100","bank_code":650,"bank":"BANK OF ALAND PLC","support_codes":7,"address":"NYGATAN 2","city":"MARIEHAMN","swift_code":"AABAFI22XXX","id":650},
{"zip":"22100","bank_code":651,"bank":"BANK OF ALAND PLC","support_codes":7,"address":"NYGATAN 2","city":"MARIEHAMN","swift_code":"AABAFI22XXX","id":651},
{"zip":"22100","bank_code":652,"bank":"BANK OF ALAND PLC","support_codes":7,"address":"NYGATAN 2","city":"MARIEHAMN","swift_code":"AABAFI22XXX","id":652},
{"zip":"22100","bank_code":653,"bank":"BANK OF ALAND PLC","support_codes":7,"address":"NYGATAN 2","city":"MARIEHAMN","swift_code":"AABAFI22XXX","id":653},
{"zip":"22100","bank_code":654,"bank":"BANK OF ALAND PLC","support_codes":7,"address":"NYGATAN 2","city":"MARIEHAMN","swift_code":"AABAFI22XXX","id":654},
{"zip":"22100","bank_code":655,"bank":"BANK OF ALAND PLC","support_codes":7,"address":"NYGATAN 2","city":"MARIEHAMN","swift_code":"AABAFI22XXX","id":655},
{"zip":"22100","bank_code":656,"bank":"BANK OF ALAND PLC","support_codes":7,"address":"NYGATAN 2","city":"MARIEHAMN","swift_code":"AABAFI22XXX","id":656},
{"zip":"22100","bank_code":657,"bank":"BANK OF ALAND PLC","support_codes":7,"address":"NYGATAN 2","city":"MARIEHAMN","swift_code":"AABAFI22XXX","id":657},
{"zip":"22100","bank_code":658,"bank":"BANK OF ALAND PLC","support_codes":7,"address":"NYGATAN 2","city":"MARIEHAMN","swift_code":"AABAFI22XXX","id":658},
{"zip":"22100","bank_code":659,"bank":"BANK OF ALAND PLC","support_codes":7,"address":"NYGATAN 2","city":"MARIEHAMN","swift_code":"AABAFI22XXX","id":659},
{"zip":"22100","bank_code":660,"bank":"BANK OF ALAND PLC","support_codes":7,"address":"NYGATAN 2","city":"MARIEHAMN","swift_code":"AABAFI22XXX","id":660},
{"zip":"22100","bank_code":661,"bank":"BANK OF ALAND PLC","support_codes":7,"address":"NYGATAN 2","city":"MARIEHAMN","swift_code":"AABAFI22XXX","id":661},
{"zip":"22100","bank_code":662,"bank":"BANK OF ALAND PLC","support_codes":7,"address":"NYGATAN 2","city":"MARIEHAMN","swift_code":"AABAFI22XXX","id":662},
{"zip":"22100","bank_code":663,"bank":"BANK OF ALAND PLC","support_codes":7,"address":"NYGATAN 2","city":"MARIEHAMN","swift_code":"AABAFI22XXX","id":663},
{"zip":"22100","bank_code":664,"bank":"BANK OF ALAND PLC","support_codes":7,"address":"NYGATAN 2","city":"MARIEHAMN","swift_code":"AABAFI22XXX","id":664},
{"zip":"22100","bank_code":665,"bank":"BANK OF ALAND PLC","support_codes":7,"address":"NYGATAN 2","city":"MARIEHAMN","swift_code":"AABAFI22XXX","id":665},
{"zip":"22100","bank_code":666,"bank":"BANK OF ALAND PLC","support_codes":7,"address":"NYGATAN 2","city":"MARIEHAMN","swift_code":"AABAFI22XXX","id":666},
{"zip":"22100","bank_code":667,"bank":"BANK OF ALAND PLC","support_codes":7,"address":"NYGATAN 2","city":"MARIEHAMN","swift_code":"AABAFI22XXX","id":667},
{"zip":"22100","bank_code":668,"bank":"BANK OF ALAND PLC","support_codes":7,"address":"NYGATAN 2","city":"MARIEHAMN","swift_code":"AABAFI22XXX","id":668},
{"zip":"22100","bank_code":669,"bank":"BANK OF ALAND PLC","support_codes":7,"address":"NYGATAN 2","city":"MARIEHAMN","swift_code":"AABAFI22XXX","id":669},
{"zip":"22100","bank_code":670,"bank":"BANK OF ALAND PLC","support_codes":7,"address":"NYGATAN 2","city":"MARIEHAMN","swift_code":"AABAFI22XXX","id":670},
{"zip":"22100","bank_code":671,"bank":"BANK OF ALAND PLC","support_codes":7,"address":"NYGATAN 2","city":"MARIEHAMN","swift_code":"AABAFI22XXX","id":671},
{"zip":"22100","bank_code":672,"bank":"BANK OF ALAND PLC","support_codes":7,"address":"NYGATAN 2","city":"MARIEHAMN","swift_code":"AABAFI22XXX","id":672},
{"zip":"22100","bank_code":673,"bank":"BANK OF ALAND PLC","support_codes":7,"address":"NYGATAN 2","city":"MARIEHAMN","swift_code":"AABAFI22XXX","id":673},
{"zip":"22100","bank_code":674,"bank":"BANK OF ALAND PLC","support_codes":7,"address":"NYGATAN 2","city":"MARIEHAMN","swift_code":"AABAFI22XXX","id":674},
{"zip":"22100","bank_code":675,"bank":"BANK OF ALAND PLC","support_codes":7,"address":"NYGATAN 2","city":"MARIEHAMN","swift_code":"AABAFI22XXX","id":675},
{"zip":"22100","bank_code":676,"bank":"BANK OF ALAND PLC","support_codes":7,"address":"NYGATAN 2","city":"MARIEHAMN","swift_code":"AABAFI22XXX","id":676},
{"zip":"22100","bank_code":677,"bank":"BANK OF ALAND PLC","support_codes":7,"address":"NYGATAN 2","city":"MARIEHAMN","swift_code":"AABAFI22XXX","id":677},
{"zip":"22100","bank_code":678,"bank":"BANK OF ALAND PLC","support_codes":7,"address":"NYGATAN 2","city":"MARIEHAMN","swift_code":"AABAFI22XXX","id":678},
{"zip":"22100","bank_code":679,"bank":"BANK OF ALAND PLC","support_codes":7,"address":"NYGATAN 2","city":"MARIEHAMN","swift_code":"AABAFI22XXX","id":679},
{"zip":"22100","bank_code":680,"bank":"BANK OF ALAND PLC","support_codes":7,"address":"NYGATAN 2","city":"MARIEHAMN","swift_code":"AABAFI22XXX","id":680},
{"zip":"22100","bank_code":681,"bank":"BANK OF ALAND PLC","support_codes":7,"address":"NYGATAN 2","city":"MARIEHAMN","swift_code":"AABAFI22XXX","id":681},
{"zip":"22100","bank_code":682,"bank":"BANK OF ALAND PLC","support_codes":7,"address":"NYGATAN 2","city":"MARIEHAMN","swift_code":"AABAFI22XXX","id":682},
{"zip":"22100","bank_code":683,"bank":"BANK OF ALAND PLC","support_codes":7,"address":"NYGATAN 2","city":"MARIEHAMN","swift_code":"AABAFI22XXX","id":683},
{"zip":"22100","bank_code":684,"bank":"BANK OF ALAND PLC","support_codes":7,"address":"NYGATAN 2","city":"MARIEHAMN","swift_code":"AABAFI22XXX","id":684},
{"zip":"22100","bank_code":685,"bank":"BANK OF ALAND PLC","support_codes":7,"address":"NYGATAN 2","city":"MARIEHAMN","swift_code":"AABAFI22XXX","id":685},
{"zip":"22100","bank_code":686,"bank":"BANK OF ALAND PLC","support_codes":7,"address":"NYGATAN 2","city":"MARIEHAMN","swift_code":"AABAFI22XXX","id":686},
{"zip":"22100","bank_code":687,"bank":"BANK OF ALAND PLC","support_codes":7,"address":"NYGATAN 2","city":"MARIEHAMN","swift_code":"AABAFI22XXX","id":687},
{"zip":"22100","bank_code":688,"bank":"BANK OF ALAND PLC","support_codes":7,"address":"NYGATAN 2","city":"MARIEHAMN","swift_code":"AABAFI22XXX","id":688},
{"zip":"22100","bank_code":689,"bank":"BANK OF ALAND PLC","support_codes":7,"address":"NYGATAN 2","city":"MARIEHAMN","swift_code":"AABAFI22XXX","id":689},
{"zip":"22100","bank_code":690,"bank":"BANK OF ALAND PLC","support_codes":7,"address":"NYGATAN 2","city":"MARIEHAMN","swift_code":"AABAFI22XXX","id":690},
{"zip":"22100","bank_code":691,"bank":"BANK OF ALAND PLC","support_codes":7,"address":"NYGATAN 2","city":"MARIEHAMN","swift_code":"AABAFI22XXX","id":691},
{"zip":"22100","bank_code":692,"bank":"BANK OF ALAND PLC","support_codes":7,"address":"NYGATAN 2","city":"MARIEHAMN","swift_code":"AABAFI22XXX","id":692},
{"zip":"22100","bank_code":693,"bank":"BANK OF ALAND PLC","support_codes":7,"address":"NYGATAN 2","city":"MARIEHAMN","swift_code":"AABAFI22XXX","id":693},
{"zip":"22100","bank_code":694,"bank":"BANK OF ALAND PLC","support_codes":7,"address":"NYGATAN 2","city":"MARIEHAMN","swift_code":"AABAFI22XXX","id":694},
{"zip":"22100","bank_code":695,"bank":"BANK OF ALAND PLC","support_codes":7,"address":"NYGATAN 2","city":"MARIEHAMN","swift_code":"AABAFI22XXX","id":695},
{"zip":"22100","bank_code":696,"bank":"BANK OF ALAND PLC","support_codes":7,"address":"NYGATAN 2","city":"MARIEHAMN","swift_code":"AABAFI22XXX","id":696},
{"zip":"22100","bank_code":697,"bank":"BANK OF ALAND PLC","support_codes":7,"address":"NYGATAN 2","city":"MARIEHAMN","swift_code":"AABAFI22XXX","id":697},
{"zip":"22100","bank_code":698,"bank":"BANK OF ALAND PLC","support_codes":7,"address":"NYGATAN 2","city":"MARIEHAMN","swift_code":"AABAFI22XXX","id":698},
{"zip":"22100","bank_code":699,"bank":"BANK OF ALAND PLC","support_codes":7,"address":"NYGATAN 2","city":"MARIEHAMN","swift_code":"AABAFI22XXX","id":699},
{"zip":"00101","bank_code":713,"bank":"CITIBANK INTERNATIONAL PLC, FINLAND BRANCH","support_codes":15,"address":"ALEKSANTERINKATU 48A","city":"HELSINKI","swift_code":"CITIFIHXXXX","id":713},
{"zip":"02600","bank_code":715,"bank":"CENTRAL BANK OF SAVINGS BANKS FINLAND LTD","support_codes":7,"address":"HEVOSENKENKA 3","city":"ESPOO","swift_code":"ITELFIHHXXX","id":715},
{"zip":"","bank_code":717,"bank":"BIGBANK - Finland Branch","support_codes":1,"address":"","city":"","swift_code":"BIGKFIH1XXX","id":717},
{"zip":"","bank_code":799,"bank":"Holvi Payment Services","support_codes":7,"address":"","city":"","swift_code":"HOLVFIHHXXX","id":799},
{"zip":"00075","bank_code":800,"bank":"DANSKE BANK PLC ","support_codes":15,"address":"HIILILAITURINKUJA 2","city":"HELSINKI","swift_code":"DABAFIHHXXX","id":800},
{"zip":"00075","bank_code":801,"bank":"DANSKE BANK PLC ","support_codes":15,"address":"HIILILAITURINKUJA 2","city":"HELSINKI","swift_code":"DABAFIHHXXX","id":801},
{"zip":"00075","bank_code":802,"bank":"DANSKE BANK PLC ","support_codes":15,"address":"HIILILAITURINKUJA 2","city":"HELSINKI","swift_code":"DABAFIHHXXX","id":802},
{"zip":"00075","bank_code":803,"bank":"DANSKE BANK PLC ","support_codes":15,"address":"HIILILAITURINKUJA 2","city":"HELSINKI","swift_code":"DABAFIHHXXX","id":803},
{"zip":"00075","bank_code":804,"bank":"DANSKE BANK PLC ","support_codes":15,"address":"HIILILAITURINKUJA 2","city":"HELSINKI","swift_code":"DABAFIHHXXX","id":804},
{"zip":"00075","bank_code":805,"bank":"DANSKE BANK PLC ","support_codes":15,"address":"HIILILAITURINKUJA 2","city":"HELSINKI","swift_code":"DABAFIHHXXX","id":805},
{"zip":"00075","bank_code":806,"bank":"DANSKE BANK PLC ","support_codes":15,"address":"HIILILAITURINKUJA 2","city":"HELSINKI","swift_code":"DABAFIHHXXX","id":806},
{"zip":"00075","bank_code":807,"bank":"DANSKE BANK PLC ","support_codes":15,"address":"HIILILAITURINKUJA 2","city":"HELSINKI","swift_code":"DABAFIHHXXX","id":807},
{"zip":"00075","bank_code":808,"bank":"DANSKE BANK PLC ","support_codes":15,"address":"HIILILAITURINKUJA 2","city":"HELSINKI","swift_code":"DABAFIHHXXX","id":808},
{"zip":"00075","bank_code":809,"bank":"DANSKE BANK PLC ","support_codes":15,"address":"HIILILAITURINKUJA 2","city":"HELSINKI","swift_code":"DABAFIHHXXX","id":809},
{"zip":"00075","bank_code":810,"bank":"DANSKE BANK PLC ","support_codes":15,"address":"HIILILAITURINKUJA 2","city":"HELSINKI","swift_code":"DABAFIHHXXX","id":810},
{"zip":"00075","bank_code":811,"bank":"DANSKE BANK PLC ","support_codes":15,"address":"HIILILAITURINKUJA 2","city":"HELSINKI","swift_code":"DABAFIHHXXX","id":811},
{"zip":"00075","bank_code":812,"bank":"DANSKE BANK PLC ","support_codes":15,"address":"HIILILAITURINKUJA 2","city":"HELSINKI","swift_code":"DABAFIHHXXX","id":812},
{"zip":"00075","bank_code":813,"bank":"DANSKE BANK PLC ","support_codes":15,"address":"HIILILAITURINKUJA 2","city":"HELSINKI","swift_code":"DABAFIHHXXX","id":813},
{"zip":"00075","bank_code":814,"bank":"DANSKE BANK PLC ","support_codes":15,"address":"HIILILAITURINKUJA 2","city":"HELSINKI","swift_code":"DABAFIHHXXX","id":814},
{"zip":"00075","bank_code":815,"bank":"DANSKE BANK PLC ","support_codes":15,"address":"HIILILAITURINKUJA 2","city":"HELSINKI","swift_code":"DABAFIHHXXX","id":815},
{"zip":"00075","bank_code":816,"bank":"DANSKE BANK PLC ","support_codes":15,"address":"HIILILAITURINKUJA 2","city":"HELSINKI","swift_code":"DABAFIHHXXX","id":816},
{"zip":"00075","bank_code":817,"bank":"DANSKE BANK PLC ","support_codes":15,"address":"HIILILAITURINKUJA 2","city":"HELSINKI","swift_code":"DABAFIHHXXX","id":817},
{"zip":"00075","bank_code":818,"bank":"DANSKE BANK PLC ","support_codes":15,"address":"HIILILAITURINKUJA 2","city":"HELSINKI","swift_code":"DABAFIHHXXX","id":818},
{"zip":"00075","bank_code":819,"bank":"DANSKE BANK PLC ","support_codes":15,"address":"HIILILAITURINKUJA 2","city":"HELSINKI","swift_code":"DABAFIHHXXX","id":819},
{"zip":"00075","bank_code":820,"bank":"DANSKE BANK PLC ","support_codes":15,"address":"HIILILAITURINKUJA 2","city":"HELSINKI","swift_code":"DABAFIHHXXX","id":820},
{"zip":"00075","bank_code":821,"bank":"DANSKE BANK PLC ","support_codes":15,"address":"HIILILAITURINKUJA 2","city":"HELSINKI","swift_code":"DABAFIHHXXX","id":821},
{"zip":"00075","bank_code":822,"bank":"DANSKE BANK PLC ","support_codes":15,"address":"HIILILAITURINKUJA 2","city":"HELSINKI","swift_code":"DABAFIHHXXX","id":822},
{"zip":"00075","bank_code":823,"bank":"DANSKE BANK PLC ","support_codes":15,"address":"HIILILAITURINKUJA 2","city":"HELSINKI","swift_code":"DABAFIHHXXX","id":823},
{"zip":"00075","bank_code":824,"bank":"DANSKE BANK PLC ","support_codes":15,"address":"HIILILAITURINKUJA 2","city":"HELSINKI","swift_code":"DABAFIHHXXX","id":824},
{"zip":"00075","bank_code":825,"bank":"DANSKE BANK PLC ","support_codes":15,"address":"HIILILAITURINKUJA 2","city":"HELSINKI","swift_code":"DABAFIHHXXX","id":825},
{"zip":"00075","bank_code":826,"bank":"DANSKE BANK PLC ","support_codes":15,"address":"HIILILAITURINKUJA 2","city":"HELSINKI","swift_code":"DABAFIHHXXX","id":826},
{"zip":"00075","bank_code":827,"bank":"DANSKE BANK PLC ","support_codes":15,"address":"HIILILAITURINKUJA 2","city":"HELSINKI","swift_code":"DABAFIHHXXX","id":827},
{"zip":"00075","bank_code":828,"bank":"DANSKE BANK PLC ","support_codes":15,"address":"HIILILAITURINKUJA 2","city":"HELSINKI","swift_code":"DABAFIHHXXX","id":828},
{"zip":"00075","bank_code":829,"bank":"DANSKE BANK PLC ","support_codes":15,"address":"HIILILAITURINKUJA 2","city":"HELSINKI","swift_code":"DABAFIHHXXX","id":829},
{"zip":"00075","bank_code":830,"bank":"DANSKE BANK PLC ","support_codes":15,"address":"HIILILAITURINKUJA 2","city":"HELSINKI","swift_code":"DABAFIHHXXX","id":830},
{"zip":"00075","bank_code":831,"bank":"DANSKE BANK PLC ","support_codes":15,"address":"HIILILAITURINKUJA 2","city":"HELSINKI","swift_code":"DABAFIHHXXX","id":831},
{"zip":"00075","bank_code":832,"bank":"DANSKE BANK PLC ","support_codes":15,"address":"HIILILAITURINKUJA 2","city":"HELSINKI","swift_code":"DABAFIHHXXX","id":832},
{"zip":"00075","bank_code":833,"bank":"DANSKE BANK PLC ","support_codes":15,"address":"HIILILAITURINKUJA 2","city":"HELSINKI","swift_code":"DABAFIHHXXX","id":833},
{"zip":"00075","bank_code":834,"bank":"DANSKE BANK PLC ","support_codes":15,"address":"HIILILAITURINKUJA 2","city":"HELSINKI","swift_code":"DABAFIHHXXX","id":834},
{"zip":"00075","bank_code":835,"bank":"DANSKE BANK PLC ","support_codes":15,"address":"HIILILAITURINKUJA 2","city":"HELSINKI","swift_code":"DABAFIHHXXX","id":835},
{"zip":"00075","bank_code":836,"bank":"DANSKE BANK PLC ","support_codes":15,"address":"HIILILAITURINKUJA 2","city":"HELSINKI","swift_code":"DABAFIHHXXX","id":836},
{"zip":"00075","bank_code":837,"bank":"DANSKE BANK PLC ","support_codes":15,"address":"HIILILAITURINKUJA 2","city":"HELSINKI","swift_code":"DABAFIHHXXX","id":837},
{"zip":"00075","bank_code":838,"bank":"DANSKE BANK PLC ","support_codes":15,"address":"HIILILAITURINKUJA 2","city":"HELSINKI","swift_code":"DABAFIHHXXX","id":838},
{"zip":"00075","bank_code":839,"bank":"DANSKE BANK PLC ","support_codes":15,"address":"HIILILAITURINKUJA 2","city":"HELSINKI","swift_code":"DABAFIHHXXX","id":839},
{"zip":"00075","bank_code":840,"bank":"DANSKE BANK PLC ","support_codes":15,"address":"HIILILAITURINKUJA 2","city":"HELSINKI","swift_code":"DABAFIHHXXX","id":840},
{"zip":"00075","bank_code":841,"bank":"DANSKE BANK PLC ","support_codes":15,"address":"HIILILAITURINKUJA 2","city":"HELSINKI","swift_code":"DABAFIHHXXX","id":841},
{"zip":"00075","bank_code":842,"bank":"DANSKE BANK PLC ","support_codes":15,"address":"HIILILAITURINKUJA 2","city":"HELSINKI","swift_code":"DABAFIHHXXX","id":842},
{"zip":"00075","bank_code":843,"bank":"DANSKE BANK PLC ","support_codes":15,"address":"HIILILAITURINKUJA 2","city":"HELSINKI","swift_code":"DABAFIHHXXX","id":843},
{"zip":"00075","bank_code":844,"bank":"DANSKE BANK PLC ","support_codes":15,"address":"HIILILAITURINKUJA 2","city":"HELSINKI","swift_code":"DABAFIHHXXX","id":844},
{"zip":"00075","bank_code":845,"bank":"DANSKE BANK PLC ","support_codes":15,"address":"HIILILAITURINKUJA 2","city":"HELSINKI","swift_code":"DABAFIHHXXX","id":845},
{"zip":"00075","bank_code":846,"bank":"DANSKE BANK PLC ","support_codes":15,"address":"HIILILAITURINKUJA 2","city":"HELSINKI","swift_code":"DABAFIHHXXX","id":846},
{"zip":"00075","bank_code":847,"bank":"DANSKE BANK PLC ","support_codes":15,"address":"HIILILAITURINKUJA 2","city":"HELSINKI","swift_code":"DABAFIHHXXX","id":847},
{"zip":"00075","bank_code":848,"bank":"DANSKE BANK PLC ","support_codes":15,"address":"HIILILAITURINKUJA 2","city":"HELSINKI","swift_code":"DABAFIHHXXX","id":848},
{"zip":"00075","bank_code":849,"bank":"DANSKE BANK PLC ","support_codes":15,"address":"HIILILAITURINKUJA 2","city":"HELSINKI","swift_code":"DABAFIHHXXX","id":849},
{"zip":"00075","bank_code":850,"bank":"DANSKE BANK PLC ","support_codes":15,"address":"HIILILAITURINKUJA 2","city":"HELSINKI","swift_code":"DABAFIHHXXX","id":850},
{"zip":"00075","bank_code":851,"bank":"DANSKE BANK PLC ","support_codes":15,"address":"HIILILAITURINKUJA 2","city":"HELSINKI","swift_code":"DABAFIHHXXX","id":851},
{"zip":"00075","bank_code":852,"bank":"DANSKE BANK PLC ","support_codes":15,"address":"HIILILAITURINKUJA 2","city":"HELSINKI","swift_code":"DABAFIHHXXX","id":852},
{"zip":"00075","bank_code":853,"bank":"DANSKE BANK PLC ","support_codes":15,"address":"HIILILAITURINKUJA 2","city":"HELSINKI","swift_code":"DABAFIHHXXX","id":853},
{"zip":"00075","bank_code":854,"bank":"DANSKE BANK PLC ","support_codes":15,"address":"HIILILAITURINKUJA 2","city":"HELSINKI","swift_code":"DABAFIHHXXX","id":854},
{"zip":"00075","bank_code":855,"bank":"DANSKE BANK PLC ","support_codes":15,"address":"HIILILAITURINKUJA 2","city":"HELSINKI","swift_code":"DABAFIHHXXX","id":855},
{"zip":"00075","bank_code":856,"bank":"DANSKE BANK PLC ","support_codes":15,"address":"HIILILAITURINKUJA 2","city":"HELSINKI","swift_code":"DABAFIHHXXX","id":856},
{"zip":"00075","bank_code":857,"bank":"DANSKE BANK PLC ","support_codes":15,"address":"HIILILAITURINKUJA 2","city":"HELSINKI","swift_code":"DABAFIHHXXX","id":857},
{"zip":"00075","bank_code":858,"bank":"DANSKE BANK PLC ","support_codes":15,"address":"HIILILAITURINKUJA 2","city":"HELSINKI","swift_code":"DABAFIHHXXX","id":858},
{"zip":"00075","bank_code":859,"bank":"DANSKE BANK PLC ","support_codes":15,"address":"HIILILAITURINKUJA 2","city":"HELSINKI","swift_code":"DABAFIHHXXX","id":859},
{"zip":"00075","bank_code":860,"bank":"DANSKE BANK PLC ","support_codes":15,"address":"HIILILAITURINKUJA 2","city":"HELSINKI","swift_code":"DABAFIHHXXX","id":860},
{"zip":"00075","bank_code":861,"bank":"DANSKE BANK PLC ","support_codes":15,"address":"HIILILAITURINKUJA 2","city":"HELSINKI","swift_code":"DABAFIHHXXX","id":861},
{"zip":"00075","bank_code":862,"bank":"DANSKE BANK PLC ","support_codes":15,"address":"HIILILAITURINKUJA 2","city":"HELSINKI","swift_code":"DABAFIHHXXX","id":862},
{"zip":"00075","bank_code":863,"bank":"DANSKE BANK PLC ","support_codes":15,"address":"HIILILAITURINKUJA 2","city":"HELSINKI","swift_code":"DABAFIHHXXX","id":863},
{"zip":"00075","bank_code":864,"bank":"DANSKE BANK PLC ","support_codes":15,"address":"HIILILAITURINKUJA 2","city":"HELSINKI","swift_code":"DABAFIHHXXX","id":864},
{"zip":"00075","bank_code":865,"bank":"DANSKE BANK PLC ","support_codes":15,"address":"HIILILAITURINKUJA 2","city":"HELSINKI","swift_code":"DABAFIHHXXX","id":865},
{"zip":"00075","bank_code":866,"bank":"DANSKE BANK PLC ","support_codes":15,"address":"HIILILAITURINKUJA 2","city":"HELSINKI","swift_code":"DABAFIHHXXX","id":866},
{"zip":"00075","bank_code":867,"bank":"DANSKE BANK PLC ","support_codes":15,"address":"HIILILAITURINKUJA 2","city":"HELSINKI","swift_code":"DABAFIHHXXX","id":867},
{"zip":"00075","bank_code":868,"bank":"DANSKE BANK PLC ","support_codes":15,"address":"HIILILAITURINKUJA 2","city":"HELSINKI","swift_code":"DABAFIHHXXX","id":868},
{"zip":"00075","bank_code":869,"bank":"DANSKE BANK PLC ","support_codes":15,"address":"HIILILAITURINKUJA 2","city":"HELSINKI","swift_code":"DABAFIHHXXX","id":869},
{"zip":"00075","bank_code":870,"bank":"DANSKE BANK PLC ","support_codes":15,"address":"HIILILAITURINKUJA 2","city":"HELSINKI","swift_code":"DABAFIHHXXX","id":870},
{"zip":"00075","bank_code":871,"bank":"DANSKE BANK PLC ","support_codes":15,"address":"HIILILAITURINKUJA 2","city":"HELSINKI","swift_code":"DABAFIHHXXX","id":871},
{"zip":"00075","bank_code":872,"bank":"DANSKE BANK PLC ","support_codes":15,"address":"HIILILAITURINKUJA 2","city":"HELSINKI","swift_code":"DABAFIHHXXX","id":872},
{"zip":"00075","bank_code":873,"bank":"DANSKE BANK PLC ","support_codes":15,"address":"HIILILAITURINKUJA 2","city":"HELSINKI","swift_code":"DABAFIHHXXX","id":873},
{"zip":"00075","bank_code":874,"bank":"DANSKE BANK PLC ","support_codes":15,"address":"HIILILAITURINKUJA 2","city":"HELSINKI","swift_code":"DABAFIHHXXX","id":874},
{"zip":"00075","bank_code":875,"bank":"DANSKE BANK PLC ","support_codes":15,"address":"HIILILAITURINKUJA 2","city":"HELSINKI","swift_code":"DABAFIHHXXX","id":875},
{"zip":"00075","bank_code":876,"bank":"DANSKE BANK PLC ","support_codes":15,"address":"HIILILAITURINKUJA 2","city":"HELSINKI","swift_code":"DABAFIHHXXX","id":876},
{"zip":"00075","bank_code":877,"bank":"DANSKE BANK PLC ","support_codes":15,"address":"HIILILAITURINKUJA 2","city":"HELSINKI","swift_code":"DABAFIHHXXX","id":877},
{"zip":"00075","bank_code":878,"bank":"DANSKE BANK PLC ","support_codes":15,"address":"HIILILAITURINKUJA 2","city":"HELSINKI","swift_code":"DABAFIHHXXX","id":878},
{"zip":"00075","bank_code":879,"bank":"DANSKE BANK PLC ","support_codes":15,"address":"HIILILAITURINKUJA 2","city":"HELSINKI","swift_code":"DABAFIHHXXX","id":879},
{"zip":"00075","bank_code":880,"bank":"DANSKE BANK PLC ","support_codes":15,"address":"HIILILAITURINKUJA 2","city":"HELSINKI","swift_code":"DABAFIHHXXX","id":880},
{"zip":"00075","bank_code":881,"bank":"DANSKE BANK PLC ","support_codes":15,"address":"HIILILAITURINKUJA 2","city":"HELSINKI","swift_code":"DABAFIHHXXX","id":881},
{"zip":"00075","bank_code":882,"bank":"DANSKE BANK PLC ","support_codes":15,"address":"HIILILAITURINKUJA 2","city":"HELSINKI","swift_code":"DABAFIHHXXX","id":882},
{"zip":"00075","bank_code":883,"bank":"DANSKE BANK PLC ","support_codes":15,"address":"HIILILAITURINKUJA 2","city":"HELSINKI","swift_code":"DABAFIHHXXX","id":883},
{"zip":"00075","bank_code":884,"bank":"DANSKE BANK PLC ","support_codes":15,"address":"HIILILAITURINKUJA 2","city":"HELSINKI","swift_code":"DABAFIHHXXX","id":884},
{"zip":"00075","bank_code":885,"bank":"DANSKE BANK PLC ","support_codes":15,"address":"HIILILAITURINKUJA 2","city":"HELSINKI","swift_code":"DABAFIHHXXX","id":885},
{"zip":"00075","bank_code":886,"bank":"DANSKE BANK PLC ","support_codes":15,"address":"HIILILAITURINKUJA 2","city":"HELSINKI","swift_code":"DABAFIHHXXX","id":886},
{"zip":"00075","bank_code":887,"bank":"DANSKE BANK PLC ","support_codes":15,"address":"HIILILAITURINKUJA 2","city":"HELSINKI","swift_code":"DABAFIHHXXX","id":887},
{"zip":"00075","bank_code":888,"bank":"DANSKE BANK PLC ","support_codes":15,"address":"HIILILAITURINKUJA 2","city":"HELSINKI","swift_code":"DABAFIHHXXX","id":888},
{"zip":"00075","bank_code":889,"bank":"DANSKE BANK PLC ","support_codes":15,"address":"HIILILAITURINKUJA 2","city":"HELSINKI","swift_code":"DABAFIHHXXX","id":889},
{"zip":"00075","bank_code":890,"bank":"DANSKE BANK PLC ","support_codes":15,"address":"HIILILAITURINKUJA 2","city":"HELSINKI","swift_code":"DABAFIHHXXX","id":890},
{"zip":"00075","bank_code":891,"bank":"DANSKE BANK PLC ","support_codes":15,"address":"HIILILAITURINKUJA 2","city":"HELSINKI","swift_code":"DABAFIHHXXX","id":891},
{"zip":"00075","bank_code":892,"bank":"DANSKE BANK PLC ","support_codes":15,"address":"HIILILAITURINKUJA 2","city":"HELSINKI","swift_code":"DABAFIHHXXX","id":892},
{"zip":"00075","bank_code":893,"bank":"DANSKE BANK PLC ","support_codes":15,"address":"HIILILAITURINKUJA 2","city":"HELSINKI","swift_code":"DABAFIHHXXX","id":893},
{"zip":"00075","bank_code":894,"bank":"DANSKE BANK PLC ","support_codes":15,"address":"HIILILAITURINKUJA 2","city":"HELSINKI","swift_code":"DABAFIHHXXX","id":894},
{"zip":"00075","bank_code":895,"bank":"DANSKE BANK PLC ","support_codes":15,"address":"HIILILAITURINKUJA 2","city":"HELSINKI","swift_code":"DABAFIHHXXX","id":895},
{"zip":"00075","bank_code":896,"bank":"DANSKE BANK PLC ","support_codes":15,"address":"HIILILAITURINKUJA 2","city":"HELSINKI","swift_code":"DABAFIHHXXX","id":896},
{"zip":"00075","bank_code":897,"bank":"DANSKE BANK PLC ","support_codes":15,"address":"HIILILAITURINKUJA 2","city":"HELSINKI","swift_code":"DABAFIHHXXX","id":897},
{"zip":"00075","bank_code":898,"bank":"DANSKE BANK PLC ","support_codes":15,"address":"HIILILAITURINKUJA 2","city":"HELSINKI","swift_code":"DABAFIHHXXX","id":898},
{"zip":"00075","bank_code":899,"bank":"DANSKE BANK PLC ","support_codes":15,"address":"HIILILAITURINKUJA 2","city":"HELSINKI","swift_code":"DABAFIHHXXX","id":899}
    ]
}
