{
    "country": "Monaco",
    "country_code": "MC",
    "isSEPAcountry": true,
    "ISO_3166_1": { "name": "Monaco" , "name_fr": "Monaco" , "alpha2": "MC" , "alpha3": "MCO" , "numeric": 492 },
    "list": [
{"zip":"98000","branch_code":18079,"bank_code":10096,"bank":"LYONNAISE DE BANQUE LB","support_codes":15,"address":"26 BD PRINCESSE CHARLOTTE","city":"MONTE CARLO MONACO","swift_code":"CMCIMCM1LYB","id":1009603},
{"zip":"98000","branch_code":18414,"bank_code":10096,"bank":"LYONNAISE DE BANQUE LB","support_codes":15,"address":"13 AV ALBERT II","city":"MONACO","swift_code":"CMCIMCM1LYB","id":1009602},
{"zip":"98000","branch_code":18579,"bank_code":10096,"bank":"LYONNAISE DE BANQUE LB","support_codes":15,"address":"13 AV ALBERT II","city":"MONACO","swift_code":"CMCIMCM1LYB","id":1009601},
{"zip":"98002","branch_code":99001,"bank_code":10160,"bank":"CREDIT MOBILIER DE MONACO","support_codes":7,"address":"15 AV DE GRANDE BRETAGNE","city":"MONACO CEDEX","swift_code":"CMMDMCM1XXX","id":1016001},
{"zip":"98000","branch_code":    1,"bank_code":11498,"bank":"BNP PARIBAS WEALTH MANAGEMENT MONACO","support_codes":7,"address":"15 17 AV D OSTENDE","city":"MONACO","swift_code":"BPPBMCMCXXX","id":1149801},
{"zip":"98000","branch_code":40001,"bank_code":11668,"bank":"EDMOND DE ROTHSCHILD MONACO","support_codes":7,"address":"2 AV DE MONTE CARLO","city":"MONACO","swift_code":"BERLMCMCXXX","id":1166801},
{"zip":"98000","branch_code":    1,"bank_code":11999,"bank":"UBS MONACO","support_codes":7,"address":"2 AV DE GRANDE BRETAGNE","city":"MONACO","swift_code":"UBSWMCMXXXX","id":1199901},
{"zip":"98000","branch_code": 4122,"bank_code":12098,"bank":"SOCIETE DE BANQUE MONACO","support_codes":1,"address":"28 RUE GRIMALDI","city":"MONACO","swift_code":"SDBMMCM2XXX","id":1209813},
{"zip":"98000","branch_code": 4123,"bank_code":12098,"bank":"SOCIETE DE BANQUE MONACO","support_codes":1,"address":"27 AV DE LA COSTA","city":"MONACO","swift_code":"SDBMMCM2XXX","id":1209812},
{"zip":"98000","branch_code": 4124,"bank_code":12098,"bank":"SOCIETE DE BANQUE MONACO","support_codes":1,"address":"27 AV DE LA COSTA","city":"MONACO","swift_code":"SDBMMCM2XXX","id":1209811},
{"zip":"98000","branch_code": 4125,"bank_code":12098,"bank":"SOCIETE DE BANQUE MONACO","support_codes":1,"address":"24 AV DE FONTVIELLE","city":"MONACO","swift_code":"SDBMMCM2XXX","id":1209810},
{"zip":"98000","branch_code": 4126,"bank_code":12098,"bank":"SOCIETE DE BANQUE MONACO","support_codes":1,"address":"24 AV DE FONTVIEILLE","city":"MONACO","swift_code":"SDBMMCM2XXX","id":1209809},
{"zip":"98000","branch_code": 4127,"bank_code":12098,"bank":"SOCIETE DE BANQUE MONACO","support_codes":1,"address":"27 AV DE LA COSTA","city":"MONACO","swift_code":"SDBMMCM2XXX","id":1209808},
{"zip":"98000","branch_code": 4128,"bank_code":12098,"bank":"SOCIETE DE BANQUE MONACO","support_codes":1,"address":"27 AV DE LA COSTA","city":"MONACO","swift_code":"SDBMMCM2XXX","id":1209807},
{"zip":"98000","branch_code": 4133,"bank_code":12098,"bank":"SOCIETE DE BANQUE MONACO","support_codes":1,"address":"27 AV DE LA COSTA","city":"MONACO","swift_code":"SDBMMCM2XXX","id":1209806},
{"zip":"98000","branch_code": 4134,"bank_code":12098,"bank":"SOCIETE DE BANQUE MONACO","support_codes":1,"address":"27 AV DE LA COSTA","city":"MONACO","swift_code":"SDBMMCM2XXX","id":1209805},
{"zip":"98000","branch_code": 4135,"bank_code":12098,"bank":"SOCIETE DE BANQUE MONACO","support_codes":1,"address":"27 AV DE LA COSTA","city":"MONACO","swift_code":"SDBMMCM2XXX","id":1209804},
{"zip":"98000","branch_code": 4136,"bank_code":12098,"bank":"SOCIETE DE BANQUE MONACO","support_codes":1,"address":"24 AV DE FONTVIEILLE","city":"MONACO","swift_code":"SDBMMCM2XXX","id":1209803},
{"zip":"98000","branch_code": 4137,"bank_code":12098,"bank":"SOCIETE DE BANQUE MONACO","support_codes":1,"address":"24 AV DE FONTVIEILLE","city":"MONACO","swift_code":"SDBMMCM2XXX","id":1209802},
{"zip":"98000","branch_code": 4138,"bank_code":12098,"bank":"SOCIETE DE BANQUE MONACO","support_codes":1,"address":"27 AV DE LA COSTA","city":"MONACO","swift_code":"SDBMMCM2XXX","id":1209801},
{"zip":"98000","branch_code":61017,"bank_code":12448,"bank":"BARCLAYS BANK PLC MONACO","support_codes":7,"address":"31 AV DE LA COSTA","city":"MONACO","swift_code":"BARCMCMXXXX","id":1244803},
{"zip":"98000","branch_code":61088,"bank_code":12448,"bank":"BARCLAYS BANK PLC MONACO","support_codes":7,"address":"31 AV DE LA COSTA","city":"MONACO","swift_code":"BARCMCMXXXX","id":1244802},
{"zip":"98007","branch_code":61091,"bank_code":12448,"bank":"BARCLAYS BANK PLC MONACO","support_codes":7,"address":"31 AV DE LA COSTA","city":"MONACO CEDEX","swift_code":"BARCMCMXXXX","id":1244801},
{"zip":"98000","branch_code":70,"bank_code":12739,"bank":"CFM INDOSUEZ WEALTH","support_codes":15,"address":"11 BD ALBERT 1ER","city":"MONACO","swift_code":"CFMOMCMXXXX","id":1273908},
{"zip":"98000","branch_code":71,"bank_code":12739,"bank":"CFM INDOSUEZ WEALTH","support_codes":15,"address":"31 BD PRINCESSE CHARLOTTE","city":"MONACO","swift_code":"CFMOMCMXXXX","id":1273907},
{"zip":"98000","branch_code":72,"bank_code":12739,"bank":"CFM INDOSUEZ WEALTH","support_codes":15,"address":"11 BD ALBERT 1ER","city":"MONACO","swift_code":"CFMOMCMXXXX","id":1273906},
{"zip":"98000","branch_code":73,"bank_code":12739,"bank":"CFM INDOSUEZ WEALTH","support_codes":15,"address":"6 RUE FELIX GASTALDI","city":"MONACO","swift_code":"CFMOMCMXXXX","id":1273905},
{"zip":"98000","branch_code":74,"bank_code":12739,"bank":"CFM INDOSUEZ WEALTH","support_codes":15,"address":"PL DES MOULINS","city":"MONACO","swift_code":"CFMOMCMXXXX","id":1273904},
{"zip":"98000","branch_code":75,"bank_code":12739,"bank":"CFM INDOSUEZ WEALTH","support_codes":15,"address":"11 BD ALBERT 1ER","city":"MONACO","swift_code":"CFMOMCMXXXX","id":1273903},
{"zip":"98012","branch_code":76,"bank_code":12739,"bank":"CFM INDOSUEZ WEALTH","support_codes":15,"address":"11 BD ALBERT 1ER","city":"MONACO CEDEX","swift_code":"CFMOMCMXXXX","id":1273902},
{"zip":"98000","branch_code":77,"bank_code":12739,"bank":"CFM INDOSUEZ WEALTH","support_codes":15,"address":"2 RUE DES PRINCES","city":"MONACO","swift_code":"CFMOMCMXXXX","id":1273901},
{"zip":"98005","branch_code":1,"bank_code":13338,"bank":"BANQUE RICHELIEU MONACO","support_codes":7,"address":"8 AV DE GRANDE BRETAGNE","city":"MONACO CEDEX","swift_code":"KBLXMCMCXXX","id":1333801},
{"zip":"98000","branch_code":1,"bank_code":13368,"bank":"SOCIETE GENERALE PRIVATE BANKING(MONACO)","support_codes":7,"address":"11 AV DE GRANDE BRETAGNE","city":"MONACO","swift_code":"SGBTMCMCXXX","id":1336801},
{"zip":"98000","branch_code":9,"bank_code":13369,"bank":"ROTHSCHILD MARTIN MAUREL","support_codes":15,"address":"3 BD PRINCESSE CHARLOTTE","city":"MONACO","swift_code":"MAEAMCM1XXX","id":1336901},
{"zip":"98000","branch_code":1,"bank_code":14508,"bank":"BANK JULIUS BAER (MONACO) S A M","support_codes":7,"address":"12 BD DES MOULINS","city":"MONACO","swift_code":"BAERMCMCXXX","id":1450801},
{"zip":"99000","branch_code":758,"bank_code":14607,"bank":"BANQUE POPULAIRE MEDITERRANEE","support_codes":15,"address":"57 RUE GRIMALDI","city":"MONACO","swift_code":"CCBPMCM1XXX","id":1460703},
{"zip":"99000","branch_code":764,"bank_code":14607,"bank":"BANQUE POPULAIRE MEDITERRANEE","support_codes":15,"address":"3 9 BD DES MOULINS","city":"MONACO","swift_code":"CCBPMCM1XXX","id":1460702},
{"zip":"99000","branch_code":796,"bank_code":14607,"bank":"BANQUE POPULAIRE MEDITERRANEE","support_codes":15,"address":"3 9 BD DES MOULINS","city":"MONACO","swift_code":"CCBPMCM1XXX","id":1460701},
{"zip":"98011","branch_code":1,"bank_code":14908,"bank":"BANCA POPOLARE DI SONDRIO SUISSE","support_codes":15,"address":"3 RUE PRINCESSE FLORESTINE","city":"MONACO CEDEX","swift_code":"POSOMCM1XXX","id":1490801},
{"zip":"98000","branch_code":1,"bank_code":15638,"bank":"ANDBANK MONACO S A M","support_codes":7,"address":"1 AV DES CITRONNIERS","city":"MONACO","swift_code":"BACAMCMCXXX","id":1563801},
{"zip":"98000","branch_code":1,"bank_code":16038,"bank":"BANQUE HAVILLAND MONACO SAM","support_codes":7,"address":"3 7 BD DES MOULINS","city":"MONACO","swift_code":"HAVLMCMXXXX","id":1603801},
{"zip":"98000","branch_code":342,"bank_code":16548,"bank":"BECM MONACO","support_codes":15,"address":"8 RUE GRIMALDI","city":"MONACO","swift_code":"CMCIMCM1BEC","id":1654802},
{"zip":"98000","branch_code":343,"bank_code":16548,"bank":"BECM MONACO","support_codes":15,"address":"8 RUE GRIMALDI","city":"MONACO","swift_code":"CMCIMCM1BEC","id":1654801},
{"zip":"98002","branch_code":14,"bank_code":16648,"bank":"UNION BANCAIRE PRIVEE UBP SA","support_codes":7,"address":"11 BD DES MOULINS","city":"MONACO CEDEX","swift_code":"UBPGMCMXXXX","id":1664801},
{"zip":"98000","branch_code":1,"bank_code":17288,"bank":"PICTET & CIE (MONACO)","support_codes":7,"address":"2 AV ST MICHEL","city":"MONACO","swift_code":"PICTMCMCXXX","id":1728801},
{"zip":"98000","branch_code":1,"bank_code":17569,"bank":"CIE MONEGASQUE DE BANQUE","support_codes":15,"address":"23 AV DE LA COSTA (MONTE CARLO)","city":"MONACO","swift_code":"CMBMMCMXXXX","id":1756902},
{"zip":"98000","branch_code":5,"bank_code":17569,"bank":"CIE MONEGASQUE DE BANQUE","support_codes":15,"address":"23 AV DE LA COSTA (MONTE CARLO)","city":"MONACO","swift_code":"CMBMMCMXXXX","id":1756901},
{"zip":"98000","branch_code":20000,"bank_code":18315,"bank":"CAISSE D EPARGNE COTE D AZUR","support_codes":15,"address":"17 BD ALBERT 1ER","city":"MONACO","swift_code":"CEPAMCM1XXX","id":1831501},
{"zip":"98000","branch_code":1,"bank_code":18759,"bank":"EFG BANK (MONACO)","support_codes":15,"address":"15 AV D OSTENDE","city":"MONACO","swift_code":"EFGBMCMCXXX","id":1875901},
{"zip":"98000","branch_code":698,"bank_code":19106,"bank":"CRCAM PROVENCE COTE D AZUR","support_codes":15,"address":"23 BD PRINCESSE CHARLOTTE","city":"MONACO","swift_code":"AGRIMCM1XXX","id":1910601},
{"zip":"98000","branch_code":1,"bank_code":24349,"bank":"BANQUE J SAFRA SARASIN MONACO SA","support_codes":7,"address":"17 AV OSTENDE","city":"MONACO","swift_code":"BJSBMCMXXXX","id":2434901},
{"zip":"98000","branch_code":3214,"bank_code":30002,"bank":"CREDIT LYONNAIS","support_codes":15,"address":"1 AV DES CITRONNIERS","city":"MONACO","swift_code":"CRLYMCM1XXX","id":3000206},
{"zip":"98000","branch_code":3243,"bank_code":30002,"bank":"CREDIT LYONNAIS","support_codes":15,"address":"2 AV PRINCESSE ALICE","city":"MONACO","swift_code":"CRLYMCM1XXX","id":3000205},
{"zip":"98000","branch_code":3260,"bank_code":30002,"bank":"CREDIT LYONNAIS","support_codes":15,"address":"7 AV PRINCE PIERRE","city":"MONACO CEDEX","swift_code":"CRLYMCM1XXX","id":3000204},
{"zip":"98000","branch_code":3290,"bank_code":30002,"bank":"CREDIT LYONNAIS","support_codes":15,"address":"13 AV ALBERT II","city":"MONACO","swift_code":"CRLYMCM1XXX","id":3000203},
{"zip":"98000","branch_code":3291,"bank_code":30002,"bank":"CREDIT LYONNAIS","support_codes":15,"address":"2 AV PRINCESSE ALICE","city":"MONACO","swift_code":"CRLYMCM1XXX","id":3000202},
{"zip":"98000","branch_code":5430,"bank_code":30002,"bank":"CREDIT LYONNAIS","support_codes":15,"address":"PL DES MOULINS","city":"MONACO","swift_code":"CRLYMCM1XXX","id":3000201},
{"zip":"98000","branch_code":909,"bank_code":30003,"bank":"SOCIETE GENERALE","support_codes":15,"address":"16 AV DE LA COSTA","city":"MONACO","swift_code":"SOGEMCM1XXX","id":3000307},
{"zip":"98000","branch_code":910,"bank_code":30003,"bank":"SOCIETE GENERALE","support_codes":15,"address":"13 AV DE LA COSTA","city":"MONACO","swift_code":"SOGEMCM1XXX","id":3000306},
{"zip":"98000","branch_code":945,"bank_code":30003,"bank":"SOCIETE GENERALE","support_codes":15,"address":"17 BD ALBERT 1ER","city":"MONACO","swift_code":"SOGEMCM1XXX","id":3000305},
{"zip":"98000","branch_code":952,"bank_code":30003,"bank":"SOCIETE GENERALE","support_codes":15,"address":"11 AV DES PAPALINS","city":"MONACO CEDEX","swift_code":"SOGEMCM1XXX","id":3000304},
{"zip":"98000","branch_code":957,"bank_code":30003,"bank":"SOCIETE GENERALE","support_codes":15,"address":"13 BD DES MOULINS","city":"MONACO","swift_code":"SOGEMCM1XXX","id":3000303},
{"zip":"98000","branch_code":1504,"bank_code":30003,"bank":"SOCIETE GENERALE","support_codes":15,"address":"16 AV DE LA COSTA","city":"MONACO CEDEX","swift_code":"SOGEMCM1XXX","id":3000302},
{"zip":"98000","branch_code":2308,"bank_code":30003,"bank":"SOCIETE GENERALE","support_codes":15,"address":"18 QUAI JEAN CHARLES REY","city":"MONACO","swift_code":"SOGEMCM1XXX","id":3000301},
{"zip":"99038","branch_code":9170,"bank_code":30004,"bank":"BNP PARIBAS","support_codes":7,"address":"1 BD DES MOULINS MONTE CARLO","city":"MONACO CEDEX","swift_code":"BNPAMCM1XXX","id":3000405},
{"zip":"98000","branch_code":9172,"bank_code":30004,"bank":"BNP PARIBAS","support_codes":7,"address":"17 AV PRINCE HEREDITAIRE ALBERT","city":"MONACO","swift_code":"BNPAMCM1XXX","id":3000404},
{"zip":"99138","branch_code":9174,"bank_code":30004,"bank":"BNP PARIBAS","support_codes":7,"address":"5 BIS BD ALBERT 1ER","city":"MONACO CEDEX","swift_code":"BNPAMCM1XXX","id":3000403},
{"zip":"98007","branch_code":9178,"bank_code":30004,"bank":"BNP PARIBAS","support_codes":7,"address":"26 BD D ITALIE","city":"MONTE CARLO","swift_code":"BNPAMCM1XXX","id":3000402},
{"zip":"98000","branch_code":9179,"bank_code":30004,"bank":"BNP PARIBAS","support_codes":7,"address":"GALERIE CHARLES III","city":"MONACO CEDEX","swift_code":"BNPAMCM1XXX","id":3000401}
    ]
}
