{
    "country": "Montenegro",
    "country_code": "ME",
    "ISO_3166_1": { "name": "Montenegro" , "name_fr": "Monténégro (le)" , "alpha2": "ME" , "alpha3": "MNE" , "numeric": 499 },
    "list": [
{"branch_code":null,"zip":"81000","bank_code":505,"bank":"ATLAS BANKA AD","support_codes":0,"address":"VAKA DJUROVICA BB","city":"PODGORICA","swift_code":"ATLMMEP2XXX","id":505,"branch":null},
{"branch_code":null,"zip":"81000","bank_code":510,"bank":"CRNOGORSKA KOMERCIJALNA BANKA AD PODGORICA","support_codes":0,"address":"MARKSA I ENGELSA BB","city":"PODGORICA","swift_code":"CKBCMEPGXXX","id":510,"branch":null},
{"branch_code":null,"zip":"81000","bank_code":520,"bank":"HIPOTEKARNA BANKA AD","support_codes":0,"address":"ROKSPED JOSIPA BROZA TITA 67","city":"PODGORICA","swift_code":"HBBAMEPGXXX","id":520,"branch":null},
{"branch_code":null,"zip":"86000","bank_code":525,"bank":"KOMERCIJALNA BANKA AD BUDVA","support_codes":0,"address":"BUSINESS CENTER PODKOSLJUN BB","city":"BUDVA","swift_code":"KOBBMEP2XXX","id":525,"branch":null},
{"branch_code":null,"zip":"81000","bank_code":530,"bank":"NLB MONTENEGROBANKA A.D. PODGORICA","support_codes":0,"address":"MONTENEGROBANKA BUL. STANKA DRAGOJEVICA 43","city":"PODGORICA","swift_code":"MNBAMEPGXXX","id":530,"branch":null},
{"branch_code":null,"zip":"81000","bank_code":535,"bank":"PRVA BANKA CRNE GORE AD","support_codes":0,"address":"CETINJSKI PUT BB","city":"PODGORICA","swift_code":"PRVAMEPGXXX","id":535,"branch":null},
{"branch_code":null,"zip":"81000","bank_code":540,"bank":"ERSTE BANK AD PODGORICA","support_codes":0,"address":"46 MARKA MILJANOVA","city":"PODGORICA","swift_code":"OPPOMEPGXXX","id":540,"branch":null},
{"branch_code":null,"zip":"81000","bank_code":545,"bank":"INVEST BANKA MONTENEGRO AD PODGORICA (FORMALY PLJEVALJSKA BANKA)","support_codes":0,"address":"STANKA DRAGOJEVICA 4","city":"PODGORICA","swift_code":"IBMNMEPGXXX","id":545},
{"branch_code":null,"zip":"81000","bank_code":550,"bank":"SOCIETE GENERALE BANKA MONTENEGRO","support_codes":0,"address":"BULEVAR REVOLUCIJE 17","city":"PODGORICA","swift_code":"PDBPMEPGXXX","id":550,"branch":null},
{"branch_code":null,"zip":"81000","bank_code":555,"bank":"HYPO ALPE-ADRIA-BANK A.D. PODGORICA","support_codes":0,"address":"BULEVAR DZORDZA VASINGTONA 49","city":"PODGORICA","swift_code":"HAABMEPGXXX","id":555,"branch":null},
{"branch_code":null,"zip":"81000","bank_code":560,"bank":"Universal Capital Bank AD","support_codes":0,"address":"CITY STADIUM HIDROMOL 19 DECEMBER CITY STADIUM","city":"PODGORICA","swift_code":"UNCBMEPGXXX","id":560,"branch":null},
{"branch_code":null,"zip":"81000","bank_code":565,"bank":"LOVCEN BANKA AD","support_codes":0,"address":"BULEVAR DZORDZA VASINGTONA 56","city":"PODGORICA","swift_code":"LOVBMEPGXXX","id":565,"branch":null},
{"branch_code":null,"zip":""     ,"bank_code":570,"bank":"Zapad banka AD","support_codes":0,"address":"","city":"","swift_code":"ZBCGMEPGXXX","id":570,"branch":null},
{"branch_code":null,"zip":""     ,"bank_code":575,"bank":"ZIRAAT Bank Montenegro AD","support_codes":0,"address":"","city":"","swift_code":"TCZBMEPGXXX","id":575,"branch":null},
{"branch_code":null,"zip":""     ,"bank_code":580,"bank":"NOVA BANKA AD PODGORICA","support_codes":0,"address":"","city":"","swift_code":"AZMNMEPGXXX","id":580,"branch":null},
{"branch_code":null,"zip":"81000","bank_code":907,"bank":"CENTRALNA BANKA CRNE GORE","support_codes":0,"address":"NEMANJINA OBALA 7","city":"PODGORICA","swift_code":"CBCGMEPGXXX","id":907,"branch":null}
    ]
}
