{
    "country": "North Macedonia",
    "country_code": "MK",
    "ISO_3166_1": { "name": "Macedonia (the former Yugoslav Republic of)" , "name_fr": "Macédoine (l'ex-République yougoslave de)" , "alpha2": "MK" , "alpha3": "MKD" , "numeric": 807 },
    "list": [
{"branch_code":null,"zip":"1000","bank_code":100,"bank":"NATIONAL BANK OF THE REPUBLIC OF MACEDONIA","support_codes":0,"address":"KOMPLEKS BANKI B.B.","city":"SKOPJE","swift_code":"NBRMMK2XXXX","id":100000,"branch":null},
{"branch_code":null,"zip":"1000","bank_code":200,"bank":"STOPANSKA BANKA A.D.","support_codes":0,"address":"11 OKTOMVRI 7","city":"SKOPJE","swift_code":"STOBMK2XXXX","id":200000,"branch":null},
{"branch_code":null,"zip":"1000","bank_code":210,"bank":"NLB TUTUNSKA BANKA AD","support_codes":0,"address":"MAJKA TEREZA NO.1","city":"SKOPJE","swift_code":"TUTNMK22XXX","id":210000,"branch":null},
{"branch_code":null,"zip":"1000","bank_code":240,"bank":"UNIVERSAL INVESTMENT BANK AD SKOPJE (UNIBANK)","support_codes":0,"address":"6 MAKSIM GORKI STREET","city":"SKOPJE","swift_code":"UIBMMK22XXX","id":240000,"branch":null},
{"branch_code":null,"zip":"1000","bank_code":250,"bank":"SPARKASSE BANK MAKEDONIJA AD SKOPJE","support_codes":0,"address":"UL. MAKEDONIJA 9-11","city":"SKOPJE","swift_code":"INSBMK22XXX","id":250000,"branch":null},
{"branch_code":null,"zip":"1000","bank_code":270,"bank":"HALKBANK AD SKOPJE","support_codes":0,"address":"BUL. MITO-HADZIVASILEV JASMIN BB","city":"SKOPJE","swift_code":"EXPCMK22XXX","id":270000,"branch":null},
{"branch_code":null,"zip":"1000","bank_code":280,"bank":"ALPHA BANK AD SKOPJE","support_codes":0,"address":"DIMITRIE CUPOVSKI 2","city":"SKOPJE","swift_code":"KRSKMK2XXXX","id":280000,"branch":null},
{"branch_code":null,"zip":"1000","bank_code":290,"bank":"TTK BANKA AD SKOPJE","support_codes":0,"address":"T.C. BERVERLUI HILS NARODEN FRONT 19A","city":"SKOPJE","swift_code":"TTXBMK2XXXX","id":290000,"branch":null},
{"branch_code":null,"zip":"1000","bank_code":300,"bank":"KOMERCIJALNA BANKA A.D.","support_codes":0,"address":"UL.ORCE NIKOLOV 3","city":"SKOPJE","swift_code":"KOBSMK2XBTB","id":300001,"branch":null},
{"branch_code":null,"zip":"1000","bank_code":300,"bank":"KOMERCIJALNA BANKA A.D.","support_codes":0,"address":"UL.ORCE NIKOLOV 3","city":"SKOPJE","swift_code":"KOBSMK2XGVB","id":300002,"branch":"branch GOSTIVAR"},
{"branch_code":null,"zip":"1000","bank_code":300,"bank":"KOMERCIJALNA BANKA A.D.","support_codes":0,"address":"UL.ORCE NIKOLOV 3","city":"SKOPJE","swift_code":"KOBSMK2XKOB","id":300003,"branch":"branch KOCANI"},
{"branch_code":null,"zip":"1000","bank_code":300,"bank":"KOMERCIJALNA BANKA A.D.","support_codes":0,"address":"UL.ORCE NIKOLOV 3","city":"SKOPJE","swift_code":"KOBSMK2XKUB","id":300004,"branch":"branch KUMANOVO"},
{"branch_code":null,"zip":"1000","bank_code":300,"bank":"KOMERCIJALNA BANKA A.D.","support_codes":0,"address":"UL.ORCE NIKOLOV 3","city":"SKOPJE","swift_code":"KOBSMK2XKVB","id":300005,"branch":"branch KAVADARCI"},
{"branch_code":null,"zip":"1000","bank_code":300,"bank":"KOMERCIJALNA BANKA A.D.","support_codes":0,"address":"UL.ORCE NIKOLOV 3","city":"SKOPJE","swift_code":"KOBSMK2XOHB","id":300006,"branch":"branch OHRID"},
{"branch_code":null,"zip":"1000","bank_code":300,"bank":"KOMERCIJALNA BANKA A.D.","support_codes":0,"address":"UL.ORCE NIKOLOV 3","city":"SKOPJE","swift_code":"KOBSMK2XPRB","id":300007,"branch":"branch PRILEP"},
{"branch_code":null,"zip":"1000","bank_code":300,"bank":"KOMERCIJALNA BANKA A.D.","support_codes":0,"address":"UL.ORCE NIKOLOV 3","city":"SKOPJE","swift_code":"KOBSMK2XSRB","id":300008,"branch":"branch STRUMICA"},
{"branch_code":null,"zip":"1000","bank_code":300,"bank":"KOMERCIJALNA BANKA A.D.","support_codes":0,"address":"UL.ORCE NIKOLOV 3","city":"SKOPJE","swift_code":"KOBSMK2XSTB","id":300009,"branch":"branch STIP"},
{"branch_code":null,"zip":"1000","bank_code":300,"bank":"KOMERCIJALNA BANKA A.D.","support_codes":0,"address":"UL.ORCE NIKOLOV 3","city":"SKOPJE","swift_code":"KOBSMK2XTEB","id":300010,"branch":"branch TETOVO"},
{"branch_code":null,"zip":"1000","bank_code":300,"bank":"KOMERCIJALNA BANKA A.D.","support_codes":0,"address":"UL.ORCE NIKOLOV 3","city":"SKOPJE","swift_code":"KOBSMK2XVEB","id":300011,"branch":"branch VELES"},
{"branch_code":null,"zip":"1000","bank_code":300,"bank":"KOMERCIJALNA BANKA A.D.","support_codes":0,"address":"UL.ORCE NIKOLOV 3","city":"SKOPJE","swift_code":"KOBSMK2XXXX","id":300000,"branch":null},
{"branch_code":null,"zip":"1000","bank_code":320,"bank":"CENTRAL COOPERATIVE BANK AD SKOPJE","support_codes":0,"address":"GRADSKI PARK - GRADSKI STADION BB","city":"SKOPJE","swift_code":"CECBMK22XXX","id":320000,"branch":null},
{"branch_code":null,"zip":"1000","bank_code":330,"bank":"KAPITAL BANKA AD SKOPJE","support_codes":0,"address":"27 MARCH, 1","city":"SKOPJE","swift_code":"KAPBMK22XXX","id":330000,"branch":null},
{"branch_code":null,"zip":"1000","bank_code":350,"bank":"MACEDONIAN BANK FOR DEVELOPMENT PROMOTION","support_codes":0,"address":"UL. VELJKO VLAHOVIC 26","city":"SKOPJE","swift_code":"MBDPMK22XXX","id":350000,"branch":null},
{"branch_code":null,"zip":"1000","bank_code":370,"bank":"EUROSTANDARD BANK AD","support_codes":0,"address":"27-MI MART B.B., MAL RING, CENTAR","city":"SKOPJE","swift_code":"ESWBMK22XXX","id":370000,"branch":null},
{"branch_code":null,"zip":"1000","bank_code":380,"bank":"PROCREDIT BANK, MACEDONIA (FORMERLY PRO BUSINESS BANK A.D. SKOPJE)","support_codes":0,"address":"JANE SANDANSKI 109A","city":"SKOPJE","swift_code":"PRBUMK22XXX","id":380000,"branch":null},
{"branch_code":null,"zip":"7000","bank_code":500,"bank":"STOPANSKA BANKA AD BITOLA","support_codes":0,"address":"DOBRIVOE RADOSAVLJEVIC 21","city":"BITOLA","swift_code":"STBBMK22XXX","id":500000,"branch":null},
{"branch_code":null,"zip":"6000","bank_code":530,"bank":"OHRIDSKA BANKA A.D. OHRID","support_codes":0,"address":"MAKEDONSKI PROSVETITELI 19","city":"OHRID","swift_code":"OHRDMK22XXX","id":530000,"branch":null},
{"branch_code":null,"zip":"1000","bank_code":660,"bank":"HEALTH INSURANCE FUND OF MACEDONIA","support_codes":0,"address":"ST. MAKEDONIJA BB","city":"SKOPJE","swift_code":"HIFDMK21XXX","id":660000,"branch":null}
    ]
}
