{
    "country": "Netherlands",
    "country_code": "NL",
    "isSEPAcountry": true,
     "ISO_3166_1": { "name": "Netherlands (the)" , "name_fr": "Pays-Bas (les)" , "alpha2": "NL" , "alpha3": "NLD" , "numeric": 528 },
    "list": [
{"id": 8814, "swift_code": "ABNANL2AALC", "bank_code": "ABNA", "branch_code": null, "branch": null, "bank": "ABN AMRO BANK N.V.", "address": "GUSTAV MAHLERLAAN 10", "zip": "1082 PP", "city": "AMSTERDAM", "support_codes": 15},
{"id": 8814, "swift_code": "ABNANL2AWSS", "bank_code": "ABNA", "branch_code": null, "branch": null, "bank": "ABN AMRO BANK N.V.", "address": "GUSTAV MAHLERLAAN 10", "zip": "1082 PP", "city": "AMSTERDAM", "support_codes": 15},
{"id": 8814, "swift_code": "ABNANL2AXXX", "bank_code": "ABNA", "branch_code": null, "branch": null, "bank": "ABN AMRO BANK N.V.", "address": "GUSTAV MAHLERLAAN 10", "zip": "1082 PP", "city": "AMSTERDAM", "support_codes": 15},
{"id": 8814, "swift_code": "ABNANL2AMEL", "bank_code": "ABNA", "branch_code": null, "branch": null, "bank": "ABN AMRO BANK N.V.", "address": "GUSTAV MAHLERLAAN 10", "zip": "1082 PP", "city": "AMSTERDAM", "support_codes": 15},
{"id": 8814, "swift_code": "ABNANL2AAGS", "bank_code": "ABNA", "branch_code": null, "branch": null, "bank": "ABN AMRO BANK N.V.", "address": "GUSTAV MAHLERLAAN 10", "zip": "1082 PP", "city": "AMSTERDAM", "support_codes": 15},
{"id": 8814, "swift_code": "ABNANL2ARET", "bank_code": "ABNA", "branch_code": null, "branch": null, "bank": "ABN AMRO BANK N.V.", "address": "GUSTAV MAHLERLAAN 10", "zip": "1082 PP", "city": "AMSTERDAM", "support_codes": 15},
{"id": 8814, "swift_code": "ABNANL2AMAR", "bank_code": "ABNA", "branch_code": null, "branch": null, "bank": "ABN AMRO BANK N.V.", "address": "GUSTAV MAHLERLAAN 10", "zip": "1082 PP", "city": "AMSTERDAM", "support_codes": 15},
{"id": 8814, "swift_code": "ABNANL2ASOB", "bank_code": "ABNA", "branch_code": null, "branch": null, "bank": "ABN AMRO BANK N.V.", "address": "GUSTAV MAHLERLAAN 10", "zip": "1082 PP", "city": "AMSTERDAM", "support_codes": 15},
{"id": 8814, "swift_code": "ABNANL2AXXX", "bank_code": "ABNA", "branch_code": null, "branch": null, "bank": "ABN AMRO BANK N.V.", "address": "GUSTAV MAHLERLAAN 10", "zip": "1082 PP", "city": "AMSTERDAM", "support_codes": 15},
{"id": 43966, "swift_code": "ABNCNL2ASYD", "bank_code": "ABNC", "branch_code": null, "branch": null, "bank": "ABN AMRO CLEARING BANK N.V.", "address": "GUSTAV MAHLERLAAN 10 NOORD-HOLLAND", "zip": "1082 PP", "city": "AMSTERDAM", "support_codes": 1},
{"id": 43966, "swift_code": "ABNCNL2ASBL", "bank_code": "ABNC", "branch_code": null, "branch": null, "bank": "ABN AMRO CLEARING BANK N.V.", "address": "GUSTAV MAHLERLAAN 10 NOORD-HOLLAND", "zip": "1082 PP", "city": "AMSTERDAM", "support_codes": 1},
{"id": 43966, "swift_code": "ABNCNL2ACOL", "bank_code": "ABNC", "branch_code": null, "branch": null, "bank": "ABN AMRO CLEARING BANK N.V.", "address": "GUSTAV MAHLERLAAN 10 NOORD-HOLLAND", "zip": "1082 PP", "city": "AMSTERDAM", "support_codes": 1},
{"id": 43966, "swift_code": "ABNCNL2ACBC", "bank_code": "ABNC", "branch_code": null, "branch": null, "bank": "ABN AMRO CLEARING BANK N.V.", "address": "GUSTAV MAHLERLAAN 10 NOORD-HOLLAND", "zip": "1082 PP", "city": "AMSTERDAM", "support_codes": 1},
{"id": 43966, "swift_code": "ABNCNL2ACUS", "bank_code": "ABNC", "branch_code": null, "branch": null, "bank": "ABN AMRO CLEARING BANK N.V.", "address": "GUSTAV MAHLERLAAN 10 NOORD-HOLLAND", "zip": "1082 PP", "city": "AMSTERDAM", "support_codes": 1},
{"id": 43966, "swift_code": "ABNCNL2AENE", "bank_code": "ABNC", "branch_code": null, "branch": null, "bank": "ABN AMRO CLEARING BANK N.V.", "address": "GUSTAV MAHLERLAAN 10 NOORD-HOLLAND", "zip": "1082 PP", "city": "AMSTERDAM", "support_codes": 1},
{"id": 43966, "swift_code": "ABNCNL2AFND", "bank_code": "ABNC", "branch_code": null, "branch": null, "bank": "ABN AMRO CLEARING BANK N.V.", "address": "GUSTAV MAHLERLAAN 10 NOORD-HOLLAND", "zip": "1082 PP", "city": "AMSTERDAM", "support_codes": 1},
{"id": 43966, "swift_code": "ABNCNL2AFOR", "bank_code": "ABNC", "branch_code": null, "branch": null, "bank": "ABN AMRO CLEARING BANK N.V.", "address": "GUSTAV MAHLERLAAN 10 NOORD-HOLLAND", "zip": "1082 PP", "city": "AMSTERDAM", "support_codes": 1},
{"id": 43966, "swift_code": "ABNCNL2ANPL", "bank_code": "ABNC", "branch_code": null, "branch": null, "bank": "ABN AMRO CLEARING BANK N.V.", "address": "GUSTAV MAHLERLAAN 10 NOORD-HOLLAND", "zip": "1082 PP", "city": "AMSTERDAM", "support_codes": 1},
{"id": 43966, "swift_code": "ABNCNL2ATBD", "bank_code": "ABNC", "branch_code": null, "branch": null, "bank": "ABN AMRO CLEARING BANK N.V.", "address": "GUSTAV MAHLERLAAN 10 NOORD-HOLLAND", "zip": "1082 PP", "city": "AMSTERDAM", "support_codes": 1},
{"id": 43966, "swift_code": "ABNCNL2AABC", "bank_code": "ABNC", "branch_code": null, "branch": null, "bank": "ABN AMRO CLEARING BANK N.V.", "address": "GUSTAV MAHLERLAAN 10 NOORD-HOLLAND", "zip": "1082 PP", "city": "AMSTERDAM", "support_codes": 1},
{"id": 43966, "swift_code": "ABNCNL2AGIR", "bank_code": "ABNC", "branch_code": null, "branch": null, "bank": "ABN AMRO CLEARING BANK N.V.", "address": "GUSTAV MAHLERLAAN 10 NOORD-HOLLAND", "zip": "1082 PP", "city": "AMSTERDAM", "support_codes": 1},
{"id": 43966, "swift_code": "ABNCNL2AHCH", "bank_code": "ABNC", "branch_code": null, "branch": null, "bank": "ABN AMRO CLEARING BANK N.V.", "address": "GUSTAV MAHLERLAAN 10 NOORD-HOLLAND", "zip": "1082 PP", "city": "AMSTERDAM", "support_codes": 1},
{"id": 43966, "swift_code": "ABNCNL2ALLX", "bank_code": "ABNC", "branch_code": null, "branch": null, "bank": "ABN AMRO CLEARING BANK N.V.", "address": "GUSTAV MAHLERLAAN 10 NOORD-HOLLAND", "zip": "1082 PP", "city": "AMSTERDAM", "support_codes": 1},
{"id": 43966, "swift_code": "ABNCNL2AGMK", "bank_code": "ABNC", "branch_code": null, "branch": null, "bank": "ABN AMRO CLEARING BANK N.V.", "address": "GUSTAV MAHLERLAAN 10 NOORD-HOLLAND", "zip": "1082 PP", "city": "AMSTERDAM", "support_codes": 1},
{"id": 43966, "swift_code": "ABNCNL2AXXX", "bank_code": "ABNC", "branch_code": null, "branch": null, "bank": "ABN AMRO CLEARING BANK N.V.", "address": "GUSTAV MAHLERLAAN 10 NOORD-HOLLAND", "zip": "1082 PP", "city": "AMSTERDAM", "support_codes": 1},
{"id": 43966, "swift_code": "ABNCNL2ABIN", "bank_code": "ABNC", "branch_code": null, "branch": null, "bank": "ABN AMRO CLEARING BANK N.V.", "address": "GUSTAV MAHLERLAAN 10 NOORD-HOLLAND", "zip": "1082 PP", "city": "AMSTERDAM", "support_codes": 1},
{"id": 43966, "swift_code": "ABNCNL2AECP", "bank_code": "ABNC", "branch_code": null, "branch": null, "bank": "ABN AMRO CLEARING BANK N.V.", "address": "GUSTAV MAHLERLAAN 10 NOORD-HOLLAND", "zip": "1082 PP", "city": "AMSTERDAM", "support_codes": 1},
{"id": 43966, "swift_code": "ABNCNL2AFLR", "bank_code": "ABNC", "branch_code": null, "branch": null, "bank": "ABN AMRO CLEARING BANK N.V.", "address": "GUSTAV MAHLERLAAN 10 NOORD-HOLLAND", "zip": "1082 PP", "city": "AMSTERDAM", "support_codes": 1},
{"id": 176618, "swift_code": "AHBKNL2GXXX", "bank_code": "AHBK", "branch_code": null, "branch": null, "bank": "ACHMEA HYPOTHEEK BANK", "address": "", "city": ""},
{"id": 229606, "swift_code": "ARBNNL22XXX", "bank_code": "ARBN", "branch_code": null, "branch": null, "bank": "ACHMEA RETAIL BANK N.V.", "address": "STORKSTRAAT 12", "zip": "3833 LB", "city": "LEUSDEN", "support_codes": 7},
{"id": 250224, "swift_code": "AEGONL2UXXX", "bank_code": "AEGO", "branch_code": null, "branch": null, "bank": "AEGON BANK N.V.", "address": "KCN TOWER 60 NEVELGAARDE", "zip": "3436 ZZ", "city": "NIEUWEGEIN", "support_codes": 1},
{"id": 263224, "swift_code": "AKZONL2AXXX", "bank_code": "AKZO", "branch_code": null, "branch": null, "bank": "AKZO NOBEL N.V.", "address": "", "city": ""},
{"id": 338, "swift_code": "ANAANL21XXX", "bank_code": "ANAA", "branch_code": null, "branch": null, "bank": "ALLIANZ NEDERLAND ASSET MANAGEMENT", "address": "BUIZERDLAAN 12", "zip": "3435 SB", "city": "NIEUWEGEIN"},
{"id": 1170, "swift_code": "ATBANL2AXXX", "bank_code": "ATBA", "branch_code": null, "branch": null, "bank": "AMSTERDAM TRADE BANK N.V.", "address": "HERENGRACHT 475", "zip": "1017 BS", "city": "AMSTERDAM", "support_codes": 1},
{"id": 203312, "swift_code": "STOLNL2AXXX", "bank_code": "STOL", "branch_code": null, "branch": null, "bank": "AMSTERDAM TRADE BANK N.V.", "address": "", "city": ""},
{"id": 195702, "swift_code": "ANDLNL2AXXX", "bank_code": "ANDL", "branch_code": null, "branch": null, "bank": "ANADOLUBANK NEDERLAND N.V.", "address": "GEBOUW OFFICIA 1 DE BOELELAAN 7", "zip": "1083 HJ", "city": "AMSTERDAM", "support_codes": 1},
{"id": 241098, "swift_code": "ARSNNL21XXX", "bank_code": "ARSN", "branch_code": null, "branch": null, "bank": "ARGENTA SPAARBANK-BIJKANTOOR NEDERLAND", "address": "NIEUWE BOSCHSTRAAT 51", "zip": "4811 CV", "city": "BREDA", "support_codes": 1},
{"id": 26832, "swift_code": "ASNBNL21XXX", "bank_code": "ASNB", "branch_code": null, "branch": null, "bank": "ASN BANK", "address": "BEZUIDENHOUTSEWEG 153", "zip": "2594 AG", "city": "DEN HAAG", "support_codes": 15},
{"id": 29536, "swift_code": "ASRBNL2RXXX", "bank_code": "ASRB", "branch_code": null, "branch": null, "bank": "ASR BANK N.V.", "address": "ARCHIMEDESLAAN 10", "zip": "3500 HB", "city": "UTRECHT", "support_codes": 7},
{"id": 8165, "swift_code": "BCMANL2AXXX", "bank_code": "BCMA", "branch_code": null, "branch": null, "bank": "ATTIJARIWAFA BANK", "address": "", "city": ""},
{"id": 153122, "swift_code": "INSINL2AXXX", "bank_code": "INSI", "branch_code": null, "branch": null, "bank": "BANK INSINGER DE BEAUFORT NV", "address": "HERENGRACHT 537", "zip": "1017 BV", "city": "AMSTERDAM"},
{"id": 153122, "swift_code": "INSINL2ANRA", "bank_code": "INSI", "branch_code": null, "branch": null, "bank": "BANK INSINGER DE BEAUFORT NV", "address": "HERENGRACHT 537", "zip": "1017 BV", "city": "AMSTERDAM"},
{"id": 113829, "swift_code": "BKMGNL2AXXX", "bank_code": "BKMG", "branch_code": null, "branch": null, "bank": "BANK MENDES GANS N.V.", "address": "HERENGRACHT 619", "zip": "1017 CE", "city": "AMSTERDAM", "support_codes": 1},
{"id": 3745, "swift_code": "BOFANLNXXXX", "bank_code": "BOFA", "branch_code": null, "branch": null, "bank": "BANK OF AMERICA, N.A. AMSTERDAM", "address": "REMBRANDT TOWER FLOOR 11 AMSTELPLEIN 1", "zip": "1096 HA", "city": "AMSTERDAM", "support_codes": 15},
{"id": 3745, "swift_code": "BOFANLNXLIQ", "bank_code": "BOFA", "branch_code": null, "branch": null, "bank": "BANK OF AMERICA, N.A. AMSTERDAM", "address": "REMBRANDT TOWER FLOOR 11 AMSTELPLEIN 1", "zip": "1096 HA", "city": "AMSTERDAM", "support_codes": 15},
{"id": 124645, "swift_code": "BKCHNL2RXXX", "bank_code": "BKCH", "branch_code": null, "branch": null, "bank": "BANK OF CHINA", "address": "WESTBLAAK 109", "zip": "3012 KG", "city": "ROTTERDAM", "support_codes": 1},
{"id": 227475, "swift_code": "BNYMNL22DNB", "bank_code": "BNYM", "branch_code": null, "branch": null, "bank": "BANK OF NEW YORK MELLON- AMSTERDAM BRANCH", "address": "TOWERSTRAWINSKYLAAN 337", "zip": "1077 XX", "city": "AMSTERDAM"},
{"id": 227475, "swift_code": "BNYMNL22XXX", "bank_code": "BNYM", "branch_code": null, "branch": null, "bank": "BANK OF NEW YORK MELLON- AMSTERDAM BRANCH", "address": "TOWERSTRAWINSKYLAAN 337", "zip": "1077 XX", "city": "AMSTERDAM"},
{"id": 320113, "swift_code": "BOFSNL21002", "bank_code": "BOFS", "branch_code": null, "branch": null, "bank": "BANK OF SCOTLAND PLC", "address": "DE ENTREE 254", "zip": "1101 EE", "city": "AMSTERDAM", "support_codes": 1},
{"id": 320113, "swift_code": "BOFSNL21002", "bank_code": "BOFS", "branch_code": null, "branch": null, "bank": "BANK OF SCOTLAND PLC", "address": "DE ENTREE 254", "zip": "1101 EE", "city": "AMSTERDAM", "support_codes": 1},
{"id": 188969, "swift_code": "BOTKNL2XXXX", "bank_code": "BOTK", "branch_code": null, "branch": null, "bank": "MUFG BANK", "address": "WORLD TRADE CENTER TOWER D FLOOR 5 STRAWINSKYLAAN 565", "zip": "1077 AR", "city": "AMSTERDAM", "support_codes": 15},
{"id": 335419, "swift_code": "TECTNL21XXX", "bank_code": "TECT", "branch_code": null, "branch": null, "bank": "Bank ten Cate &amp; Cie N.V.", "address": "", "city": ""},
{"id": 212993, "swift_code": "BCDMNL22XXX", "bank_code": "BCDM", "branch_code": null, "branch": null, "bank": "BANQUE CHAABI DU MAROC", "address": "DE CLERCQSTRAAT 55", "zip": "1067 NG", "city": "AMSTERDAM", "support_codes": 1},
{"id": 212993, "swift_code": "BCDMNL22XXX", "bank_code": "BCDM", "branch_code": null, "branch": null, "bank": "BANQUE CHAABI DU MAROC", "address": "DE CLERCQSTRAAT 55", "zip": "1067 NG", "city": "AMSTERDAM", "support_codes": 1},
{"id": 46645, "swift_code": "BARCNL22XXX", "bank_code": "BARC", "branch_code": null, "branch": null, "bank": "BARCLAYS BANK PLC", "address": "", "city": "", "support_codes": 15},
{"id": 177321, "swift_code": "BICKNL2APRF", "bank_code": "BICK", "branch_code": null, "branch": null, "bank": "BINCKBANK N.V.", "address": "VIJZELSTRAAT 20", "zip": "1017 HK", "city": "AMSTERDAM", "support_codes": 1},
{"id": 184757, "swift_code": "BINKNL21XXX", "bank_code": "BINK", "branch_code": null, "branch": null, "bank": "BINCKBANK N.V. PROF", "address": "BARBARA STROZZILAAN 310", "zip": "1083 HN", "city": "AMSTERDAM", "support_codes": 1},
{"id": 177321, "swift_code": "BICKNL2AXXX", "bank_code": "BICK", "branch_code": null, "branch": null, "bank": "BINCKBANK N.V.", "address": "VIJZELSTRAAT 20", "zip": "1017 HK", "city": "AMSTERDAM", "support_codes": 1},
{"id": 391015, "swift_code": "BLGWNL21XXX", "bank_code": "BLGW", "branch_code": null, "branch": null, "bank": "BLG WONEN", "address": "JOS KLIJNENLAAN 288", "zip": "6164 AZ", "city": "GELEEN", "support_codes": 7},
{"id": 354537, "swift_code": "BMEUNL21XXX", "bank_code": "BMEU", "branch_code": null, "branch": null, "bank": "BMCE EUROSERVICES", "address": "JOHAN HUIZINGALAAN 183", "zip": "1065 JA", "city": "AMSTERDAM"},
{"id": 10479, "swift_code": "BNPANL2AXXX", "bank_code": "BNPA", "branch_code": null, "branch": null, "bank": "BNP PARIBAS S.A. - THE NETHERLANDS BRANCH", "address": "HERENGRACHT 595", "zip": "1017 CE", "city": "AMSTERDAM", "support_codes": 15},
{"id": 10479, "swift_code": "BNPANL2AXXX", "bank_code": "BNPA", "branch_code": null, "branch": null, "bank": "BNP PARIBAS S.A. - THE NETHERLANDS BRANCH", "address": "HERENGRACHT 595", "zip": "1017 CE", "city": "AMSTERDAM", "support_codes": 15},
{"id": 10479, "swift_code": "BNPANL2AXXX", "bank_code": "BNPA", "branch_code": null, "branch": null, "bank": "BNP PARIBAS S.A. - THE NETHERLANDS BRANCH", "address": "HERENGRACHT 595", "zip": "1017 CE", "city": "AMSTERDAM", "support_codes": 15},
{"id": 10479, "swift_code": "BNPANL2ANMC", "bank_code": "BNPA", "branch_code": null, "branch": null, "bank": "BNP PARIBAS S.A. - THE NETHERLANDS BRANCH", "address": "HERENGRACHT 595", "zip": "1017 CE", "city": "AMSTERDAM", "support_codes": 15},
{"id": 290525, "swift_code": "BUNQNL2AXXX", "bank_code": "BUNQ", "branch_code": null, "branch": null, "bank": "BUNQ", "address": "ORLYPLEIN 89-4", "zip": "1043 DS", "city": "AMSTERDAM", "support_codes": 15},
{"id": 290525, "swift_code": "BUNQNL2AHDO", "bank_code": "BUNQ", "branch_code": null, "branch": null, "bank": "BUNQ", "address": "ORLYPLEIN 89-4", "zip": "1043 DS", "city": "AMSTERDAM", "support_codes": 15},
{"id": 70780, "swift_code": "ISAENL2AXXX", "bank_code": "ISAE", "branch_code": null, "branch": null, "bank": "CACEIS BANK", "address": "", "city": "", "support_codes": 1},
{"id": 373310, "swift_code": "CGG HOLDING", "bank_code": "CGGV", "branch_code": null, "branch": null, "bank": "CGGVNL2A", "address": "", "city": ""},
{"id": 35895, "swift_code": "PCBCNL2AXXX", "bank_code": "PCBC", "branch_code": null, "branch": null, "bank": "CHINA CONSTRUCTION BANK AMSTERDAM BRANCH", "address": "STRAWINSKYLAAN 3051", "zip": "1077 ZX", "city": "AMSTERDAM", "support_codes": 1},
{"id": 48206, "swift_code": "CITCNL2AXXX", "bank_code": "CITC", "branch_code": null, "branch": null, "bank": "CITCO BANK NEDERLAND N.V.", "address": "NARITAWEG 165 TELEPORT 8 - TELESTONE", "zip": "1043 BW", "city": "AMSTERDAM", "support_codes": 7},
{"id": 153662, "swift_code": "CITINL2XCB2", "bank_code": "CITI", "branch_code": null, "branch": null, "bank": "CITIBANK INTERNATIONAL PLC NETHERLANDS BRANCH", "address": "WTC SCHIPHOL TOWER D8 SCHIPHOL BOULEVARD 257", "zip": "1118 BH", "city": "SCHIPHOL", "support_codes": 15},
{"id": 153662, "swift_code": "CITINL2XSEC", "bank_code": "CITI", "branch_code": null, "branch": null, "bank": "CITIBANK INTERNATIONAL PLC NETHERLANDS BRANCH", "address": "WTC SCHIPHOL TOWER D8 SCHIPHOL BOULEVARD 257", "zip": "1118 BH", "city": "SCHIPHOL", "support_codes": 15},
{"id": 153662, "swift_code": "CITINL2XTFT", "bank_code": "CITI", "branch_code": null, "branch": null, "bank": "CITIBANK INTERNATIONAL PLC NETHERLANDS BRANCH", "address": "WTC SCHIPHOL TOWER D8 SCHIPHOL BOULEVARD 257", "zip": "1118 BH", "city": "SCHIPHOL", "support_codes": 15},
{"id": 153662, "swift_code": "CITINL2XXXX", "bank_code": "CITI", "branch_code": null, "branch": null, "bank": "CITIBANK INTERNATIONAL PLC NETHERLANDS BRANCH", "address": "WTC SCHIPHOL TOWER D8 SCHIPHOL BOULEVARD 257", "zip": "1118 BH", "city": "SCHIPHOL", "support_codes": 15},
{"id": 1042, "swift_code": "COBANL2XXXX", "bank_code": "COBA", "branch_code": null, "branch": null, "bank": "COMMERZBANK AG KANTOOR AMSTERDAM", "address": "STRAWINSKYLAAN 2501", "zip": "1077 ZZ", "city": "AMSTERDAM", "support_codes": 15},
{"id": 1042, "swift_code": "COBANL2XTAM", "bank_code": "COBA", "branch_code": null, "branch": null, "bank": "COMMERZBANK AG KANTOOR AMSTERDAM", "address": "STRAWINSKYLAAN 2501", "zip": "1077 ZZ", "city": "AMSTERDAM", "support_codes": 15},
{"id": 1042, "swift_code": "COBANL2XTSU", "bank_code": "COBA", "branch_code": null, "branch": null, "bank": "COMMERZBANK AG KANTOOR AMSTERDAM", "address": "STRAWINSKYLAAN 2501", "zip": "1077 ZZ", "city": "AMSTERDAM", "support_codes": 15},
{"id": 198099, "swift_code": "FBHLNL2AXXX", "bank_code": "FBHL", "branch_code": null, "branch": null, "bank": "CREDIT EUROPE BANK N.V.", "address": "KARSPELDREEF 6A", "zip": "1101 CJ", "city": "AMSTERDAM", "support_codes": 7},
{"id": 176725, "swift_code": "DLBKNL2AXXX", "bank_code": "DLBK", "branch_code": null, "branch": null, "bank": "DELTA LLOYD BANK N.V.", "address": "JOAN MUYSKENWEG 4", "zip": "1096 CJ", "city": "AMSTERDAM"},
{"id": 229349, "swift_code": "DHBNNL2RXXX", "bank_code": "DHBN", "branch_code": null, "branch": null, "bank": "DEMIR-HALK BANK (NEDERLAND) N.V.", "address": "PARKLAAN 8", "zip": "3016 BB", "city": "ROTTERDAM", "support_codes": 7},
{"id": 229349, "swift_code": "DHBNNL2RCOL", "bank_code": "DHBN", "branch_code": null, "branch": null, "bank": "DEMIR-HALK BANK (NEDERLAND) N.V.", "address": "PARKLAAN 8", "zip": "3016 BB", "city": "ROTTERDAM", "support_codes": 7},
{"id": 347571, "swift_code": "DEUTNL2AABF", "bank_code": "DEUT", "branch_code": null, "branch": null, "bank": "DEUTSCHE BANK NEDERLAND N.V.", "address": "DE ENTREE 99-197", "zip": "1101 HE", "city": "AMSTERDAM", "support_codes": 15},
{"id": 347571, "swift_code": "DEUTNL2A002", "bank_code": "DEUT", "branch_code": null, "branch": null, "bank": "DEUTSCHE BANK NEDERLAND N.V.", "address": "DE ENTREE 99-197", "zip": "1101 HE", "city": "AMSTERDAM", "support_codes": 15},
{"id": 347571, "swift_code": "DEUTNL2ASSS", "bank_code": "DEUT", "branch_code": null, "branch": null, "bank": "DEUTSCHE BANK NEDERLAND N.V.", "address": "DE ENTREE 99-197", "zip": "1101 HE", "city": "AMSTERDAM", "support_codes": 15},
{"id": 347571, "swift_code": "DEUTNL2ASEC", "bank_code": "DEUT", "branch_code": null, "branch": null, "bank": "DEUTSCHE BANK NEDERLAND N.V.", "address": "DE ENTREE 99-197", "zip": "1101 HE", "city": "AMSTERDAM", "support_codes": 15},
{"id": 347571, "swift_code": "DEUTNL2AXXX", "bank_code": "DEUT", "branch_code": null, "branch": null, "bank": "DEUTSCHE BANK NEDERLAND N.V.", "address": "DE ENTREE 99-197", "zip": "1101 HE", "city": "AMSTERDAM", "support_codes": 15},
{"id": 347571, "swift_code": "DEUTNL2AXXX", "bank_code": "DEUT", "branch_code": null, "branch": null, "bank": "DEUTSCHE BANK NEDERLAND N.V.", "address": "DE ENTREE 99-197", "zip": "1101 HE", "city": "AMSTERDAM", "support_codes": 15},
{"id": 144208, "swift_code": "MIFINL2GXXX", "bank_code": "MIFI", "branch_code": null, "branch": null, "bank": "MINISTRY OF FINANCE", "address": "", "city": ""},
{"id": 352319, "swift_code": "TEBUNL2AXXX", "bank_code": "TEBU", "branch_code": null, "branch": null, "bank": "ECONOMY BANK N.V.,THE", "address": "PROF. W.H. KEESOMLAAN 5", "zip": "1183 DJ", "city": "AMSTELVEEN"},
{"id": 127535, "swift_code": "FRGHNL21XXX", "bank_code": "FRGH", "branch_code": null, "branch": null, "bank": "FGH BANK N.V.", "address": "LEIDSEVEER 50", "zip": "3511 SB", "city": "UTRECHT"},
{"id": 141460, "swift_code": "UGBINL2AXXX", "bank_code": "UGBI", "branch_code": null, "branch": null, "bank": "GARANTIBANK INTERNATIONAL N.V.", "address": "KEIZERSGRACHT 569-575", "zip": "1017 DR", "city": "AMSTERDAM", "support_codes": 7},
{"id": 865, "swift_code": "HHBANL22XXX", "bank_code": "HHBA", "branch_code": null, "branch": null, "bank": "HOF HOORNEMAN BANKIERS NV", "address": "OOSTHAVEN 52", "zip": "2801 PE", "city": "GOUDA", "support_codes": 1},
{"id": 36303, "swift_code": "HSBCNL2ASDD", "bank_code": "HSBC", "branch_code": null, "branch": null, "bank": "HSBC BANK PLC.", "address": "DE ENTREE AMSTERDAM ZUIDOOST 242", "zip": "1101 EE", "city": "AMSTERDAM", "support_codes": 15},
{"id": 36303, "swift_code": "HSBCNL2AXXX", "bank_code": "HSBC", "branch_code": null, "branch": null, "bank": "HSBC BANK PLC.", "address": "DE ENTREE AMSTERDAM ZUIDOOST 242", "zip": "1101 EE", "city": "AMSTERDAM", "support_codes": 15},
{"id": 176496, "swift_code": "ICBKNL2AXXX", "bank_code": "ICBK", "branch_code": null, "branch": null, "bank": "INDUSTRIAL AND COMMERCIAL BANK OF CHINA (EUROPE) S.A. AMSTERDAM BRANCH", "address": "JOHANNES VERMEERSTRAAT 7", "zip": "1071 DK", "city": "AMSTERDAM", "support_codes": 15},
{"id": 21978, "swift_code": "INGBNL2AFSS", "bank_code": "INGB", "branch_code": null, "branch": null, "bank": "ING BANK N.V.", "address": "FINANCIAL PLAZA BIJLMERDREEF 109", "zip": "1102 BW", "city": "AMSTERDAM", "support_codes": 15},
{"id": 21978, "swift_code": "INGBNL2AICM", "bank_code": "INGB", "branch_code": null, "branch": null, "bank": "ING BANK N.V.", "address": "FINANCIAL PLAZA BIJLMERDREEF 109", "zip": "1102 BW", "city": "AMSTERDAM", "support_codes": 15},
{"id": 21978, "swift_code": "INGBNL2AWIA", "bank_code": "INGB", "branch_code": null, "branch": null, "bank": "ING BANK N.V.", "address": "FINANCIAL PLAZA BIJLMERDREEF 109", "zip": "1102 BW", "city": "AMSTERDAM", "support_codes": 15},
{"id": 21978, "swift_code": "INGBNL2APAS", "bank_code": "INGB", "branch_code": null, "branch": null, "bank": "ING BANK N.V.", "address": "FINANCIAL PLAZA BIJLMERDREEF 109", "zip": "1102 BW", "city": "AMSTERDAM", "support_codes": 15},
{"id": 21978, "swift_code": "INGBNL2ASMK", "bank_code": "INGB", "branch_code": null, "branch": null, "bank": "ING BANK N.V.", "address": "FINANCIAL PLAZA BIJLMERDREEF 109", "zip": "1102 BW", "city": "AMSTERDAM", "support_codes": 15},
{"id": 21978, "swift_code": "INGBNL2AXXX", "bank_code": "INGB", "branch_code": null, "branch": null, "bank": "ING BANK N.V.", "address": "FINANCIAL PLAZA BIJLMERDREEF 109", "zip": "1102 BW", "city": "AMSTERDAM", "support_codes": 15},
{"id": 21978, "swift_code": "INGBNL2ACLS", "bank_code": "INGB", "branch_code": null, "branch": null, "bank": "ING BANK N.V.", "address": "FINANCIAL PLAZA BIJLMERDREEF 109", "zip": "1102 BW", "city": "AMSTERDAM", "support_codes": 15},
{"id": 21978, "swift_code": "INGBNL2AGPC", "bank_code": "INGB", "branch_code": null, "branch": null, "bank": "ING BANK N.V.", "address": "FINANCIAL PLAZA BIJLMERDREEF 109", "zip": "1102 BW", "city": "AMSTERDAM", "support_codes": 15},
{"id": 21978, "swift_code": "INGBNL2ALMI", "bank_code": "INGB", "branch_code": null, "branch": null, "bank": "ING BANK N.V.", "address": "FINANCIAL PLAZA BIJLMERDREEF 109", "zip": "1102 BW", "city": "AMSTERDAM", "support_codes": 15},
{"id": 363039, "swift_code": "BBRUNL2XXXX", "bank_code": "BBRU", "branch_code": null, "branch": null, "bank": "ING BELGIUM NV/SA (FORMERLY BANK BRUSSELS LAMBERT SA, BREDA BRANCH)", "address": "CLAUDIUS BUILDING BIJSTER 9", "zip": "4817 HZ", "city": "BREDA"},
{"id": 24682, "swift_code": "INKBNL21XXX", "bank_code": "INKB", "branch_code": null, "branch": null, "bank": "INTERBANK N.V.", "address": "", "city": ""},
{"id": 339405, "swift_code": "BCITNL2AXXX", "bank_code": "BCIT", "branch_code": null, "branch": null, "bank": "INTESA SANPAOLO S.P.A. (FORMER SANPAOLO IMI), AMSTERDAM BRANCH, AMSTERDAM", "address": "STRAWINSKYLAAN 769", "zip": "1077 XX", "city": "AMSTERDAM", "support_codes": 15},
{"id": 176912, "swift_code": "ISBKNL2AXXX", "bank_code": "ISBK", "branch_code": null, "branch": null, "bank": "ISBANK AG, AMSTERDAM BRANCH", "address": "WTC, TOWER C LEVEL 8 STRAWINSKYLAAN 841", "zip": "1077 XX", "city": "AMSTERDAM", "support_codes": 15},
{"id": 176912, "swift_code": "ISBKNL2AAMS", "bank_code": "ISBK", "branch_code": null, "branch": null, "bank": "ISBANK AG, AMSTERDAM BRANCH", "address": "WTC, TOWER C LEVEL 8 STRAWINSKYLAAN 841", "zip": "1077 XX", "city": "AMSTERDAM", "support_codes": 15},
{"id": 316552, "swift_code": "CHASNL2XENQ", "bank_code": "CHAS", "branch_code": null, "branch": null, "bank": "JPMORGAN CHASE BANK, N.A.", "address": "ATRIUM BUILDING FLOOR 1 STRAWINSKYLAAN 3035", "zip": "1077 ZX", "city": "AMSTERDAM", "support_codes": 15},
{"id": 316552, "swift_code": "CHASNL2XKEY", "bank_code": "CHAS", "branch_code": null, "branch": null, "bank": "JPMORGAN CHASE BANK, N.A.", "address": "ATRIUM BUILDING FLOOR 1 STRAWINSKYLAAN 3035", "zip": "1077 ZX", "city": "AMSTERDAM", "support_codes": 15},
{"id": 316552, "swift_code": "CHASNL2XXXX", "bank_code": "CHAS", "branch_code": null, "branch": null, "bank": "JPMORGAN CHASE BANK, N.A.", "address": "ATRIUM BUILDING FLOOR 1 STRAWINSKYLAAN 3035", "zip": "1077 ZX", "city": "AMSTERDAM", "support_codes": 15},
{"id": 12178, "swift_code": "KASANL2AECL", "bank_code": "KASA", "branch_code": null, "branch": null, "bank": "KAS BANK N.V", "address": "SPUISTRAAT 172", "zip": "1000 DB", "city": "AMSTERDAM", "support_codes": 15},
{"id": 12178, "swift_code": "KASANL2AKTR", "bank_code": "KASA", "branch_code": null, "branch": null, "bank": "KAS BANK N.V", "address": "SPUISTRAAT 172", "zip": "1000 DB", "city": "AMSTERDAM", "support_codes": 15},
{"id": 12178, "swift_code": "KASANL2AXXX", "bank_code": "KASA", "branch_code": null, "branch": null, "bank": "KAS BANK N.V", "address": "SPUISTRAAT 172", "zip": "1000 DB", "city": "AMSTERDAM", "support_codes": 15},
{"id": 12178, "swift_code": "KASANL2AAGI", "bank_code": "KASA", "branch_code": null, "branch": null, "bank": "KAS BANK N.V", "address": "SPUISTRAAT 172", "zip": "1000 DB", "city": "AMSTERDAM", "support_codes": 15},
{"id": 12178, "swift_code": "KASANL2ACLR", "bank_code": "KASA", "branch_code": null, "branch": null, "bank": "KAS BANK N.V", "address": "SPUISTRAAT 172", "zip": "1000 DB", "city": "AMSTERDAM", "support_codes": 15},
{"id": 12178, "swift_code": "KASANL2AEXA", "bank_code": "KASA", "branch_code": null, "branch": null, "bank": "KAS BANK N.V", "address": "SPUISTRAAT 172", "zip": "1000 DB", "city": "AMSTERDAM", "support_codes": 15},
{"id": 12178, "swift_code": "KASANL2AGER", "bank_code": "KASA", "branch_code": null, "branch": null, "bank": "KAS BANK N.V", "address": "SPUISTRAAT 172", "zip": "1000 DB", "city": "AMSTERDAM", "support_codes": 15},
{"id": 12178, "swift_code": "KASANL2AS22", "bank_code": "KASA", "branch_code": null, "branch": null, "bank": "KAS BANK N.V", "address": "SPUISTRAAT 172", "zip": "1000 DB", "city": "AMSTERDAM", "support_codes": 15},
{"id": 12178, "swift_code": "KASANL2ASI2", "bank_code": "KASA", "branch_code": null, "branch": null, "bank": "KAS BANK N.V", "address": "SPUISTRAAT 172", "zip": "1000 DB", "city": "AMSTERDAM", "support_codes": 15},
{"id": 55884, "swift_code": "KREDNL2XXXX", "bank_code": "KRED", "branch_code": null, "branch": null, "bank": "KBC BANK NV NEDERLAND", "address": "WATERMANWEG 92", "zip": "3067 GG", "city": "ROTTERDAM", "support_codes": 15},
{"id": 407326, "swift_code": "KOEXNL2AXXX", "bank_code": "KOEX", "branch_code": null, "branch": null, "bank": "KOREA EXCHANGE BANK, AMSTERDAM BRANCH", "address": "DR. WILLEN DREESWEG 2", "zip": "1185 VB", "city": "AMSTELVEEN", "support_codes": 7},
{"id": 17924, "swift_code": "KNABNL2HXXX", "bank_code": "KNAB", "branch_code": null, "branch": null, "bank": "KNAB", "address": "CAPELLALAAN 25", "zip": "2132 JK", "city": "HOOFDDORP", "support_codes": 15},
{"id": 25563, "swift_code": "FVLBNL22AMS", "bank_code": "FVLB", "branch_code": null, "branch": null, "bank": "VAN LANSCHOT", "address": "HOOGE STEENWEG 29", "zip": "5211 JN", "city": "S-HERTOGENBOSCH", "support_codes": 15},
{"id": 25563, "swift_code": "FVLBNL22XXX", "bank_code": "FVLB", "branch_code": null, "branch": null, "bank": "VAN LANSCHOT", "address": "HOOGE STEENWEG 29", "zip": "5211 JN", "city": "S-HERTOGENBOSCH", "support_codes": 15},
{"id": 236325, "swift_code": "LPLNNL2FLPB", "bank_code": "LPLN", "branch_code": null, "branch": null, "bank": "LEASEPLAN CORPORATION N.V.", "address": "P.J. OUDWEG 41", "zip": "1314 AL", "city": "ERE-STAD", "support_codes": 1},
{"id": 236325, "swift_code": "LPLNNL2FXXX", "bank_code": "LPLN", "branch_code": null, "branch": null, "bank": "LEASEPLAN CORPORATION N.V.", "address": "P.J. OUDWEG 41", "zip": "1314 AL", "city": "ERE-STAD", "support_codes": 1},
{"id": 236325, "swift_code": "LPLNNL2FXXX", "bank_code": "LPLN", "branch_code": null, "branch": null, "bank": "LEASEPLAN CORPORATION N.V.", "address": "P.J. OUDWEG 41", "zip": "1314 AL", "city": "ERE-STAD", "support_codes": 1},
{"id": 229724, "swift_code": "OVBNNL22XXX", "bank_code": "OVBN", "branch_code": null, "branch": null, "bank": "LEVOB BANK N.V.", "address": "STORKSTRAAT 12", "zip": "3833 LB", "city": "LEUSDEN"},
{"id": 69327, "swift_code": "LOYDNL2ALIQ", "bank_code": "LOYD", "branch_code": null, "branch": null, "bank": "LLOYDS TSB BANK PLC.", "address": "STATENBOLWERK 1", "zip": "2011 MK", "city": "HAARLEM"},
{"id": 69327, "swift_code": "LOYDNL2AXXX", "bank_code": "LOYD", "branch_code": null, "branch": null, "bank": "LLOYDS TSB BANK PLC.", "address": "STATENBOLWERK 1", "zip": "2011 MK", "city": "HAARLEM"},
{"id": 423551, "swift_code": "LOCYNL2ANDP", "bank_code": "LOCY", "branch_code": null, "branch": null, "bank": "LOMBARD ODIER (EUROPE) S.A.", "address": "WETERINGPOORT WETERINGSCHANS 109", "zip": "1017 SB", "city": "AMSTERDAM"},
{"id": 423551, "swift_code": "LOCYNL2AXXX", "bank_code": "LOCY", "branch_code": null, "branch": null, "bank": "LOMBARD ODIER (EUROPE) S.A.", "address": "WETERINGPOORT WETERINGSCHANS 109", "zip": "1017 SB", "city": "AMSTERDAM"},
{"id": 35888, "swift_code": "ICBCNL2AXXX", "bank_code": "ICBC", "branch_code": null, "branch": null, "bank": "MEGA INTERNATIONAL COMMERCIAL BANK CO, LTD.", "address": "WORLD TRADE CENTER STRAWINSKYLAAN 1203", "zip": "1077 XX", "city": "AMSTERDAM", "support_codes": 7},
{"id": 19122, "swift_code": "MHCBNL2AXXX", "bank_code": "MHCB", "branch_code": null, "branch": null, "bank": "MIZUHO BANK NEDERLAND N.V", "address": "APOLLOLAAN 171", "zip": "1077 AS", "city": "AMSTERDAM", "support_codes": 15},
{"id": 1027, "swift_code": "NNBANL2GTRY", "bank_code": "NNBA", "branch_code": null, "branch": null, "bank": "NATIONALE-NEDERLANDEN BANK N.V.", "address": "HP E.10.038 PRINSES BEATRIXLAAN 35", "zip": "2595 AK", "city": "DEN HAAG", "support_codes": 7},
{"id": 1027, "swift_code": "NNBANL2GXXX", "bank_code": "NNBA", "branch_code": null, "branch": null, "bank": "NATIONALE-NEDERLANDEN BANK N.V.", "address": "HP E.10.038 PRINSES BEATRIXLAAN 35", "zip": "2595 AK", "city": "DEN HAAG", "support_codes": 7},
{"id": 308547, "swift_code": "FLORNL2AAMD", "bank_code": "FLOR", "branch_code": null, "branch": null, "bank": "NEDERLANDSCHE BANK (DE) N.V.", "address": "WESTEINDE 1", "zip": "1017 ZN", "city": "AMSTERDAM", "support_codes": 15},
{"id": 308547, "swift_code": "FLORNL2ACCB", "bank_code": "FLOR", "branch_code": null, "branch": null, "bank": "NEDERLANDSCHE BANK (DE) N.V.", "address": "WESTEINDE 1", "zip": "1017 ZN", "city": "AMSTERDAM", "support_codes": 15},
{"id": 308547, "swift_code": "FLORNL2AFEB", "bank_code": "FLOR", "branch_code": null, "branch": null, "bank": "NEDERLANDSCHE BANK (DE) N.V.", "address": "WESTEINDE 1", "zip": "1017 ZN", "city": "AMSTERDAM", "support_codes": 15},
{"id": 308547, "swift_code": "FLORNL2ACUR", "bank_code": "FLOR", "branch_code": null, "branch": null, "bank": "NEDERLANDSCHE BANK (DE) N.V.", "address": "WESTEINDE 1", "zip": "1017 ZN", "city": "AMSTERDAM", "support_codes": 15},
{"id": 308547, "swift_code": "FLORNL2ACAC", "bank_code": "FLOR", "branch_code": null, "branch": null, "bank": "NEDERLANDSCHE BANK (DE) N.V.", "address": "WESTEINDE 1", "zip": "1017 ZN", "city": "AMSTERDAM", "support_codes": 15},
{"id": 308547, "swift_code": "FLORNL2AFRX", "bank_code": "FLOR", "branch_code": null, "branch": null, "bank": "NEDERLANDSCHE BANK (DE) N.V.", "address": "WESTEINDE 1", "zip": "1017 ZN", "city": "AMSTERDAM", "support_codes": 15},
{"id": 308547, "swift_code": "FLORNL2ABEX", "bank_code": "FLOR", "branch_code": null, "branch": null, "bank": "NEDERLANDSCHE BANK (DE) N.V.", "address": "WESTEINDE 1", "zip": "1017 ZN", "city": "AMSTERDAM", "support_codes": 15},
{"id": 308547, "swift_code": "FLORNL2AECL", "bank_code": "FLOR", "branch_code": null, "branch": null, "bank": "NEDERLANDSCHE BANK (DE) N.V.", "address": "WESTEINDE 1", "zip": "1017 ZN", "city": "AMSTERDAM", "support_codes": 15},
{"id": 308547, "swift_code": "FLORNL2AEUR", "bank_code": "FLOR", "branch_code": null, "branch": null, "bank": "NEDERLANDSCHE BANK (DE) N.V.", "address": "WESTEINDE 1", "zip": "1017 ZN", "city": "AMSTERDAM", "support_codes": 15},
{"id": 308547, "swift_code": "FLORNL2AFEX", "bank_code": "FLOR", "branch_code": null, "branch": null, "bank": "NEDERLANDSCHE BANK (DE) N.V.", "address": "WESTEINDE 1", "zip": "1017 ZN", "city": "AMSTERDAM", "support_codes": 15},
{"id": 308547, "swift_code": "FLORNL2AGFT", "bank_code": "FLOR", "branch_code": null, "branch": null, "bank": "NEDERLANDSCHE BANK (DE) N.V.", "address": "WESTEINDE 1", "zip": "1017 ZN", "city": "AMSTERDAM", "support_codes": 15},
{"id": 308547, "swift_code": "FLORNL2AEUX", "bank_code": "FLOR", "branch_code": null, "branch": null, "bank": "NEDERLANDSCHE BANK (DE) N.V.", "address": "WESTEINDE 1", "zip": "1017 ZN", "city": "AMSTERDAM", "support_codes": 15},
{"id": 308547, "swift_code": "FLORNL2AXXX", "bank_code": "FLOR", "branch_code": null, "branch": null, "bank": "NEDERLANDSCHE BANK (DE) N.V.", "address": "WESTEINDE 1", "zip": "1017 ZN", "city": "AMSTERDAM", "support_codes": 15},
{"id": 308547, "swift_code": "FLORNL2ACON", "bank_code": "FLOR", "branch_code": null, "branch": null, "bank": "NEDERLANDSCHE BANK (DE) N.V.", "address": "WESTEINDE 1", "zip": "1017 ZN", "city": "AMSTERDAM", "support_codes": 15},
{"id": 18161, "swift_code": "NWABNL2GXXX", "bank_code": "NWAB", "branch_code": null, "branch": null, "bank": "NEDERLANDSE WATERSCHAPSBANK N.V.", "address": "ROOSEVELTPLANTSOEN 3", "zip": "2517 KR", "city": "DEN HAAG", "support_codes": 7},
{"id": 18161, "swift_code": "NWABNL2GNMC", "bank_code": "NWAB", "branch_code": null, "branch": null, "bank": "NEDERLANDSE WATERSCHAPSBANK N.V.", "address": "ROOSEVELTPLANTSOEN 3", "zip": "2517 KR", "city": "DEN HAAG", "support_codes": 7},
{"id": 23325, "swift_code": "DNIBNL2GRM1", "bank_code": "DNIB", "branch_code": null, "branch": null, "bank": "NIBC BANK N.V.", "address": "CARNEGIEPLEIN 4", "zip": "2517 KJ", "city": "DEN HAAG", "support_codes": 1},
{"id": 23325, "swift_code": "DNIBNL2GXXX", "bank_code": "DNIB", "branch_code": null, "branch": null, "bank": "NIBC BANK N.V.", "address": "CARNEGIEPLEIN 4", "zip": "2517 KJ", "city": "DEN HAAG", "support_codes": 1},
{"id": 127427, "swift_code": "BNGHNL2GXXX", "bank_code": "BNGH", "branch_code": null, "branch": null, "bank": "BNG BANK N.V.", "address": "KONINGINNEGRACHT 2", "zip": "2514 AA", "city": "DEN HAAG", "support_codes": 15},
{"id": 127427, "swift_code": "BNGHNL2GNMC", "bank_code": "BNGH", "branch_code": null, "branch": null, "bank": "BNG BANK N.V.", "address": "KONINGINNEGRACHT 2", "zip": "2514 AA", "city": "DEN HAAG", "support_codes": 15},
{"id": 246757, "swift_code": "RABONL2UXXX", "bank_code": "RABO", "branch_code": null, "branch": null, "bank": "RABOBANK NEDERLAND", "address": "CROESELAAN 18", "zip": "3500 HG", "city": "UTRECHT", "support_codes": 15},
{"id": 246757, "swift_code": "RABONL2UCLS", "bank_code": "RABO", "branch_code": null, "branch": null, "bank": "RABOBANK NEDERLAND", "address": "CROESELAAN 18", "zip": "3500 HG", "city": "UTRECHT", "support_codes": 15},
{"id": 246757, "swift_code": "RABONL2UBRO", "bank_code": "RABO", "branch_code": null, "branch": null, "bank": "RABOBANK NEDERLAND", "address": "CROESELAAN 18", "zip": "3500 HG", "city": "UTRECHT", "support_codes": 15},
{"id": 246757, "swift_code": "RABONL2UCLT", "bank_code": "RABO", "branch_code": null, "branch": null, "bank": "RABOBANK NEDERLAND", "address": "CROESELAAN 18", "zip": "3500 HG", "city": "UTRECHT", "support_codes": 15},
{"id": 246757, "swift_code": "RABONL2UIBS", "bank_code": "RABO", "branch_code": null, "branch": null, "bank": "RABOBANK NEDERLAND", "address": "CROESELAAN 18", "zip": "3500 HG", "city": "UTRECHT", "support_codes": 15},
{"id": 246757, "swift_code": "RABONL2UPBO", "bank_code": "RABO", "branch_code": null, "branch": null, "bank": "RABOBANK NEDERLAND", "address": "CROESELAAN 18", "zip": "3500 HG", "city": "UTRECHT", "support_codes": 15},
{"id": 246757, "swift_code": "RABONL2USCR", "bank_code": "RABO", "branch_code": null, "branch": null, "bank": "RABOBANK NEDERLAND", "address": "CROESELAAN 18", "zip": "3500 HG", "city": "UTRECHT", "support_codes": 15},
{"id": 246757, "swift_code": "RABONL2URSA", "bank_code": "RABO", "branch_code": null, "branch": null, "bank": "RABOBANK NEDERLAND", "address": "CROESELAAN 18", "zip": "3500 HG", "city": "UTRECHT", "support_codes": 15},
{"id": 246757, "swift_code": "RABONL2UUEF", "bank_code": "RABO", "branch_code": null, "branch": null, "bank": "RABOBANK NEDERLAND", "address": "CROESELAAN 18", "zip": "3500 HG", "city": "UTRECHT", "support_codes": 15},
{"id": 29111, "swift_code": "RBRBNL21XXX", "bank_code": "RBRB", "branch_code": null, "branch": null, "bank": "REGIOBANK", "address": "CROESELAAN 1", "zip": "3521 BJ", "city": "UTRECHT", "support_codes": 15},
{"id": 225281, "swift_code": "RGVMNL2RBON", "bank_code": "RGVM", "branch_code": null, "branch": null, "bank": "ROBECO INSTITUTIONAL ASSET MANAGEMENT B.V.", "address": "Coolsingel 120", "zip": "3011 AG", "city": "ROTTERDAM"},
{"id": 225281, "swift_code": "RGVMNL2RSAB", "bank_code": "RGVM", "branch_code": null, "branch": null, "bank": "ROBECO INSTITUTIONAL ASSET MANAGEMENT B.V.", "address": "Coolsingel 120", "zip": "3011 AG", "city": "ROTTERDAM"},
{"id": 225281, "swift_code": "RGVMNL2RLOT", "bank_code": "RGVM", "branch_code": null, "branch": null, "bank": "ROBECO INSTITUTIONAL ASSET MANAGEMENT B.V.", "address": "Coolsingel 120", "zip": "3011 AG", "city": "ROTTERDAM"},
{"id": 225281, "swift_code": "RGVMNL2RPLS", "bank_code": "RGVM", "branch_code": null, "branch": null, "bank": "ROBECO INSTITUTIONAL ASSET MANAGEMENT B.V.", "address": "Coolsingel 120", "zip": "3011 AG", "city": "ROTTERDAM"},
{"id": 225281, "swift_code": "RGVMNL2RRRU", "bank_code": "RGVM", "branch_code": null, "branch": null, "bank": "ROBECO INSTITUTIONAL ASSET MANAGEMENT B.V.", "address": "Coolsingel 120", "zip": "3011 AG", "city": "ROTTERDAM"},
{"id": 225281, "swift_code": "RGVMNL2RSYC", "bank_code": "RGVM", "branch_code": null, "branch": null, "bank": "ROBECO INSTITUTIONAL ASSET MANAGEMENT B.V.", "address": "Coolsingel 120", "zip": "3011 AG", "city": "ROTTERDAM"},
{"id": 225281, "swift_code": "RGVMNL2RCAE", "bank_code": "RGVM", "branch_code": null, "branch": null, "bank": "ROBECO INSTITUTIONAL ASSET MANAGEMENT B.V.", "address": "Coolsingel 120", "zip": "3011 AG", "city": "ROTTERDAM"},
{"id": 225281, "swift_code": "RGVMNL2RCIN", "bank_code": "RGVM", "branch_code": null, "branch": null, "bank": "ROBECO INSTITUTIONAL ASSET MANAGEMENT B.V.", "address": "Coolsingel 120", "zip": "3011 AG", "city": "ROTTERDAM"},
{"id": 225281, "swift_code": "RGVMNL2RCLL", "bank_code": "RGVM", "branch_code": null, "branch": null, "bank": "ROBECO INSTITUTIONAL ASSET MANAGEMENT B.V.", "address": "Coolsingel 120", "zip": "3011 AG", "city": "ROTTERDAM"},
{"id": 225281, "swift_code": "RGVMNL2RCOV", "bank_code": "RGVM", "branch_code": null, "branch": null, "bank": "ROBECO INSTITUTIONAL ASSET MANAGEMENT B.V.", "address": "Coolsingel 120", "zip": "3011 AG", "city": "ROTTERDAM"},
{"id": 225281, "swift_code": "RGVMNL2RFLY", "bank_code": "RGVM", "branch_code": null, "branch": null, "bank": "ROBECO INSTITUTIONAL ASSET MANAGEMENT B.V.", "address": "Coolsingel 120", "zip": "3011 AG", "city": "ROTTERDAM"},
{"id": 225281, "swift_code": "RGVMNL2RGAS", "bank_code": "RGVM", "branch_code": null, "branch": null, "bank": "ROBECO INSTITUTIONAL ASSET MANAGEMENT B.V.", "address": "Coolsingel 120", "zip": "3011 AG", "city": "ROTTERDAM"},
{"id": 225281, "swift_code": "RGVMNL2RHAU", "bank_code": "RGVM", "branch_code": null, "branch": null, "bank": "ROBECO INSTITUTIONAL ASSET MANAGEMENT B.V.", "address": "Coolsingel 120", "zip": "3011 AG", "city": "ROTTERDAM"},
{"id": 225281, "swift_code": "RGVMNL2RJEJ", "bank_code": "RGVM", "branch_code": null, "branch": null, "bank": "ROBECO INSTITUTIONAL ASSET MANAGEMENT B.V.", "address": "Coolsingel 120", "zip": "3011 AG", "city": "ROTTERDAM"},
{"id": 225281, "swift_code": "RGVMNL2RMEG", "bank_code": "RGVM", "branch_code": null, "branch": null, "bank": "ROBECO INSTITUTIONAL ASSET MANAGEMENT B.V.", "address": "Coolsingel 120", "zip": "3011 AG", "city": "ROTTERDAM"},
{"id": 225281, "swift_code": "RGVMNL2RPFA", "bank_code": "RGVM", "branch_code": null, "branch": null, "bank": "ROBECO INSTITUTIONAL ASSET MANAGEMENT B.V.", "address": "Coolsingel 120", "zip": "3011 AG", "city": "ROTTERDAM"},
{"id": 225281, "swift_code": "RGVMNL2RPIT", "bank_code": "RGVM", "branch_code": null, "branch": null, "bank": "ROBECO INSTITUTIONAL ASSET MANAGEMENT B.V.", "address": "Coolsingel 120", "zip": "3011 AG", "city": "ROTTERDAM"},
{"id": 225281, "swift_code": "RGVMNL2RRDT", "bank_code": "RGVM", "branch_code": null, "branch": null, "bank": "ROBECO INSTITUTIONAL ASSET MANAGEMENT B.V.", "address": "Coolsingel 120", "zip": "3011 AG", "city": "ROTTERDAM"},
{"id": 225281, "swift_code": "RGVMNL2RREI", "bank_code": "RGVM", "branch_code": null, "branch": null, "bank": "ROBECO INSTITUTIONAL ASSET MANAGEMENT B.V.", "address": "Coolsingel 120", "zip": "3011 AG", "city": "ROTTERDAM"},
{"id": 225281, "swift_code": "RGVMNL2RSP1", "bank_code": "RGVM", "branch_code": null, "branch": null, "bank": "ROBECO INSTITUTIONAL ASSET MANAGEMENT B.V.", "address": "Coolsingel 120", "zip": "3011 AG", "city": "ROTTERDAM"},
{"id": 225281, "swift_code": "RGVMNL2RTRA", "bank_code": "RGVM", "branch_code": null, "branch": null, "bank": "ROBECO INSTITUTIONAL ASSET MANAGEMENT B.V.", "address": "Coolsingel 120", "zip": "3011 AG", "city": "ROTTERDAM"},
{"id": 225281, "swift_code": "RGVMNL2RTRU", "bank_code": "RGVM", "branch_code": null, "branch": null, "bank": "ROBECO INSTITUTIONAL ASSET MANAGEMENT B.V.", "address": "Coolsingel 120", "zip": "3011 AG", "city": "ROTTERDAM"},
{"id": 225281, "swift_code": "RGVMNL2RHIP", "bank_code": "RGVM", "branch_code": null, "branch": null, "bank": "ROBECO INSTITUTIONAL ASSET MANAGEMENT B.V.", "address": "Coolsingel 120", "zip": "3011 AG", "city": "ROTTERDAM"},
{"id": 225281, "swift_code": "RGVMNL2RABA", "bank_code": "RGVM", "branch_code": null, "branch": null, "bank": "ROBECO INSTITUTIONAL ASSET MANAGEMENT B.V.", "address": "Coolsingel 120", "zip": "3011 AG", "city": "ROTTERDAM"},
{"id": 225281, "swift_code": "RGVMNL2RAVE", "bank_code": "RGVM", "branch_code": null, "branch": null, "bank": "ROBECO INSTITUTIONAL ASSET MANAGEMENT B.V.", "address": "Coolsingel 120", "zip": "3011 AG", "city": "ROTTERDAM"},
{"id": 225281, "swift_code": "RGVMNL2RBBK", "bank_code": "RGVM", "branch_code": null, "branch": null, "bank": "ROBECO INSTITUTIONAL ASSET MANAGEMENT B.V.", "address": "Coolsingel 120", "zip": "3011 AG", "city": "ROTTERDAM"},
{"id": 225281, "swift_code": "RGVMNL2RBLT", "bank_code": "RGVM", "branch_code": null, "branch": null, "bank": "ROBECO INSTITUTIONAL ASSET MANAGEMENT B.V.", "address": "Coolsingel 120", "zip": "3011 AG", "city": "ROTTERDAM"},
{"id": 225281, "swift_code": "RGVMNL2RBOO", "bank_code": "RGVM", "branch_code": null, "branch": null, "bank": "ROBECO INSTITUTIONAL ASSET MANAGEMENT B.V.", "address": "Coolsingel 120", "zip": "3011 AG", "city": "ROTTERDAM"},
{"id": 225281, "swift_code": "RGVMNL2RCAL", "bank_code": "RGVM", "branch_code": null, "branch": null, "bank": "ROBECO INSTITUTIONAL ASSET MANAGEMENT B.V.", "address": "Coolsingel 120", "zip": "3011 AG", "city": "ROTTERDAM"},
{"id": 225281, "swift_code": "RGVMNL2RCAT", "bank_code": "RGVM", "branch_code": null, "branch": null, "bank": "ROBECO INSTITUTIONAL ASSET MANAGEMENT B.V.", "address": "Coolsingel 120", "zip": "3011 AG", "city": "ROTTERDAM"},
{"id": 225281, "swift_code": "RGVMNL2RCLF", "bank_code": "RGVM", "branch_code": null, "branch": null, "bank": "ROBECO INSTITUTIONAL ASSET MANAGEMENT B.V.", "address": "Coolsingel 120", "zip": "3011 AG", "city": "ROTTERDAM"},
{"id": 225281, "swift_code": "RGVMNL2RCON", "bank_code": "RGVM", "branch_code": null, "branch": null, "bank": "ROBECO INSTITUTIONAL ASSET MANAGEMENT B.V.", "address": "Coolsingel 120", "zip": "3011 AG", "city": "ROTTERDAM"},
{"id": 225281, "swift_code": "RGVMNL2RCRE", "bank_code": "RGVM", "branch_code": null, "branch": null, "bank": "ROBECO INSTITUTIONAL ASSET MANAGEMENT B.V.", "address": "Coolsingel 120", "zip": "3011 AG", "city": "ROTTERDAM"},
{"id": 225281, "swift_code": "RGVMNL2RCRL", "bank_code": "RGVM", "branch_code": null, "branch": null, "bank": "ROBECO INSTITUTIONAL ASSET MANAGEMENT B.V.", "address": "Coolsingel 120", "zip": "3011 AG", "city": "ROTTERDAM"},
{"id": 225281, "swift_code": "RGVMNL2RCYG", "bank_code": "RGVM", "branch_code": null, "branch": null, "bank": "ROBECO INSTITUTIONAL ASSET MANAGEMENT B.V.", "address": "Coolsingel 120", "zip": "3011 AG", "city": "ROTTERDAM"},
{"id": 225281, "swift_code": "RGVMNL2RDAK", "bank_code": "RGVM", "branch_code": null, "branch": null, "bank": "ROBECO INSTITUTIONAL ASSET MANAGEMENT B.V.", "address": "Coolsingel 120", "zip": "3011 AG", "city": "ROTTERDAM"},
{"id": 225281, "swift_code": "RGVMNL2RDAR", "bank_code": "RGVM", "branch_code": null, "branch": null, "bank": "ROBECO INSTITUTIONAL ASSET MANAGEMENT B.V.", "address": "Coolsingel 120", "zip": "3011 AG", "city": "ROTTERDAM"},
{"id": 225281, "swift_code": "RGVMNL2RDCO", "bank_code": "RGVM", "branch_code": null, "branch": null, "bank": "ROBECO INSTITUTIONAL ASSET MANAGEMENT B.V.", "address": "Coolsingel 120", "zip": "3011 AG", "city": "ROTTERDAM"},
{"id": 225281, "swift_code": "RGVMNL2RDIE", "bank_code": "RGVM", "branch_code": null, "branch": null, "bank": "ROBECO INSTITUTIONAL ASSET MANAGEMENT B.V.", "address": "Coolsingel 120", "zip": "3011 AG", "city": "ROTTERDAM"},
{"id": 225281, "swift_code": "RGVMNL2RDIS", "bank_code": "RGVM", "branch_code": null, "branch": null, "bank": "ROBECO INSTITUTIONAL ASSET MANAGEMENT B.V.", "address": "Coolsingel 120", "zip": "3011 AG", "city": "ROTTERDAM"},
{"id": 225281, "swift_code": "RGVMNL2RDUN", "bank_code": "RGVM", "branch_code": null, "branch": null, "bank": "ROBECO INSTITUTIONAL ASSET MANAGEMENT B.V.", "address": "Coolsingel 120", "zip": "3011 AG", "city": "ROTTERDAM"},
{"id": 225281, "swift_code": "RGVMNL2RELR", "bank_code": "RGVM", "branch_code": null, "branch": null, "bank": "ROBECO INSTITUTIONAL ASSET MANAGEMENT B.V.", "address": "Coolsingel 120", "zip": "3011 AG", "city": "ROTTERDAM"},
{"id": 225281, "swift_code": "RGVMNL2REQA", "bank_code": "RGVM", "branch_code": null, "branch": null, "bank": "ROBECO INSTITUTIONAL ASSET MANAGEMENT B.V.", "address": "Coolsingel 120", "zip": "3011 AG", "city": "ROTTERDAM"},
{"id": 225281, "swift_code": "RGVMNL2RFAT", "bank_code": "RGVM", "branch_code": null, "branch": null, "bank": "ROBECO INSTITUTIONAL ASSET MANAGEMENT B.V.", "address": "Coolsingel 120", "zip": "3011 AG", "city": "ROTTERDAM"},
{"id": 225281, "swift_code": "RGVMNL2RGAZ", "bank_code": "RGVM", "branch_code": null, "branch": null, "bank": "ROBECO INSTITUTIONAL ASSET MANAGEMENT B.V.", "address": "Coolsingel 120", "zip": "3011 AG", "city": "ROTTERDAM"},
{"id": 225281, "swift_code": "RGVMNL2RGEO", "bank_code": "RGVM", "branch_code": null, "branch": null, "bank": "ROBECO INSTITUTIONAL ASSET MANAGEMENT B.V.", "address": "Coolsingel 120", "zip": "3011 AG", "city": "ROTTERDAM"},
{"id": 225281, "swift_code": "RGVMNL2RHEL", "bank_code": "RGVM", "branch_code": null, "branch": null, "bank": "ROBECO INSTITUTIONAL ASSET MANAGEMENT B.V.", "address": "Coolsingel 120", "zip": "3011 AG", "city": "ROTTERDAM"},
{"id": 225281, "swift_code": "RGVMNL2RKAM", "bank_code": "RGVM", "branch_code": null, "branch": null, "bank": "ROBECO INSTITUTIONAL ASSET MANAGEMENT B.V.", "address": "Coolsingel 120", "zip": "3011 AG", "city": "ROTTERDAM"},
{"id": 225281, "swift_code": "RGVMNL2RKAR", "bank_code": "RGVM", "branch_code": null, "branch": null, "bank": "ROBECO INSTITUTIONAL ASSET MANAGEMENT B.V.", "address": "Coolsingel 120", "zip": "3011 AG", "city": "ROTTERDAM"},
{"id": 225281, "swift_code": "RGVMNL2RKOW", "bank_code": "RGVM", "branch_code": null, "branch": null, "bank": "ROBECO INSTITUTIONAL ASSET MANAGEMENT B.V.", "address": "Coolsingel 120", "zip": "3011 AG", "city": "ROTTERDAM"},
{"id": 225281, "swift_code": "RGVMNL2RLEO", "bank_code": "RGVM", "branch_code": null, "branch": null, "bank": "ROBECO INSTITUTIONAL ASSET MANAGEMENT B.V.", "address": "Coolsingel 120", "zip": "3011 AG", "city": "ROTTERDAM"},
{"id": 225281, "swift_code": "RGVMNL2RMAP", "bank_code": "RGVM", "branch_code": null, "branch": null, "bank": "ROBECO INSTITUTIONAL ASSET MANAGEMENT B.V.", "address": "Coolsingel 120", "zip": "3011 AG", "city": "ROTTERDAM"},
{"id": 225281, "swift_code": "RGVMNL2RMIN", "bank_code": "RGVM", "branch_code": null, "branch": null, "bank": "ROBECO INSTITUTIONAL ASSET MANAGEMENT B.V.", "address": "Coolsingel 120", "zip": "3011 AG", "city": "ROTTERDAM"},
{"id": 225281, "swift_code": "RGVMNL2RMOT", "bank_code": "RGVM", "branch_code": null, "branch": null, "bank": "ROBECO INSTITUTIONAL ASSET MANAGEMENT B.V.", "address": "Coolsingel 120", "zip": "3011 AG", "city": "ROTTERDAM"},
{"id": 225281, "swift_code": "RGVMNL2RORB", "bank_code": "RGVM", "branch_code": null, "branch": null, "bank": "ROBECO INSTITUTIONAL ASSET MANAGEMENT B.V.", "address": "Coolsingel 120", "zip": "3011 AG", "city": "ROTTERDAM"},
{"id": 225281, "swift_code": "RGVMNL2RORL", "bank_code": "RGVM", "branch_code": null, "branch": null, "bank": "ROBECO INSTITUTIONAL ASSET MANAGEMENT B.V.", "address": "Coolsingel 120", "zip": "3011 AG", "city": "ROTTERDAM"},
{"id": 225281, "swift_code": "RGVMNL2RPA2", "bank_code": "RGVM", "branch_code": null, "branch": null, "bank": "ROBECO INSTITUTIONAL ASSET MANAGEMENT B.V.", "address": "Coolsingel 120", "zip": "3011 AG", "city": "ROTTERDAM"},
{"id": 225281, "swift_code": "RGVMNL2RPRO", "bank_code": "RGVM", "branch_code": null, "branch": null, "bank": "ROBECO INSTITUTIONAL ASSET MANAGEMENT B.V.", "address": "Coolsingel 120", "zip": "3011 AG", "city": "ROTTERDAM"},
{"id": 225281, "swift_code": "RGVMNL2RPVL", "bank_code": "RGVM", "branch_code": null, "branch": null, "bank": "ROBECO INSTITUTIONAL ASSET MANAGEMENT B.V.", "address": "Coolsingel 120", "zip": "3011 AG", "city": "ROTTERDAM"},
{"id": 225281, "swift_code": "RGVMNL2RRIN", "bank_code": "RGVM", "branch_code": null, "branch": null, "bank": "ROBECO INSTITUTIONAL ASSET MANAGEMENT B.V.", "address": "Coolsingel 120", "zip": "3011 AG", "city": "ROTTERDAM"},
{"id": 225281, "swift_code": "RGVMNL2RRUY", "bank_code": "RGVM", "branch_code": null, "branch": null, "bank": "ROBECO INSTITUTIONAL ASSET MANAGEMENT B.V.", "address": "Coolsingel 120", "zip": "3011 AG", "city": "ROTTERDAM"},
{"id": 225281, "swift_code": "RGVMNL2RSAL", "bank_code": "RGVM", "branch_code": null, "branch": null, "bank": "ROBECO INSTITUTIONAL ASSET MANAGEMENT B.V.", "address": "Coolsingel 120", "zip": "3011 AG", "city": "ROTTERDAM"},
{"id": 225281, "swift_code": "RGVMNL2RSFN", "bank_code": "RGVM", "branch_code": null, "branch": null, "bank": "ROBECO INSTITUTIONAL ASSET MANAGEMENT B.V.", "address": "Coolsingel 120", "zip": "3011 AG", "city": "ROTTERDAM"},
{"id": 225281, "swift_code": "RGVMNL2RSUW", "bank_code": "RGVM", "branch_code": null, "branch": null, "bank": "ROBECO INSTITUTIONAL ASSET MANAGEMENT B.V.", "address": "Coolsingel 120", "zip": "3011 AG", "city": "ROTTERDAM"},
{"id": 225281, "swift_code": "RGVMNL2RTAA", "bank_code": "RGVM", "branch_code": null, "branch": null, "bank": "ROBECO INSTITUTIONAL ASSET MANAGEMENT B.V.", "address": "Coolsingel 120", "zip": "3011 AG", "city": "ROTTERDAM"},
{"id": 225281, "swift_code": "RGVMNL2RTAN", "bank_code": "RGVM", "branch_code": null, "branch": null, "bank": "ROBECO INSTITUTIONAL ASSET MANAGEMENT B.V.", "address": "Coolsingel 120", "zip": "3011 AG", "city": "ROTTERDAM"},
{"id": 225281, "swift_code": "RGVMNL2RUMT", "bank_code": "RGVM", "branch_code": null, "branch": null, "bank": "ROBECO INSTITUTIONAL ASSET MANAGEMENT B.V.", "address": "Coolsingel 120", "zip": "3011 AG", "city": "ROTTERDAM"},
{"id": 225281, "swift_code": "RGVMNL2RVET", "bank_code": "RGVM", "branch_code": null, "branch": null, "bank": "ROBECO INSTITUTIONAL ASSET MANAGEMENT B.V.", "address": "Coolsingel 120", "zip": "3011 AG", "city": "ROTTERDAM"},
{"id": 225281, "swift_code": "RGVMNL2RVLE", "bank_code": "RGVM", "branch_code": null, "branch": null, "bank": "ROBECO INSTITUTIONAL ASSET MANAGEMENT B.V.", "address": "Coolsingel 120", "zip": "3011 AG", "city": "ROTTERDAM"},
{"id": 225281, "swift_code": "RGVMNL2RVUV", "bank_code": "RGVM", "branch_code": null, "branch": null, "bank": "ROBECO INSTITUTIONAL ASSET MANAGEMENT B.V.", "address": "Coolsingel 120", "zip": "3011 AG", "city": "ROTTERDAM"},
{"id": 225281, "swift_code": "RGVMNL2RWOO", "bank_code": "RGVM", "branch_code": null, "branch": null, "bank": "ROBECO INSTITUTIONAL ASSET MANAGEMENT B.V.", "address": "Coolsingel 120", "zip": "3011 AG", "city": "ROTTERDAM"},
{"id": 225281, "swift_code": "RGVMNL2RYUC", "bank_code": "RGVM", "branch_code": null, "branch": null, "bank": "ROBECO INSTITUTIONAL ASSET MANAGEMENT B.V.", "address": "Coolsingel 120", "zip": "3011 AG", "city": "ROTTERDAM"},
{"id": 225281, "swift_code": "RGVMNL2RPFR", "bank_code": "RGVM", "branch_code": null, "branch": null, "bank": "ROBECO INSTITUTIONAL ASSET MANAGEMENT B.V.", "address": "Coolsingel 120", "zip": "3011 AG", "city": "ROTTERDAM"},
{"id": 225281, "swift_code": "RGVMNL2RSAM", "bank_code": "RGVM", "branch_code": null, "branch": null, "bank": "ROBECO INSTITUTIONAL ASSET MANAGEMENT B.V.", "address": "Coolsingel 120", "zip": "3011 AG", "city": "ROTTERDAM"},
{"id": 225281, "swift_code": "RGVMNL2RXXX", "bank_code": "RGVM", "branch_code": null, "branch": null, "bank": "ROBECO INSTITUTIONAL ASSET MANAGEMENT B.V.", "address": "Coolsingel 120", "zip": "3011 AG", "city": "ROTTERDAM"},
{"id": 225281, "swift_code": "RGVMNL2R021", "bank_code": "RGVM", "branch_code": null, "branch": null, "bank": "ROBECO INSTITUTIONAL ASSET MANAGEMENT B.V.", "address": "Coolsingel 120", "zip": "3011 AG", "city": "ROTTERDAM"},
{"id": 225281, "swift_code": "RGVMNL2R022", "bank_code": "RGVM", "branch_code": null, "branch": null, "bank": "ROBECO INSTITUTIONAL ASSET MANAGEMENT B.V.", "address": "Coolsingel 120", "zip": "3011 AG", "city": "ROTTERDAM"},
{"id": 225281, "swift_code": "RGVMNL2R023", "bank_code": "RGVM", "branch_code": null, "branch": null, "bank": "ROBECO INSTITUTIONAL ASSET MANAGEMENT B.V.", "address": "Coolsingel 120", "zip": "3011 AG", "city": "ROTTERDAM"},
{"id": 225281, "swift_code": "RGVMNL2R024", "bank_code": "RGVM", "branch_code": null, "branch": null, "bank": "ROBECO INSTITUTIONAL ASSET MANAGEMENT B.V.", "address": "Coolsingel 120", "zip": "3011 AG", "city": "ROTTERDAM"},
{"id": 225281, "swift_code": "RGVMNL2R025", "bank_code": "RGVM", "branch_code": null, "branch": null, "bank": "ROBECO INSTITUTIONAL ASSET MANAGEMENT B.V.", "address": "Coolsingel 120", "zip": "3011 AG", "city": "ROTTERDAM"},
{"id": 225281, "swift_code": "RGVMNL2R026", "bank_code": "RGVM", "branch_code": null, "branch": null, "bank": "ROBECO INSTITUTIONAL ASSET MANAGEMENT B.V.", "address": "Coolsingel 120", "zip": "3011 AG", "city": "ROTTERDAM"},
{"id": 225281, "swift_code": "RGVMNL2R027", "bank_code": "RGVM", "branch_code": null, "branch": null, "bank": "ROBECO INSTITUTIONAL ASSET MANAGEMENT B.V.", "address": "Coolsingel 120", "zip": "3011 AG", "city": "ROTTERDAM"},
{"id": 225281, "swift_code": "RGVMNL2R028", "bank_code": "RGVM", "branch_code": null, "branch": null, "bank": "ROBECO INSTITUTIONAL ASSET MANAGEMENT B.V.", "address": "Coolsingel 120", "zip": "3011 AG", "city": "ROTTERDAM"},
{"id": 225281, "swift_code": "RGVMNL2R029", "bank_code": "RGVM", "branch_code": null, "branch": null, "bank": "ROBECO INSTITUTIONAL ASSET MANAGEMENT B.V.", "address": "Coolsingel 120", "zip": "3011 AG", "city": "ROTTERDAM"},
{"id": 225281, "swift_code": "RGVMNL2R030", "bank_code": "RGVM", "branch_code": null, "branch": null, "bank": "ROBECO INSTITUTIONAL ASSET MANAGEMENT B.V.", "address": "Coolsingel 120", "zip": "3011 AG", "city": "ROTTERDAM"},
{"id": 225281, "swift_code": "RGVMNL2R031", "bank_code": "RGVM", "branch_code": null, "branch": null, "bank": "ROBECO INSTITUTIONAL ASSET MANAGEMENT B.V.", "address": "Coolsingel 120", "zip": "3011 AG", "city": "ROTTERDAM"},
{"id": 225281, "swift_code": "RGVMNL2R032", "bank_code": "RGVM", "branch_code": null, "branch": null, "bank": "ROBECO INSTITUTIONAL ASSET MANAGEMENT B.V.", "address": "Coolsingel 120", "zip": "3011 AG", "city": "ROTTERDAM"},
{"id": 225281, "swift_code": "RGVMNL2R033", "bank_code": "RGVM", "branch_code": null, "branch": null, "bank": "ROBECO INSTITUTIONAL ASSET MANAGEMENT B.V.", "address": "Coolsingel 120", "zip": "3011 AG", "city": "ROTTERDAM"},
{"id": 225281, "swift_code": "RGVMNL2R034", "bank_code": "RGVM", "branch_code": null, "branch": null, "bank": "ROBECO INSTITUTIONAL ASSET MANAGEMENT B.V.", "address": "Coolsingel 120", "zip": "3011 AG", "city": "ROTTERDAM"},
{"id": 225281, "swift_code": "RGVMNL2R035", "bank_code": "RGVM", "branch_code": null, "branch": null, "bank": "ROBECO INSTITUTIONAL ASSET MANAGEMENT B.V.", "address": "Coolsingel 120", "zip": "3011 AG", "city": "ROTTERDAM"},
{"id": 225281, "swift_code": "RGVMNL2R036", "bank_code": "RGVM", "branch_code": null, "branch": null, "bank": "ROBECO INSTITUTIONAL ASSET MANAGEMENT B.V.", "address": "Coolsingel 120", "zip": "3011 AG", "city": "ROTTERDAM"},
{"id": 225281, "swift_code": "RGVMNL2R037", "bank_code": "RGVM", "branch_code": null, "branch": null, "bank": "ROBECO INSTITUTIONAL ASSET MANAGEMENT B.V.", "address": "Coolsingel 120", "zip": "3011 AG", "city": "ROTTERDAM"},
{"id": 225281, "swift_code": "RGVMNL2R038", "bank_code": "RGVM", "branch_code": null, "branch": null, "bank": "ROBECO INSTITUTIONAL ASSET MANAGEMENT B.V.", "address": "Coolsingel 120", "zip": "3011 AG", "city": "ROTTERDAM"},
{"id": 225281, "swift_code": "RGVMNL2R039", "bank_code": "RGVM", "branch_code": null, "branch": null, "bank": "ROBECO INSTITUTIONAL ASSET MANAGEMENT B.V.", "address": "Coolsingel 120", "zip": "3011 AG", "city": "ROTTERDAM"},
{"id": 225281, "swift_code": "RGVMNL2R040", "bank_code": "RGVM", "branch_code": null, "branch": null, "bank": "ROBECO INSTITUTIONAL ASSET MANAGEMENT B.V.", "address": "Coolsingel 120", "zip": "3011 AG", "city": "ROTTERDAM"},
{"id": 225281, "swift_code": "RGVMNL2R041", "bank_code": "RGVM", "branch_code": null, "branch": null, "bank": "ROBECO INSTITUTIONAL ASSET MANAGEMENT B.V.", "address": "Coolsingel 120", "zip": "3011 AG", "city": "ROTTERDAM"},
{"id": 225281, "swift_code": "RGVMNL2R042", "bank_code": "RGVM", "branch_code": null, "branch": null, "bank": "ROBECO INSTITUTIONAL ASSET MANAGEMENT B.V.", "address": "Coolsingel 120", "zip": "3011 AG", "city": "ROTTERDAM"},
{"id": 225281, "swift_code": "RGVMNL2R043", "bank_code": "RGVM", "branch_code": null, "branch": null, "bank": "ROBECO INSTITUTIONAL ASSET MANAGEMENT B.V.", "address": "Coolsingel 120", "zip": "3011 AG", "city": "ROTTERDAM"},
{"id": 225281, "swift_code": "RGVMNL2R044", "bank_code": "RGVM", "branch_code": null, "branch": null, "bank": "ROBECO INSTITUTIONAL ASSET MANAGEMENT B.V.", "address": "Coolsingel 120", "zip": "3011 AG", "city": "ROTTERDAM"},
{"id": 225281, "swift_code": "RGVMNL2R045", "bank_code": "RGVM", "branch_code": null, "branch": null, "bank": "ROBECO INSTITUTIONAL ASSET MANAGEMENT B.V.", "address": "Coolsingel 120", "zip": "3011 AG", "city": "ROTTERDAM"},
{"id": 225281, "swift_code": "RGVMNL2R046", "bank_code": "RGVM", "branch_code": null, "branch": null, "bank": "ROBECO INSTITUTIONAL ASSET MANAGEMENT B.V.", "address": "Coolsingel 120", "zip": "3011 AG", "city": "ROTTERDAM"},
{"id": 225281, "swift_code": "RGVMNL2R047", "bank_code": "RGVM", "branch_code": null, "branch": null, "bank": "ROBECO INSTITUTIONAL ASSET MANAGEMENT B.V.", "address": "Coolsingel 120", "zip": "3011 AG", "city": "ROTTERDAM"},
{"id": 225281, "swift_code": "RGVMNL2R048", "bank_code": "RGVM", "branch_code": null, "branch": null, "bank": "ROBECO INSTITUTIONAL ASSET MANAGEMENT B.V.", "address": "Coolsingel 120", "zip": "3011 AG", "city": "ROTTERDAM"},
{"id": 225281, "swift_code": "RGVMNL2R049", "bank_code": "RGVM", "branch_code": null, "branch": null, "bank": "ROBECO INSTITUTIONAL ASSET MANAGEMENT B.V.", "address": "Coolsingel 120", "zip": "3011 AG", "city": "ROTTERDAM"},
{"id": 225281, "swift_code": "RGVMNL2R050", "bank_code": "RGVM", "branch_code": null, "branch": null, "bank": "ROBECO INSTITUTIONAL ASSET MANAGEMENT B.V.", "address": "Coolsingel 120", "zip": "3011 AG", "city": "ROTTERDAM"},
{"id": 225281, "swift_code": "RGVMNL2R061", "bank_code": "RGVM", "branch_code": null, "branch": null, "bank": "ROBECO INSTITUTIONAL ASSET MANAGEMENT B.V.", "address": "Coolsingel 120", "zip": "3011 AG", "city": "ROTTERDAM"},
{"id": 225281, "swift_code": "RGVMNL2R062", "bank_code": "RGVM", "branch_code": null, "branch": null, "bank": "ROBECO INSTITUTIONAL ASSET MANAGEMENT B.V.", "address": "Coolsingel 120", "zip": "3011 AG", "city": "ROTTERDAM"},
{"id": 225281, "swift_code": "RGVMNL2R063", "bank_code": "RGVM", "branch_code": null, "branch": null, "bank": "ROBECO INSTITUTIONAL ASSET MANAGEMENT B.V.", "address": "Coolsingel 120", "zip": "3011 AG", "city": "ROTTERDAM"},
{"id": 225281, "swift_code": "RGVMNL2R064", "bank_code": "RGVM", "branch_code": null, "branch": null, "bank": "ROBECO INSTITUTIONAL ASSET MANAGEMENT B.V.", "address": "Coolsingel 120", "zip": "3011 AG", "city": "ROTTERDAM"},
{"id": 225281, "swift_code": "RGVMNL2R065", "bank_code": "RGVM", "branch_code": null, "branch": null, "bank": "ROBECO INSTITUTIONAL ASSET MANAGEMENT B.V.", "address": "Coolsingel 120", "zip": "3011 AG", "city": "ROTTERDAM"},
{"id": 225281, "swift_code": "RGVMNL2R066", "bank_code": "RGVM", "branch_code": null, "branch": null, "bank": "ROBECO INSTITUTIONAL ASSET MANAGEMENT B.V.", "address": "Coolsingel 120", "zip": "3011 AG", "city": "ROTTERDAM"},
{"id": 225281, "swift_code": "RGVMNL2R067", "bank_code": "RGVM", "branch_code": null, "branch": null, "bank": "ROBECO INSTITUTIONAL ASSET MANAGEMENT B.V.", "address": "Coolsingel 120", "zip": "3011 AG", "city": "ROTTERDAM"},
{"id": 225281, "swift_code": "RGVMNL2R068", "bank_code": "RGVM", "branch_code": null, "branch": null, "bank": "ROBECO INSTITUTIONAL ASSET MANAGEMENT B.V.", "address": "Coolsingel 120", "zip": "3011 AG", "city": "ROTTERDAM"},
{"id": 225281, "swift_code": "RGVMNL2R069", "bank_code": "RGVM", "branch_code": null, "branch": null, "bank": "ROBECO INSTITUTIONAL ASSET MANAGEMENT B.V.", "address": "Coolsingel 120", "zip": "3011 AG", "city": "ROTTERDAM"},
{"id": 225281, "swift_code": "RGVMNL2R070", "bank_code": "RGVM", "branch_code": null, "branch": null, "bank": "ROBECO INSTITUTIONAL ASSET MANAGEMENT B.V.", "address": "Coolsingel 120", "zip": "3011 AG", "city": "ROTTERDAM"},
{"id": 225281, "swift_code": "RGVMNL2R071", "bank_code": "RGVM", "branch_code": null, "branch": null, "bank": "ROBECO INSTITUTIONAL ASSET MANAGEMENT B.V.", "address": "Coolsingel 120", "zip": "3011 AG", "city": "ROTTERDAM"},
{"id": 225281, "swift_code": "RGVMNL2R072", "bank_code": "RGVM", "branch_code": null, "branch": null, "bank": "ROBECO INSTITUTIONAL ASSET MANAGEMENT B.V.", "address": "Coolsingel 120", "zip": "3011 AG", "city": "ROTTERDAM"},
{"id": 225281, "swift_code": "RGVMNL2R073", "bank_code": "RGVM", "branch_code": null, "branch": null, "bank": "ROBECO INSTITUTIONAL ASSET MANAGEMENT B.V.", "address": "Coolsingel 120", "zip": "3011 AG", "city": "ROTTERDAM"},
{"id": 225281, "swift_code": "RGVMNL2R074", "bank_code": "RGVM", "branch_code": null, "branch": null, "bank": "ROBECO INSTITUTIONAL ASSET MANAGEMENT B.V.", "address": "Coolsingel 120", "zip": "3011 AG", "city": "ROTTERDAM"},
{"id": 225281, "swift_code": "RGVMNL2R075", "bank_code": "RGVM", "branch_code": null, "branch": null, "bank": "ROBECO INSTITUTIONAL ASSET MANAGEMENT B.V.", "address": "Coolsingel 120", "zip": "3011 AG", "city": "ROTTERDAM"},
{"id": 225281, "swift_code": "RGVMNL2R076", "bank_code": "RGVM", "branch_code": null, "branch": null, "bank": "ROBECO INSTITUTIONAL ASSET MANAGEMENT B.V.", "address": "Coolsingel 120", "zip": "3011 AG", "city": "ROTTERDAM"},
{"id": 225281, "swift_code": "RGVMNL2R077", "bank_code": "RGVM", "branch_code": null, "branch": null, "bank": "ROBECO INSTITUTIONAL ASSET MANAGEMENT B.V.", "address": "Coolsingel 120", "zip": "3011 AG", "city": "ROTTERDAM"},
{"id": 225281, "swift_code": "RGVMNL2R078", "bank_code": "RGVM", "branch_code": null, "branch": null, "bank": "ROBECO INSTITUTIONAL ASSET MANAGEMENT B.V.", "address": "Coolsingel 120", "zip": "3011 AG", "city": "ROTTERDAM"},
{"id": 225281, "swift_code": "RGVMNL2R079", "bank_code": "RGVM", "branch_code": null, "branch": null, "bank": "ROBECO INSTITUTIONAL ASSET MANAGEMENT B.V.", "address": "Coolsingel 120", "zip": "3011 AG", "city": "ROTTERDAM"},
{"id": 225281, "swift_code": "RGVMNL2R080", "bank_code": "RGVM", "branch_code": null, "branch": null, "bank": "ROBECO INSTITUTIONAL ASSET MANAGEMENT B.V.", "address": "Coolsingel 120", "zip": "3011 AG", "city": "ROTTERDAM"},
{"id": 225281, "swift_code": "RGVMNL2R081", "bank_code": "RGVM", "branch_code": null, "branch": null, "bank": "ROBECO INSTITUTIONAL ASSET MANAGEMENT B.V.", "address": "Coolsingel 120", "zip": "3011 AG", "city": "ROTTERDAM"},
{"id": 225281, "swift_code": "RGVMNL2R082", "bank_code": "RGVM", "branch_code": null, "branch": null, "bank": "ROBECO INSTITUTIONAL ASSET MANAGEMENT B.V.", "address": "Coolsingel 120", "zip": "3011 AG", "city": "ROTTERDAM"},
{"id": 225281, "swift_code": "RGVMNL2R083", "bank_code": "RGVM", "branch_code": null, "branch": null, "bank": "ROBECO INSTITUTIONAL ASSET MANAGEMENT B.V.", "address": "Coolsingel 120", "zip": "3011 AG", "city": "ROTTERDAM"},
{"id": 225281, "swift_code": "RGVMNL2R084", "bank_code": "RGVM", "branch_code": null, "branch": null, "bank": "ROBECO INSTITUTIONAL ASSET MANAGEMENT B.V.", "address": "Coolsingel 120", "zip": "3011 AG", "city": "ROTTERDAM"},
{"id": 225281, "swift_code": "RGVMNL2R085", "bank_code": "RGVM", "branch_code": null, "branch": null, "bank": "ROBECO INSTITUTIONAL ASSET MANAGEMENT B.V.", "address": "Coolsingel 120", "zip": "3011 AG", "city": "ROTTERDAM"},
{"id": 225281, "swift_code": "RGVMNL2R086", "bank_code": "RGVM", "branch_code": null, "branch": null, "bank": "ROBECO INSTITUTIONAL ASSET MANAGEMENT B.V.", "address": "Coolsingel 120", "zip": "3011 AG", "city": "ROTTERDAM"},
{"id": 225281, "swift_code": "RGVMNL2R087", "bank_code": "RGVM", "branch_code": null, "branch": null, "bank": "ROBECO INSTITUTIONAL ASSET MANAGEMENT B.V.", "address": "Coolsingel 120", "zip": "3011 AG", "city": "ROTTERDAM"},
{"id": 225281, "swift_code": "RGVMNL2R088", "bank_code": "RGVM", "branch_code": null, "branch": null, "bank": "ROBECO INSTITUTIONAL ASSET MANAGEMENT B.V.", "address": "Coolsingel 120", "zip": "3011 AG", "city": "ROTTERDAM"},
{"id": 225281, "swift_code": "RGVMNL2R089", "bank_code": "RGVM", "branch_code": null, "branch": null, "bank": "ROBECO INSTITUTIONAL ASSET MANAGEMENT B.V.", "address": "Coolsingel 120", "zip": "3011 AG", "city": "ROTTERDAM"},
{"id": 225281, "swift_code": "RGVMNL2R090", "bank_code": "RGVM", "branch_code": null, "branch": null, "bank": "ROBECO INSTITUTIONAL ASSET MANAGEMENT B.V.", "address": "Coolsingel 120", "zip": "3011 AG", "city": "ROTTERDAM"},
{"id": 225281, "swift_code": "RGVMNL2RABL", "bank_code": "RGVM", "branch_code": null, "branch": null, "bank": "ROBECO INSTITUTIONAL ASSET MANAGEMENT B.V.", "address": "Coolsingel 120", "zip": "3011 AG", "city": "ROTTERDAM"},
{"id": 225281, "swift_code": "RGVMNL2RANA", "bank_code": "RGVM", "branch_code": null, "branch": null, "bank": "ROBECO INSTITUTIONAL ASSET MANAGEMENT B.V.", "address": "Coolsingel 120", "zip": "3011 AG", "city": "ROTTERDAM"},
{"id": 225281, "swift_code": "RGVMNL2RAS1", "bank_code": "RGVM", "branch_code": null, "branch": null, "bank": "ROBECO INSTITUTIONAL ASSET MANAGEMENT B.V.", "address": "Coolsingel 120", "zip": "3011 AG", "city": "ROTTERDAM"},
{"id": 225281, "swift_code": "RGVMNL2RASG", "bank_code": "RGVM", "branch_code": null, "branch": null, "bank": "ROBECO INSTITUTIONAL ASSET MANAGEMENT B.V.", "address": "Coolsingel 120", "zip": "3011 AG", "city": "ROTTERDAM"},
{"id": 225281, "swift_code": "RGVMNL2RASU", "bank_code": "RGVM", "branch_code": null, "branch": null, "bank": "ROBECO INSTITUTIONAL ASSET MANAGEMENT B.V.", "address": "Coolsingel 120", "zip": "3011 AG", "city": "ROTTERDAM"},
{"id": 225281, "swift_code": "RGVMNL2RATE", "bank_code": "RGVM", "branch_code": null, "branch": null, "bank": "ROBECO INSTITUTIONAL ASSET MANAGEMENT B.V.", "address": "Coolsingel 120", "zip": "3011 AG", "city": "ROTTERDAM"},
{"id": 225281, "swift_code": "RGVMNL2RAU1", "bank_code": "RGVM", "branch_code": null, "branch": null, "bank": "ROBECO INSTITUTIONAL ASSET MANAGEMENT B.V.", "address": "Coolsingel 120", "zip": "3011 AG", "city": "ROTTERDAM"},
{"id": 225281, "swift_code": "RGVMNL2RAU2", "bank_code": "RGVM", "branch_code": null, "branch": null, "bank": "ROBECO INSTITUTIONAL ASSET MANAGEMENT B.V.", "address": "Coolsingel 120", "zip": "3011 AG", "city": "ROTTERDAM"},
{"id": 225281, "swift_code": "RGVMNL2RAU3", "bank_code": "RGVM", "branch_code": null, "branch": null, "bank": "ROBECO INSTITUTIONAL ASSET MANAGEMENT B.V.", "address": "Coolsingel 120", "zip": "3011 AG", "city": "ROTTERDAM"},
{"id": 225281, "swift_code": "RGVMNL2RBAK", "bank_code": "RGVM", "branch_code": null, "branch": null, "bank": "ROBECO INSTITUTIONAL ASSET MANAGEMENT B.V.", "address": "Coolsingel 120", "zip": "3011 AG", "city": "ROTTERDAM"},
{"id": 225281, "swift_code": "RGVMNL2RBAL", "bank_code": "RGVM", "branch_code": null, "branch": null, "bank": "ROBECO INSTITUTIONAL ASSET MANAGEMENT B.V.", "address": "Coolsingel 120", "zip": "3011 AG", "city": "ROTTERDAM"},
{"id": 225281, "swift_code": "RGVMNL2RBLA", "bank_code": "RGVM", "branch_code": null, "branch": null, "bank": "ROBECO INSTITUTIONAL ASSET MANAGEMENT B.V.", "address": "Coolsingel 120", "zip": "3011 AG", "city": "ROTTERDAM"},
{"id": 225281, "swift_code": "RGVMNL2RBPD", "bank_code": "RGVM", "branch_code": null, "branch": null, "bank": "ROBECO INSTITUTIONAL ASSET MANAGEMENT B.V.", "address": "Coolsingel 120", "zip": "3011 AG", "city": "ROTTERDAM"},
{"id": 225281, "swift_code": "RGVMNL2RCCE", "bank_code": "RGVM", "branch_code": null, "branch": null, "bank": "ROBECO INSTITUTIONAL ASSET MANAGEMENT B.V.", "address": "Coolsingel 120", "zip": "3011 AG", "city": "ROTTERDAM"},
{"id": 225281, "swift_code": "RGVMNL2RCCO", "bank_code": "RGVM", "branch_code": null, "branch": null, "bank": "ROBECO INSTITUTIONAL ASSET MANAGEMENT B.V.", "address": "Coolsingel 120", "zip": "3011 AG", "city": "ROTTERDAM"},
{"id": 225281, "swift_code": "RGVMNL2RCDE", "bank_code": "RGVM", "branch_code": null, "branch": null, "bank": "ROBECO INSTITUTIONAL ASSET MANAGEMENT B.V.", "address": "Coolsingel 120", "zip": "3011 AG", "city": "ROTTERDAM"},
{"id": 225281, "swift_code": "RGVMNL2RCE1", "bank_code": "RGVM", "branch_code": null, "branch": null, "bank": "ROBECO INSTITUTIONAL ASSET MANAGEMENT B.V.", "address": "Coolsingel 120", "zip": "3011 AG", "city": "ROTTERDAM"},
{"id": 225281, "swift_code": "RGVMNL2RCE7", "bank_code": "RGVM", "branch_code": null, "branch": null, "bank": "ROBECO INSTITUTIONAL ASSET MANAGEMENT B.V.", "address": "Coolsingel 120", "zip": "3011 AG", "city": "ROTTERDAM"},
{"id": 225281, "swift_code": "RGVMNL2RCE8", "bank_code": "RGVM", "branch_code": null, "branch": null, "bank": "ROBECO INSTITUTIONAL ASSET MANAGEMENT B.V.", "address": "Coolsingel 120", "zip": "3011 AG", "city": "ROTTERDAM"},
{"id": 225281, "swift_code": "RGVMNL2RCEH", "bank_code": "RGVM", "branch_code": null, "branch": null, "bank": "ROBECO INSTITUTIONAL ASSET MANAGEMENT B.V.", "address": "Coolsingel 120", "zip": "3011 AG", "city": "ROTTERDAM"},
{"id": 225281, "swift_code": "RGVMNL2RCGI", "bank_code": "RGVM", "branch_code": null, "branch": null, "bank": "ROBECO INSTITUTIONAL ASSET MANAGEMENT B.V.", "address": "Coolsingel 120", "zip": "3011 AG", "city": "ROTTERDAM"},
{"id": 225281, "swift_code": "RGVMNL2RCOB", "bank_code": "RGVM", "branch_code": null, "branch": null, "bank": "ROBECO INSTITUTIONAL ASSET MANAGEMENT B.V.", "address": "Coolsingel 120", "zip": "3011 AG", "city": "ROTTERDAM"},
{"id": 225281, "swift_code": "RGVMNL2RCOO", "bank_code": "RGVM", "branch_code": null, "branch": null, "bank": "ROBECO INSTITUTIONAL ASSET MANAGEMENT B.V.", "address": "Coolsingel 120", "zip": "3011 AG", "city": "ROTTERDAM"},
{"id": 225281, "swift_code": "RGVMNL2RCPE", "bank_code": "RGVM", "branch_code": null, "branch": null, "bank": "ROBECO INSTITUTIONAL ASSET MANAGEMENT B.V.", "address": "Coolsingel 120", "zip": "3011 AG", "city": "ROTTERDAM"},
{"id": 225281, "swift_code": "RGVMNL2RCUB", "bank_code": "RGVM", "branch_code": null, "branch": null, "bank": "ROBECO INSTITUTIONAL ASSET MANAGEMENT B.V.", "address": "Coolsingel 120", "zip": "3011 AG", "city": "ROTTERDAM"},
{"id": 225281, "swift_code": "RGVMNL2RCUU", "bank_code": "RGVM", "branch_code": null, "branch": null, "bank": "ROBECO INSTITUTIONAL ASSET MANAGEMENT B.V.", "address": "Coolsingel 120", "zip": "3011 AG", "city": "ROTTERDAM"},
{"id": 225281, "swift_code": "RGVMNL2RDEF", "bank_code": "RGVM", "branch_code": null, "branch": null, "bank": "ROBECO INSTITUTIONAL ASSET MANAGEMENT B.V.", "address": "Coolsingel 120", "zip": "3011 AG", "city": "ROTTERDAM"},
{"id": 225281, "swift_code": "RGVMNL2RDHC", "bank_code": "RGVM", "branch_code": null, "branch": null, "bank": "ROBECO INSTITUTIONAL ASSET MANAGEMENT B.V.", "address": "Coolsingel 120", "zip": "3011 AG", "city": "ROTTERDAM"},
{"id": 225281, "swift_code": "RGVMNL2RDNE", "bank_code": "RGVM", "branch_code": null, "branch": null, "bank": "ROBECO INSTITUTIONAL ASSET MANAGEMENT B.V.", "address": "Coolsingel 120", "zip": "3011 AG", "city": "ROTTERDAM"},
{"id": 225281, "swift_code": "RGVMNL2RDOM", "bank_code": "RGVM", "branch_code": null, "branch": null, "bank": "ROBECO INSTITUTIONAL ASSET MANAGEMENT B.V.", "address": "Coolsingel 120", "zip": "3011 AG", "city": "ROTTERDAM"},
{"id": 225281, "swift_code": "RGVMNL2RDST", "bank_code": "RGVM", "branch_code": null, "branch": null, "bank": "ROBECO INSTITUTIONAL ASSET MANAGEMENT B.V.", "address": "Coolsingel 120", "zip": "3011 AG", "city": "ROTTERDAM"},
{"id": 225281, "swift_code": "RGVMNL2RDUU", "bank_code": "RGVM", "branch_code": null, "branch": null, "bank": "ROBECO INSTITUTIONAL ASSET MANAGEMENT B.V.", "address": "Coolsingel 120", "zip": "3011 AG", "city": "ROTTERDAM"},
{"id": 225281, "swift_code": "RGVMNL2RDYN", "bank_code": "RGVM", "branch_code": null, "branch": null, "bank": "ROBECO INSTITUTIONAL ASSET MANAGEMENT B.V.", "address": "Coolsingel 120", "zip": "3011 AG", "city": "ROTTERDAM"},
{"id": 225281, "swift_code": "RGVMNL2RE13", "bank_code": "RGVM", "branch_code": null, "branch": null, "bank": "ROBECO INSTITUTIONAL ASSET MANAGEMENT B.V.", "address": "Coolsingel 120", "zip": "3011 AG", "city": "ROTTERDAM"},
{"id": 225281, "swift_code": "RGVMNL2REBN", "bank_code": "RGVM", "branch_code": null, "branch": null, "bank": "ROBECO INSTITUTIONAL ASSET MANAGEMENT B.V.", "address": "Coolsingel 120", "zip": "3011 AG", "city": "ROTTERDAM"},
{"id": 225281, "swift_code": "RGVMNL2REC1", "bank_code": "RGVM", "branch_code": null, "branch": null, "bank": "ROBECO INSTITUTIONAL ASSET MANAGEMENT B.V.", "address": "Coolsingel 120", "zip": "3011 AG", "city": "ROTTERDAM"},
{"id": 225281, "swift_code": "RGVMNL2REC7", "bank_code": "RGVM", "branch_code": null, "branch": null, "bank": "ROBECO INSTITUTIONAL ASSET MANAGEMENT B.V.", "address": "Coolsingel 120", "zip": "3011 AG", "city": "ROTTERDAM"},
{"id": 225281, "swift_code": "RGVMNL2REC8", "bank_code": "RGVM", "branch_code": null, "branch": null, "bank": "ROBECO INSTITUTIONAL ASSET MANAGEMENT B.V.", "address": "Coolsingel 120", "zip": "3011 AG", "city": "ROTTERDAM"},
{"id": 225281, "swift_code": "RGVMNL2RECB", "bank_code": "RGVM", "branch_code": null, "branch": null, "bank": "ROBECO INSTITUTIONAL ASSET MANAGEMENT B.V.", "address": "Coolsingel 120", "zip": "3011 AG", "city": "ROTTERDAM"},
{"id": 225281, "swift_code": "RGVMNL2REFG", "bank_code": "RGVM", "branch_code": null, "branch": null, "bank": "ROBECO INSTITUTIONAL ASSET MANAGEMENT B.V.", "address": "Coolsingel 120", "zip": "3011 AG", "city": "ROTTERDAM"},
{"id": 225281, "swift_code": "RGVMNL2REGB", "bank_code": "RGVM", "branch_code": null, "branch": null, "bank": "ROBECO INSTITUTIONAL ASSET MANAGEMENT B.V.", "address": "Coolsingel 120", "zip": "3011 AG", "city": "ROTTERDAM"},
{"id": 225281, "swift_code": "RGVMNL2RELD", "bank_code": "RGVM", "branch_code": null, "branch": null, "bank": "ROBECO INSTITUTIONAL ASSET MANAGEMENT B.V.", "address": "Coolsingel 120", "zip": "3011 AG", "city": "ROTTERDAM"},
{"id": 225281, "swift_code": "RGVMNL2REM1", "bank_code": "RGVM", "branch_code": null, "branch": null, "bank": "ROBECO INSTITUTIONAL ASSET MANAGEMENT B.V.", "address": "Coolsingel 120", "zip": "3011 AG", "city": "ROTTERDAM"},
{"id": 225281, "swift_code": "RGVMNL2REMN", "bank_code": "RGVM", "branch_code": null, "branch": null, "bank": "ROBECO INSTITUTIONAL ASSET MANAGEMENT B.V.", "address": "Coolsingel 120", "zip": "3011 AG", "city": "ROTTERDAM"},
{"id": 225281, "swift_code": "RGVMNL2REMQ", "bank_code": "RGVM", "branch_code": null, "branch": null, "bank": "ROBECO INSTITUTIONAL ASSET MANAGEMENT B.V.", "address": "Coolsingel 120", "zip": "3011 AG", "city": "ROTTERDAM"},
{"id": 225281, "swift_code": "RGVMNL2REMS", "bank_code": "RGVM", "branch_code": null, "branch": null, "bank": "ROBECO INSTITUTIONAL ASSET MANAGEMENT B.V.", "address": "Coolsingel 120", "zip": "3011 AG", "city": "ROTTERDAM"},
{"id": 225281, "swift_code": "RGVMNL2REMT", "bank_code": "RGVM", "branch_code": null, "branch": null, "bank": "ROBECO INSTITUTIONAL ASSET MANAGEMENT B.V.", "address": "Coolsingel 120", "zip": "3011 AG", "city": "ROTTERDAM"},
{"id": 225281, "swift_code": "RGVMNL2REMV", "bank_code": "RGVM", "branch_code": null, "branch": null, "bank": "ROBECO INSTITUTIONAL ASSET MANAGEMENT B.V.", "address": "Coolsingel 120", "zip": "3011 AG", "city": "ROTTERDAM"},
{"id": 225281, "swift_code": "RGVMNL2RERA", "bank_code": "RGVM", "branch_code": null, "branch": null, "bank": "ROBECO INSTITUTIONAL ASSET MANAGEMENT B.V.", "address": "Coolsingel 120", "zip": "3011 AG", "city": "ROTTERDAM"},
{"id": 225281, "swift_code": "RGVMNL2RESC", "bank_code": "RGVM", "branch_code": null, "branch": null, "bank": "ROBECO INSTITUTIONAL ASSET MANAGEMENT B.V.", "address": "Coolsingel 120", "zip": "3011 AG", "city": "ROTTERDAM"},
{"id": 225281, "swift_code": "RGVMNL2REUN", "bank_code": "RGVM", "branch_code": null, "branch": null, "bank": "ROBECO INSTITUTIONAL ASSET MANAGEMENT B.V.", "address": "Coolsingel 120", "zip": "3011 AG", "city": "ROTTERDAM"},
{"id": 225281, "swift_code": "RGVMNL2REVO", "bank_code": "RGVM", "branch_code": null, "branch": null, "bank": "ROBECO INSTITUTIONAL ASSET MANAGEMENT B.V.", "address": "Coolsingel 120", "zip": "3011 AG", "city": "ROTTERDAM"},
{"id": 225281, "swift_code": "RGVMNL2REXC", "bank_code": "RGVM", "branch_code": null, "branch": null, "bank": "ROBECO INSTITUTIONAL ASSET MANAGEMENT B.V.", "address": "Coolsingel 120", "zip": "3011 AG", "city": "ROTTERDAM"},
{"id": 225281, "swift_code": "RGVMNL2RFCD", "bank_code": "RGVM", "branch_code": null, "branch": null, "bank": "ROBECO INSTITUTIONAL ASSET MANAGEMENT B.V.", "address": "Coolsingel 120", "zip": "3011 AG", "city": "ROTTERDAM"},
{"id": 225281, "swift_code": "RGVMNL2RFCI", "bank_code": "RGVM", "branch_code": null, "branch": null, "bank": "ROBECO INSTITUTIONAL ASSET MANAGEMENT B.V.", "address": "Coolsingel 120", "zip": "3011 AG", "city": "ROTTERDAM"},
{"id": 225281, "swift_code": "RGVMNL2RFEU", "bank_code": "RGVM", "branch_code": null, "branch": null, "bank": "ROBECO INSTITUTIONAL ASSET MANAGEMENT B.V.", "address": "Coolsingel 120", "zip": "3011 AG", "city": "ROTTERDAM"},
{"id": 225281, "swift_code": "RGVMNL2RFIB", "bank_code": "RGVM", "branch_code": null, "branch": null, "bank": "ROBECO INSTITUTIONAL ASSET MANAGEMENT B.V.", "address": "Coolsingel 120", "zip": "3011 AG", "city": "ROTTERDAM"},
{"id": 225281, "swift_code": "RGVMNL2RFIE", "bank_code": "RGVM", "branch_code": null, "branch": null, "bank": "ROBECO INSTITUTIONAL ASSET MANAGEMENT B.V.", "address": "Coolsingel 120", "zip": "3011 AG", "city": "ROTTERDAM"},
{"id": 225281, "swift_code": "RGVMNL2RFII", "bank_code": "RGVM", "branch_code": null, "branch": null, "bank": "ROBECO INSTITUTIONAL ASSET MANAGEMENT B.V.", "address": "Coolsingel 120", "zip": "3011 AG", "city": "ROTTERDAM"},
{"id": 225281, "swift_code": "RGVMNL2RFIP", "bank_code": "RGVM", "branch_code": null, "branch": null, "bank": "ROBECO INSTITUTIONAL ASSET MANAGEMENT B.V.", "address": "Coolsingel 120", "zip": "3011 AG", "city": "ROTTERDAM"},
{"id": 225281, "swift_code": "RGVMNL2RGCE", "bank_code": "RGVM", "branch_code": null, "branch": null, "bank": "ROBECO INSTITUTIONAL ASSET MANAGEMENT B.V.", "address": "Coolsingel 120", "zip": "3011 AG", "city": "ROTTERDAM"},
{"id": 225281, "swift_code": "RGVMNL2RGGT", "bank_code": "RGVM", "branch_code": null, "branch": null, "bank": "ROBECO INSTITUTIONAL ASSET MANAGEMENT B.V.", "address": "Coolsingel 120", "zip": "3011 AG", "city": "ROTTERDAM"},
{"id": 225281, "swift_code": "RGVMNL2RGLV", "bank_code": "RGVM", "branch_code": null, "branch": null, "bank": "ROBECO INSTITUTIONAL ASSET MANAGEMENT B.V.", "address": "Coolsingel 120", "zip": "3011 AG", "city": "ROTTERDAM"},
{"id": 225281, "swift_code": "RGVMNL2RGSR", "bank_code": "RGVM", "branch_code": null, "branch": null, "bank": "ROBECO INSTITUTIONAL ASSET MANAGEMENT B.V.", "address": "Coolsingel 120", "zip": "3011 AG", "city": "ROTTERDAM"},
{"id": 225281, "swift_code": "RGVMNL2RGTA", "bank_code": "RGVM", "branch_code": null, "branch": null, "bank": "ROBECO INSTITUTIONAL ASSET MANAGEMENT B.V.", "address": "Coolsingel 120", "zip": "3011 AG", "city": "ROTTERDAM"},
{"id": 225281, "swift_code": "RGVMNL2RH13", "bank_code": "RGVM", "branch_code": null, "branch": null, "bank": "ROBECO INSTITUTIONAL ASSET MANAGEMENT B.V.", "address": "Coolsingel 120", "zip": "3011 AG", "city": "ROTTERDAM"},
{"id": 225281, "swift_code": "RGVMNL2RHB0", "bank_code": "RGVM", "branch_code": null, "branch": null, "bank": "ROBECO INSTITUTIONAL ASSET MANAGEMENT B.V.", "address": "Coolsingel 120", "zip": "3011 AG", "city": "ROTTERDAM"},
{"id": 225281, "swift_code": "RGVMNL2RHBH", "bank_code": "RGVM", "branch_code": null, "branch": null, "bank": "ROBECO INSTITUTIONAL ASSET MANAGEMENT B.V.", "address": "Coolsingel 120", "zip": "3011 AG", "city": "ROTTERDAM"},
{"id": 225281, "swift_code": "RGVMNL2RHBU", "bank_code": "RGVM", "branch_code": null, "branch": null, "bank": "ROBECO INSTITUTIONAL ASSET MANAGEMENT B.V.", "address": "Coolsingel 120", "zip": "3011 AG", "city": "ROTTERDAM"},
{"id": 225281, "swift_code": "RGVMNL2RHBZ", "bank_code": "RGVM", "branch_code": null, "branch": null, "bank": "ROBECO INSTITUTIONAL ASSET MANAGEMENT B.V.", "address": "Coolsingel 120", "zip": "3011 AG", "city": "ROTTERDAM"},
{"id": 225281, "swift_code": "RGVMNL2RHCI", "bank_code": "RGVM", "branch_code": null, "branch": null, "bank": "ROBECO INSTITUTIONAL ASSET MANAGEMENT B.V.", "address": "Coolsingel 120", "zip": "3011 AG", "city": "ROTTERDAM"},
{"id": 225281, "swift_code": "RGVMNL2RHIF", "bank_code": "RGVM", "branch_code": null, "branch": null, "bank": "ROBECO INSTITUTIONAL ASSET MANAGEMENT B.V.", "address": "Coolsingel 120", "zip": "3011 AG", "city": "ROTTERDAM"},
{"id": 225281, "swift_code": "RGVMNL2RHON", "bank_code": "RGVM", "branch_code": null, "branch": null, "bank": "ROBECO INSTITUTIONAL ASSET MANAGEMENT B.V.", "address": "Coolsingel 120", "zip": "3011 AG", "city": "ROTTERDAM"},
{"id": 225281, "swift_code": "RGVMNL2RHY0", "bank_code": "RGVM", "branch_code": null, "branch": null, "bank": "ROBECO INSTITUTIONAL ASSET MANAGEMENT B.V.", "address": "Coolsingel 120", "zip": "3011 AG", "city": "ROTTERDAM"},
{"id": 225281, "swift_code": "RGVMNL2RHYA", "bank_code": "RGVM", "branch_code": null, "branch": null, "bank": "ROBECO INSTITUTIONAL ASSET MANAGEMENT B.V.", "address": "Coolsingel 120", "zip": "3011 AG", "city": "ROTTERDAM"},
{"id": 225281, "swift_code": "RGVMNL2RIEH", "bank_code": "RGVM", "branch_code": null, "branch": null, "bank": "ROBECO INSTITUTIONAL ASSET MANAGEMENT B.V.", "address": "Coolsingel 120", "zip": "3011 AG", "city": "ROTTERDAM"},
{"id": 225281, "swift_code": "RGVMNL2RIFD", "bank_code": "RGVM", "branch_code": null, "branch": null, "bank": "ROBECO INSTITUTIONAL ASSET MANAGEMENT B.V.", "address": "Coolsingel 120", "zip": "3011 AG", "city": "ROTTERDAM"},
{"id": 225281, "swift_code": "RGVMNL2RIGB", "bank_code": "RGVM", "branch_code": null, "branch": null, "bank": "ROBECO INSTITUTIONAL ASSET MANAGEMENT B.V.", "address": "Coolsingel 120", "zip": "3011 AG", "city": "ROTTERDAM"},
{"id": 225281, "swift_code": "RGVMNL2RIGC", "bank_code": "RGVM", "branch_code": null, "branch": null, "bank": "ROBECO INSTITUTIONAL ASSET MANAGEMENT B.V.", "address": "Coolsingel 120", "zip": "3011 AG", "city": "ROTTERDAM"},
{"id": 225281, "swift_code": "RGVMNL2RIGH", "bank_code": "RGVM", "branch_code": null, "branch": null, "bank": "ROBECO INSTITUTIONAL ASSET MANAGEMENT B.V.", "address": "Coolsingel 120", "zip": "3011 AG", "city": "ROTTERDAM"},
{"id": 225281, "swift_code": "RGVMNL2RIH1", "bank_code": "RGVM", "branch_code": null, "branch": null, "bank": "ROBECO INSTITUTIONAL ASSET MANAGEMENT B.V.", "address": "Coolsingel 120", "zip": "3011 AG", "city": "ROTTERDAM"},
{"id": 225281, "swift_code": "RGVMNL2RINF", "bank_code": "RGVM", "branch_code": null, "branch": null, "bank": "ROBECO INSTITUTIONAL ASSET MANAGEMENT B.V.", "address": "Coolsingel 120", "zip": "3011 AG", "city": "ROTTERDAM"},
{"id": 225281, "swift_code": "RGVMNL2RIUI", "bank_code": "RGVM", "branch_code": null, "branch": null, "bank": "ROBECO INSTITUTIONAL ASSET MANAGEMENT B.V.", "address": "Coolsingel 120", "zip": "3011 AG", "city": "ROTTERDAM"},
{"id": 225281, "swift_code": "RGVMNL2RKPL", "bank_code": "RGVM", "branch_code": null, "branch": null, "bank": "ROBECO INSTITUTIONAL ASSET MANAGEMENT B.V.", "address": "Coolsingel 120", "zip": "3011 AG", "city": "ROTTERDAM"},
{"id": 225281, "swift_code": "RGVMNL2RLAT", "bank_code": "RGVM", "branch_code": null, "branch": null, "bank": "ROBECO INSTITUTIONAL ASSET MANAGEMENT B.V.", "address": "Coolsingel 120", "zip": "3011 AG", "city": "ROTTERDAM"},
{"id": 225281, "swift_code": "RGVMNL2RLCD", "bank_code": "RGVM", "branch_code": null, "branch": null, "bank": "ROBECO INSTITUTIONAL ASSET MANAGEMENT B.V.", "address": "Coolsingel 120", "zip": "3011 AG", "city": "ROTTERDAM"},
{"id": 225281, "swift_code": "RGVMNL2RLCE", "bank_code": "RGVM", "branch_code": null, "branch": null, "bank": "ROBECO INSTITUTIONAL ASSET MANAGEMENT B.V.", "address": "Coolsingel 120", "zip": "3011 AG", "city": "ROTTERDAM"},
{"id": 225281, "swift_code": "RGVMNL2RLCX", "bank_code": "RGVM", "branch_code": null, "branch": null, "bank": "ROBECO INSTITUTIONAL ASSET MANAGEMENT B.V.", "address": "Coolsingel 120", "zip": "3011 AG", "city": "ROTTERDAM"},
{"id": 225281, "swift_code": "RGVMNL2RLFH", "bank_code": "RGVM", "branch_code": null, "branch": null, "bank": "ROBECO INSTITUTIONAL ASSET MANAGEMENT B.V.", "address": "Coolsingel 120", "zip": "3011 AG", "city": "ROTTERDAM"},
{"id": 225281, "swift_code": "RGVMNL2RLGH", "bank_code": "RGVM", "branch_code": null, "branch": null, "bank": "ROBECO INSTITUTIONAL ASSET MANAGEMENT B.V.", "address": "Coolsingel 120", "zip": "3011 AG", "city": "ROTTERDAM"},
{"id": 225281, "swift_code": "RGVMNL2RLUD", "bank_code": "RGVM", "branch_code": null, "branch": null, "bank": "ROBECO INSTITUTIONAL ASSET MANAGEMENT B.V.", "address": "Coolsingel 120", "zip": "3011 AG", "city": "ROTTERDAM"},
{"id": 225281, "swift_code": "RGVMNL2RLUF", "bank_code": "RGVM", "branch_code": null, "branch": null, "bank": "ROBECO INSTITUTIONAL ASSET MANAGEMENT B.V.", "address": "Coolsingel 120", "zip": "3011 AG", "city": "ROTTERDAM"},
{"id": 225281, "swift_code": "RGVMNL2RMEN", "bank_code": "RGVM", "branch_code": null, "branch": null, "bank": "ROBECO INSTITUTIONAL ASSET MANAGEMENT B.V.", "address": "Coolsingel 120", "zip": "3011 AG", "city": "ROTTERDAM"},
{"id": 225281, "swift_code": "RGVMNL2RMOM", "bank_code": "RGVM", "branch_code": null, "branch": null, "bank": "ROBECO INSTITUTIONAL ASSET MANAGEMENT B.V.", "address": "Coolsingel 120", "zip": "3011 AG", "city": "ROTTERDAM"},
{"id": 225281, "swift_code": "RGVMNL2RNEM", "bank_code": "RGVM", "branch_code": null, "branch": null, "bank": "ROBECO INSTITUTIONAL ASSET MANAGEMENT B.V.", "address": "Coolsingel 120", "zip": "3011 AG", "city": "ROTTERDAM"},
{"id": 225281, "swift_code": "RGVMNL2RNEW", "bank_code": "RGVM", "branch_code": null, "branch": null, "bank": "ROBECO INSTITUTIONAL ASSET MANAGEMENT B.V.", "address": "Coolsingel 120", "zip": "3011 AG", "city": "ROTTERDAM"},
{"id": 225281, "swift_code": "RGVMNL2RNSE", "bank_code": "RGVM", "branch_code": null, "branch": null, "bank": "ROBECO INSTITUTIONAL ASSET MANAGEMENT B.V.", "address": "Coolsingel 120", "zip": "3011 AG", "city": "ROTTERDAM"},
{"id": 225281, "swift_code": "RGVMNL2ROBE", "bank_code": "RGVM", "branch_code": null, "branch": null, "bank": "ROBECO INSTITUTIONAL ASSET MANAGEMENT B.V.", "address": "Coolsingel 120", "zip": "3011 AG", "city": "ROTTERDAM"},
{"id": 225281, "swift_code": "RGVMNL2ROFF", "bank_code": "RGVM", "branch_code": null, "branch": null, "bank": "ROBECO INSTITUTIONAL ASSET MANAGEMENT B.V.", "address": "Coolsingel 120", "zip": "3011 AG", "city": "ROTTERDAM"},
{"id": 225281, "swift_code": "RGVMNL2ROIU", "bank_code": "RGVM", "branch_code": null, "branch": null, "bank": "ROBECO INSTITUTIONAL ASSET MANAGEMENT B.V.", "address": "Coolsingel 120", "zip": "3011 AG", "city": "ROTTERDAM"},
{"id": 225281, "swift_code": "RGVMNL2ROMH", "bank_code": "RGVM", "branch_code": null, "branch": null, "bank": "ROBECO INSTITUTIONAL ASSET MANAGEMENT B.V.", "address": "Coolsingel 120", "zip": "3011 AG", "city": "ROTTERDAM"},
{"id": 225281, "swift_code": "RGVMNL2ROMI", "bank_code": "RGVM", "branch_code": null, "branch": null, "bank": "ROBECO INSTITUTIONAL ASSET MANAGEMENT B.V.", "address": "Coolsingel 120", "zip": "3011 AG", "city": "ROTTERDAM"},
{"id": 225281, "swift_code": "RGVMNL2RONY", "bank_code": "RGVM", "branch_code": null, "branch": null, "bank": "ROBECO INSTITUTIONAL ASSET MANAGEMENT B.V.", "address": "Coolsingel 120", "zip": "3011 AG", "city": "ROTTERDAM"},
{"id": 225281, "swift_code": "RGVMNL2ROR2", "bank_code": "RGVM", "branch_code": null, "branch": null, "bank": "ROBECO INSTITUTIONAL ASSET MANAGEMENT B.V.", "address": "Coolsingel 120", "zip": "3011 AG", "city": "ROTTERDAM"},
{"id": 225281, "swift_code": "RGVMNL2ROR3", "bank_code": "RGVM", "branch_code": null, "branch": null, "bank": "ROBECO INSTITUTIONAL ASSET MANAGEMENT B.V.", "address": "Coolsingel 120", "zip": "3011 AG", "city": "ROTTERDAM"},
{"id": 225281, "swift_code": "RGVMNL2ROR4", "bank_code": "RGVM", "branch_code": null, "branch": null, "bank": "ROBECO INSTITUTIONAL ASSET MANAGEMENT B.V.", "address": "Coolsingel 120", "zip": "3011 AG", "city": "ROTTERDAM"},
{"id": 225281, "swift_code": "RGVMNL2RP10", "bank_code": "RGVM", "branch_code": null, "branch": null, "bank": "ROBECO INSTITUTIONAL ASSET MANAGEMENT B.V.", "address": "Coolsingel 120", "zip": "3011 AG", "city": "ROTTERDAM"},
{"id": 225281, "swift_code": "RGVMNL2RP11", "bank_code": "RGVM", "branch_code": null, "branch": null, "bank": "ROBECO INSTITUTIONAL ASSET MANAGEMENT B.V.", "address": "Coolsingel 120", "zip": "3011 AG", "city": "ROTTERDAM"},
{"id": 225281, "swift_code": "RGVMNL2RP12", "bank_code": "RGVM", "branch_code": null, "branch": null, "bank": "ROBECO INSTITUTIONAL ASSET MANAGEMENT B.V.", "address": "Coolsingel 120", "zip": "3011 AG", "city": "ROTTERDAM"},
{"id": 225281, "swift_code": "RGVMNL2RP13", "bank_code": "RGVM", "branch_code": null, "branch": null, "bank": "ROBECO INSTITUTIONAL ASSET MANAGEMENT B.V.", "address": "Coolsingel 120", "zip": "3011 AG", "city": "ROTTERDAM"},
{"id": 225281, "swift_code": "RGVMNL2RP14", "bank_code": "RGVM", "branch_code": null, "branch": null, "bank": "ROBECO INSTITUTIONAL ASSET MANAGEMENT B.V.", "address": "Coolsingel 120", "zip": "3011 AG", "city": "ROTTERDAM"},
{"id": 225281, "swift_code": "RGVMNL2RP15", "bank_code": "RGVM", "branch_code": null, "branch": null, "bank": "ROBECO INSTITUTIONAL ASSET MANAGEMENT B.V.", "address": "Coolsingel 120", "zip": "3011 AG", "city": "ROTTERDAM"},
{"id": 225281, "swift_code": "RGVMNL2RP16", "bank_code": "RGVM", "branch_code": null, "branch": null, "bank": "ROBECO INSTITUTIONAL ASSET MANAGEMENT B.V.", "address": "Coolsingel 120", "zip": "3011 AG", "city": "ROTTERDAM"},
{"id": 225281, "swift_code": "RGVMNL2RPB1", "bank_code": "RGVM", "branch_code": null, "branch": null, "bank": "ROBECO INSTITUTIONAL ASSET MANAGEMENT B.V.", "address": "Coolsingel 120", "zip": "3011 AG", "city": "ROTTERDAM"},
{"id": 225281, "swift_code": "RGVMNL2RPB2", "bank_code": "RGVM", "branch_code": null, "branch": null, "bank": "ROBECO INSTITUTIONAL ASSET MANAGEMENT B.V.", "address": "Coolsingel 120", "zip": "3011 AG", "city": "ROTTERDAM"},
{"id": 225281, "swift_code": "RGVMNL2RPB3", "bank_code": "RGVM", "branch_code": null, "branch": null, "bank": "ROBECO INSTITUTIONAL ASSET MANAGEMENT B.V.", "address": "Coolsingel 120", "zip": "3011 AG", "city": "ROTTERDAM"},
{"id": 225281, "swift_code": "RGVMNL2RPB4", "bank_code": "RGVM", "branch_code": null, "branch": null, "bank": "ROBECO INSTITUTIONAL ASSET MANAGEMENT B.V.", "address": "Coolsingel 120", "zip": "3011 AG", "city": "ROTTERDAM"},
{"id": 225281, "swift_code": "RGVMNL2RPB5", "bank_code": "RGVM", "branch_code": null, "branch": null, "bank": "ROBECO INSTITUTIONAL ASSET MANAGEMENT B.V.", "address": "Coolsingel 120", "zip": "3011 AG", "city": "ROTTERDAM"},
{"id": 225281, "swift_code": "RGVMNL2RPB6", "bank_code": "RGVM", "branch_code": null, "branch": null, "bank": "ROBECO INSTITUTIONAL ASSET MANAGEMENT B.V.", "address": "Coolsingel 120", "zip": "3011 AG", "city": "ROTTERDAM"},
{"id": 225281, "swift_code": "RGVMNL2RPB7", "bank_code": "RGVM", "branch_code": null, "branch": null, "bank": "ROBECO INSTITUTIONAL ASSET MANAGEMENT B.V.", "address": "Coolsingel 120", "zip": "3011 AG", "city": "ROTTERDAM"},
{"id": 225281, "swift_code": "RGVMNL2RPB8", "bank_code": "RGVM", "branch_code": null, "branch": null, "bank": "ROBECO INSTITUTIONAL ASSET MANAGEMENT B.V.", "address": "Coolsingel 120", "zip": "3011 AG", "city": "ROTTERDAM"},
{"id": 225281, "swift_code": "RGVMNL2RPB9", "bank_code": "RGVM", "branch_code": null, "branch": null, "bank": "ROBECO INSTITUTIONAL ASSET MANAGEMENT B.V.", "address": "Coolsingel 120", "zip": "3011 AG", "city": "ROTTERDAM"},
{"id": 225281, "swift_code": "RGVMNL2RPEP", "bank_code": "RGVM", "branch_code": null, "branch": null, "bank": "ROBECO INSTITUTIONAL ASSET MANAGEMENT B.V.", "address": "Coolsingel 120", "zip": "3011 AG", "city": "ROTTERDAM"},
{"id": 225281, "swift_code": "RGVMNL2RPIH", "bank_code": "RGVM", "branch_code": null, "branch": null, "bank": "ROBECO INSTITUTIONAL ASSET MANAGEMENT B.V.", "address": "Coolsingel 120", "zip": "3011 AG", "city": "ROTTERDAM"},
{"id": 225281, "swift_code": "RGVMNL2RPOP", "bank_code": "RGVM", "branch_code": null, "branch": null, "bank": "ROBECO INSTITUTIONAL ASSET MANAGEMENT B.V.", "address": "Coolsingel 120", "zip": "3011 AG", "city": "ROTTERDAM"},
{"id": 225281, "swift_code": "RGVMNL2RQE5", "bank_code": "RGVM", "branch_code": null, "branch": null, "bank": "ROBECO INSTITUTIONAL ASSET MANAGEMENT B.V.", "address": "Coolsingel 120", "zip": "3011 AG", "city": "ROTTERDAM"},
{"id": 225281, "swift_code": "RGVMNL2RQEI", "bank_code": "RGVM", "branch_code": null, "branch": null, "bank": "ROBECO INSTITUTIONAL ASSET MANAGEMENT B.V.", "address": "Coolsingel 120", "zip": "3011 AG", "city": "ROTTERDAM"},
{"id": 225281, "swift_code": "RGVMNL2RQEM", "bank_code": "RGVM", "branch_code": null, "branch": null, "bank": "ROBECO INSTITUTIONAL ASSET MANAGEMENT B.V.", "address": "Coolsingel 120", "zip": "3011 AG", "city": "ROTTERDAM"},
{"id": 225281, "swift_code": "RGVMNL2RQSG", "bank_code": "RGVM", "branch_code": null, "branch": null, "bank": "ROBECO INSTITUTIONAL ASSET MANAGEMENT B.V.", "address": "Coolsingel 120", "zip": "3011 AG", "city": "ROTTERDAM"},
{"id": 225281, "swift_code": "RGVMNL2RR01", "bank_code": "RGVM", "branch_code": null, "branch": null, "bank": "ROBECO INSTITUTIONAL ASSET MANAGEMENT B.V.", "address": "Coolsingel 120", "zip": "3011 AG", "city": "ROTTERDAM"},
{"id": 225281, "swift_code": "RGVMNL2RR02", "bank_code": "RGVM", "branch_code": null, "branch": null, "bank": "ROBECO INSTITUTIONAL ASSET MANAGEMENT B.V.", "address": "Coolsingel 120", "zip": "3011 AG", "city": "ROTTERDAM"},
{"id": 225281, "swift_code": "RGVMNL2RR03", "bank_code": "RGVM", "branch_code": null, "branch": null, "bank": "ROBECO INSTITUTIONAL ASSET MANAGEMENT B.V.", "address": "Coolsingel 120", "zip": "3011 AG", "city": "ROTTERDAM"},
{"id": 225281, "swift_code": "RGVMNL2RR04", "bank_code": "RGVM", "branch_code": null, "branch": null, "bank": "ROBECO INSTITUTIONAL ASSET MANAGEMENT B.V.", "address": "Coolsingel 120", "zip": "3011 AG", "city": "ROTTERDAM"},
{"id": 225281, "swift_code": "RGVMNL2RR05", "bank_code": "RGVM", "branch_code": null, "branch": null, "bank": "ROBECO INSTITUTIONAL ASSET MANAGEMENT B.V.", "address": "Coolsingel 120", "zip": "3011 AG", "city": "ROTTERDAM"},
{"id": 225281, "swift_code": "RGVMNL2RR06", "bank_code": "RGVM", "branch_code": null, "branch": null, "bank": "ROBECO INSTITUTIONAL ASSET MANAGEMENT B.V.", "address": "Coolsingel 120", "zip": "3011 AG", "city": "ROTTERDAM"},
{"id": 225281, "swift_code": "RGVMNL2RR07", "bank_code": "RGVM", "branch_code": null, "branch": null, "bank": "ROBECO INSTITUTIONAL ASSET MANAGEMENT B.V.", "address": "Coolsingel 120", "zip": "3011 AG", "city": "ROTTERDAM"},
{"id": 225281, "swift_code": "RGVMNL2RR08", "bank_code": "RGVM", "branch_code": null, "branch": null, "bank": "ROBECO INSTITUTIONAL ASSET MANAGEMENT B.V.", "address": "Coolsingel 120", "zip": "3011 AG", "city": "ROTTERDAM"},
{"id": 225281, "swift_code": "RGVMNL2RR45", "bank_code": "RGVM", "branch_code": null, "branch": null, "bank": "ROBECO INSTITUTIONAL ASSET MANAGEMENT B.V.", "address": "Coolsingel 120", "zip": "3011 AG", "city": "ROTTERDAM"},
{"id": 225281, "swift_code": "RGVMNL2RR50", "bank_code": "RGVM", "branch_code": null, "branch": null, "bank": "ROBECO INSTITUTIONAL ASSET MANAGEMENT B.V.", "address": "Coolsingel 120", "zip": "3011 AG", "city": "ROTTERDAM"},
{"id": 225281, "swift_code": "RGVMNL2RR55", "bank_code": "RGVM", "branch_code": null, "branch": null, "bank": "ROBECO INSTITUTIONAL ASSET MANAGEMENT B.V.", "address": "Coolsingel 120", "zip": "3011 AG", "city": "ROTTERDAM"},
{"id": 225281, "swift_code": "RGVMNL2RR60", "bank_code": "RGVM", "branch_code": null, "branch": null, "bank": "ROBECO INSTITUTIONAL ASSET MANAGEMENT B.V.", "address": "Coolsingel 120", "zip": "3011 AG", "city": "ROTTERDAM"},
{"id": 225281, "swift_code": "RGVMNL2RRAF", "bank_code": "RGVM", "branch_code": null, "branch": null, "bank": "ROBECO INSTITUTIONAL ASSET MANAGEMENT B.V.", "address": "Coolsingel 120", "zip": "3011 AG", "city": "ROTTERDAM"},
{"id": 225281, "swift_code": "RGVMNL2RRAG", "bank_code": "RGVM", "branch_code": null, "branch": null, "bank": "ROBECO INSTITUTIONAL ASSET MANAGEMENT B.V.", "address": "Coolsingel 120", "zip": "3011 AG", "city": "ROTTERDAM"},
{"id": 225281, "swift_code": "RGVMNL2RRBN", "bank_code": "RGVM", "branch_code": null, "branch": null, "bank": "ROBECO INSTITUTIONAL ASSET MANAGEMENT B.V.", "address": "Coolsingel 120", "zip": "3011 AG", "city": "ROTTERDAM"},
{"id": 225281, "swift_code": "RGVMNL2RRCP", "bank_code": "RGVM", "branch_code": null, "branch": null, "bank": "ROBECO INSTITUTIONAL ASSET MANAGEMENT B.V.", "address": "Coolsingel 120", "zip": "3011 AG", "city": "ROTTERDAM"},
{"id": 225281, "swift_code": "RGVMNL2RRMI", "bank_code": "RGVM", "branch_code": null, "branch": null, "bank": "ROBECO INSTITUTIONAL ASSET MANAGEMENT B.V.", "address": "Coolsingel 120", "zip": "3011 AG", "city": "ROTTERDAM"},
{"id": 225281, "swift_code": "RGVMNL2RRNL", "bank_code": "RGVM", "branch_code": null, "branch": null, "bank": "ROBECO INSTITUTIONAL ASSET MANAGEMENT B.V.", "address": "Coolsingel 120", "zip": "3011 AG", "city": "ROTTERDAM"},
{"id": 225281, "swift_code": "RGVMNL2RRO1", "bank_code": "RGVM", "branch_code": null, "branch": null, "bank": "ROBECO INSTITUTIONAL ASSET MANAGEMENT B.V.", "address": "Coolsingel 120", "zip": "3011 AG", "city": "ROTTERDAM"},
{"id": 225281, "swift_code": "RGVMNL2RRO3", "bank_code": "RGVM", "branch_code": null, "branch": null, "bank": "ROBECO INSTITUTIONAL ASSET MANAGEMENT B.V.", "address": "Coolsingel 120", "zip": "3011 AG", "city": "ROTTERDAM"},
{"id": 225281, "swift_code": "RGVMNL2RRO4", "bank_code": "RGVM", "branch_code": null, "branch": null, "bank": "ROBECO INSTITUTIONAL ASSET MANAGEMENT B.V.", "address": "Coolsingel 120", "zip": "3011 AG", "city": "ROTTERDAM"},
{"id": 225281, "swift_code": "RGVMNL2RRO5", "bank_code": "RGVM", "branch_code": null, "branch": null, "bank": "ROBECO INSTITUTIONAL ASSET MANAGEMENT B.V.", "address": "Coolsingel 120", "zip": "3011 AG", "city": "ROTTERDAM"},
{"id": 225281, "swift_code": "RGVMNL2RROB", "bank_code": "RGVM", "branch_code": null, "branch": null, "bank": "ROBECO INSTITUTIONAL ASSET MANAGEMENT B.V.", "address": "Coolsingel 120", "zip": "3011 AG", "city": "ROTTERDAM"},
{"id": 225281, "swift_code": "RGVMNL2RROF", "bank_code": "RGVM", "branch_code": null, "branch": null, "bank": "ROBECO INSTITUTIONAL ASSET MANAGEMENT B.V.", "address": "Coolsingel 120", "zip": "3011 AG", "city": "ROTTERDAM"},
{"id": 225281, "swift_code": "RGVMNL2RROL", "bank_code": "RGVM", "branch_code": null, "branch": null, "bank": "ROBECO INSTITUTIONAL ASSET MANAGEMENT B.V.", "address": "Coolsingel 120", "zip": "3011 AG", "city": "ROTTERDAM"},
{"id": 225281, "swift_code": "RGVMNL2RROP", "bank_code": "RGVM", "branch_code": null, "branch": null, "bank": "ROBECO INSTITUTIONAL ASSET MANAGEMENT B.V.", "address": "Coolsingel 120", "zip": "3011 AG", "city": "ROTTERDAM"},
{"id": 225281, "swift_code": "RGVMNL2RROR", "bank_code": "RGVM", "branch_code": null, "branch": null, "bank": "ROBECO INSTITUTIONAL ASSET MANAGEMENT B.V.", "address": "Coolsingel 120", "zip": "3011 AG", "city": "ROTTERDAM"},
{"id": 225281, "swift_code": "RGVMNL2RRSL", "bank_code": "RGVM", "branch_code": null, "branch": null, "bank": "ROBECO INSTITUTIONAL ASSET MANAGEMENT B.V.", "address": "Coolsingel 120", "zip": "3011 AG", "city": "ROTTERDAM"},
{"id": 225281, "swift_code": "RGVMNL2RRTS", "bank_code": "RGVM", "branch_code": null, "branch": null, "bank": "ROBECO INSTITUTIONAL ASSET MANAGEMENT B.V.", "address": "Coolsingel 120", "zip": "3011 AG", "city": "ROTTERDAM"},
{"id": 225281, "swift_code": "RGVMNL2RRUB", "bank_code": "RGVM", "branch_code": null, "branch": null, "bank": "ROBECO INSTITUTIONAL ASSET MANAGEMENT B.V.", "address": "Coolsingel 120", "zip": "3011 AG", "city": "ROTTERDAM"},
{"id": 225281, "swift_code": "RGVMNL2RRUH", "bank_code": "RGVM", "branch_code": null, "branch": null, "bank": "ROBECO INSTITUTIONAL ASSET MANAGEMENT B.V.", "address": "Coolsingel 120", "zip": "3011 AG", "city": "ROTTERDAM"},
{"id": 225281, "swift_code": "RGVMNL2RRUS", "bank_code": "RGVM", "branch_code": null, "branch": null, "bank": "ROBECO INSTITUTIONAL ASSET MANAGEMENT B.V.", "address": "Coolsingel 120", "zip": "3011 AG", "city": "ROTTERDAM"},
{"id": 225281, "swift_code": "RGVMNL2RSAF", "bank_code": "RGVM", "branch_code": null, "branch": null, "bank": "ROBECO INSTITUTIONAL ASSET MANAGEMENT B.V.", "address": "Coolsingel 120", "zip": "3011 AG", "city": "ROTTERDAM"},
{"id": 225281, "swift_code": "RGVMNL2RSC1", "bank_code": "RGVM", "branch_code": null, "branch": null, "bank": "ROBECO INSTITUTIONAL ASSET MANAGEMENT B.V.", "address": "Coolsingel 120", "zip": "3011 AG", "city": "ROTTERDAM"},
{"id": 225281, "swift_code": "RGVMNL2RSIO", "bank_code": "RGVM", "branch_code": null, "branch": null, "bank": "ROBECO INSTITUTIONAL ASSET MANAGEMENT B.V.", "address": "Coolsingel 120", "zip": "3011 AG", "city": "ROTTERDAM"},
{"id": 225281, "swift_code": "RGVMNL2RSKA", "bank_code": "RGVM", "branch_code": null, "branch": null, "bank": "ROBECO INSTITUTIONAL ASSET MANAGEMENT B.V.", "address": "Coolsingel 120", "zip": "3011 AG", "city": "ROTTERDAM"},
{"id": 225281, "swift_code": "RGVMNL2RSMA", "bank_code": "RGVM", "branch_code": null, "branch": null, "bank": "ROBECO INSTITUTIONAL ASSET MANAGEMENT B.V.", "address": "Coolsingel 120", "zip": "3011 AG", "city": "ROTTERDAM"},
{"id": 225281, "swift_code": "RGVMNL2RSPD", "bank_code": "RGVM", "branch_code": null, "branch": null, "bank": "ROBECO INSTITUTIONAL ASSET MANAGEMENT B.V.", "address": "Coolsingel 120", "zip": "3011 AG", "city": "ROTTERDAM"},
{"id": 225281, "swift_code": "RGVMNL2RSPG", "bank_code": "RGVM", "branch_code": null, "branch": null, "bank": "ROBECO INSTITUTIONAL ASSET MANAGEMENT B.V.", "address": "Coolsingel 120", "zip": "3011 AG", "city": "ROTTERDAM"},
{"id": 225281, "swift_code": "RGVMNL2RSTB", "bank_code": "RGVM", "branch_code": null, "branch": null, "bank": "ROBECO INSTITUTIONAL ASSET MANAGEMENT B.V.", "address": "Coolsingel 120", "zip": "3011 AG", "city": "ROTTERDAM"},
{"id": 225281, "swift_code": "RGVMNL2RSTS", "bank_code": "RGVM", "branch_code": null, "branch": null, "bank": "ROBECO INSTITUTIONAL ASSET MANAGEMENT B.V.", "address": "Coolsingel 120", "zip": "3011 AG", "city": "ROTTERDAM"},
{"id": 225281, "swift_code": "RGVMNL2RSUB", "bank_code": "RGVM", "branch_code": null, "branch": null, "bank": "ROBECO INSTITUTIONAL ASSET MANAGEMENT B.V.", "address": "Coolsingel 120", "zip": "3011 AG", "city": "ROTTERDAM"},
{"id": 225281, "swift_code": "RGVMNL2RTOP", "bank_code": "RGVM", "branch_code": null, "branch": null, "bank": "ROBECO INSTITUTIONAL ASSET MANAGEMENT B.V.", "address": "Coolsingel 120", "zip": "3011 AG", "city": "ROTTERDAM"},
{"id": 225281, "swift_code": "RGVMNL2RTR2", "bank_code": "RGVM", "branch_code": null, "branch": null, "bank": "ROBECO INSTITUTIONAL ASSET MANAGEMENT B.V.", "address": "Coolsingel 120", "zip": "3011 AG", "city": "ROTTERDAM"},
{"id": 225281, "swift_code": "RGVMNL2RTRI", "bank_code": "RGVM", "branch_code": null, "branch": null, "bank": "ROBECO INSTITUTIONAL ASSET MANAGEMENT B.V.", "address": "Coolsingel 120", "zip": "3011 AG", "city": "ROTTERDAM"},
{"id": 225281, "swift_code": "RGVMNL2RTRV", "bank_code": "RGVM", "branch_code": null, "branch": null, "bank": "ROBECO INSTITUTIONAL ASSET MANAGEMENT B.V.", "address": "Coolsingel 120", "zip": "3011 AG", "city": "ROTTERDAM"},
{"id": 225281, "swift_code": "RGVMNL2RUBX", "bank_code": "RGVM", "branch_code": null, "branch": null, "bank": "ROBECO INSTITUTIONAL ASSET MANAGEMENT B.V.", "address": "Coolsingel 120", "zip": "3011 AG", "city": "ROTTERDAM"},
{"id": 225281, "swift_code": "RGVMNL2RUDH", "bank_code": "RGVM", "branch_code": null, "branch": null, "bank": "ROBECO INSTITUTIONAL ASSET MANAGEMENT B.V.", "address": "Coolsingel 120", "zip": "3011 AG", "city": "ROTTERDAM"},
{"id": 225281, "swift_code": "RGVMNL2RUIE", "bank_code": "RGVM", "branch_code": null, "branch": null, "bank": "ROBECO INSTITUTIONAL ASSET MANAGEMENT B.V.", "address": "Coolsingel 120", "zip": "3011 AG", "city": "ROTTERDAM"},
{"id": 225281, "swift_code": "RGVMNL2RUIH", "bank_code": "RGVM", "branch_code": null, "branch": null, "bank": "ROBECO INSTITUTIONAL ASSET MANAGEMENT B.V.", "address": "Coolsingel 120", "zip": "3011 AG", "city": "ROTTERDAM"},
{"id": 225281, "swift_code": "RGVMNL2RUIL", "bank_code": "RGVM", "branch_code": null, "branch": null, "bank": "ROBECO INSTITUTIONAL ASSET MANAGEMENT B.V.", "address": "Coolsingel 120", "zip": "3011 AG", "city": "ROTTERDAM"},
{"id": 225281, "swift_code": "RGVMNL2RUMH", "bank_code": "RGVM", "branch_code": null, "branch": null, "bank": "ROBECO INSTITUTIONAL ASSET MANAGEMENT B.V.", "address": "Coolsingel 120", "zip": "3011 AG", "city": "ROTTERDAM"},
{"id": 225281, "swift_code": "RGVMNL2RUPE", "bank_code": "RGVM", "branch_code": null, "branch": null, "bank": "ROBECO INSTITUTIONAL ASSET MANAGEMENT B.V.", "address": "Coolsingel 120", "zip": "3011 AG", "city": "ROTTERDAM"},
{"id": 225281, "swift_code": "RGVMNL2RUS3", "bank_code": "RGVM", "branch_code": null, "branch": null, "bank": "ROBECO INSTITUTIONAL ASSET MANAGEMENT B.V.", "address": "Coolsingel 120", "zip": "3011 AG", "city": "ROTTERDAM"},
{"id": 225281, "swift_code": "RGVMNL2RUSF", "bank_code": "RGVM", "branch_code": null, "branch": null, "bank": "ROBECO INSTITUTIONAL ASSET MANAGEMENT B.V.", "address": "Coolsingel 120", "zip": "3011 AG", "city": "ROTTERDAM"},
{"id": 225281, "swift_code": "RGVMNL2RUSL", "bank_code": "RGVM", "branch_code": null, "branch": null, "bank": "ROBECO INSTITUTIONAL ASSET MANAGEMENT B.V.", "address": "Coolsingel 120", "zip": "3011 AG", "city": "ROTTERDAM"},
{"id": 225281, "swift_code": "RGVMNL2RWOR", "bank_code": "RGVM", "branch_code": null, "branch": null, "bank": "ROBECO INSTITUTIONAL ASSET MANAGEMENT B.V.", "address": "Coolsingel 120", "zip": "3011 AG", "city": "ROTTERDAM"},
{"id": 225281, "swift_code": "RGVMNL2RYBH", "bank_code": "RGVM", "branch_code": null, "branch": null, "bank": "ROBECO INSTITUTIONAL ASSET MANAGEMENT B.V.", "address": "Coolsingel 120", "zip": "3011 AG", "city": "ROTTERDAM"},
{"id": 225281, "swift_code": "RGVMNL2RVL4", "bank_code": "RGVM", "branch_code": null, "branch": null, "bank": "ROBECO INSTITUTIONAL ASSET MANAGEMENT B.V.", "address": "Coolsingel 120", "zip": "3011 AG", "city": "ROTTERDAM"},
{"id": 225281, "swift_code": "RGVMNL2RSAA", "bank_code": "RGVM", "branch_code": null, "branch": null, "bank": "ROBECO INSTITUTIONAL ASSET MANAGEMENT B.V.", "address": "Coolsingel 120", "zip": "3011 AG", "city": "ROTTERDAM"},
{"id": 225281, "swift_code": "RGVMNL2RALA", "bank_code": "RGVM", "branch_code": null, "branch": null, "bank": "ROBECO INSTITUTIONAL ASSET MANAGEMENT B.V.", "address": "Coolsingel 120", "zip": "3011 AG", "city": "ROTTERDAM"},
{"id": 225281, "swift_code": "RGVMNL2R001", "bank_code": "RGVM", "branch_code": null, "branch": null, "bank": "ROBECO INSTITUTIONAL ASSET MANAGEMENT B.V.", "address": "Coolsingel 120", "zip": "3011 AG", "city": "ROTTERDAM"},
{"id": 225281, "swift_code": "RGVMNL2R002", "bank_code": "RGVM", "branch_code": null, "branch": null, "bank": "ROBECO INSTITUTIONAL ASSET MANAGEMENT B.V.", "address": "Coolsingel 120", "zip": "3011 AG", "city": "ROTTERDAM"},
{"id": 225281, "swift_code": "RGVMNL2R003", "bank_code": "RGVM", "branch_code": null, "branch": null, "bank": "ROBECO INSTITUTIONAL ASSET MANAGEMENT B.V.", "address": "Coolsingel 120", "zip": "3011 AG", "city": "ROTTERDAM"},
{"id": 225281, "swift_code": "RGVMNL2R004", "bank_code": "RGVM", "branch_code": null, "branch": null, "bank": "ROBECO INSTITUTIONAL ASSET MANAGEMENT B.V.", "address": "Coolsingel 120", "zip": "3011 AG", "city": "ROTTERDAM"},
{"id": 225281, "swift_code": "RGVMNL2R005", "bank_code": "RGVM", "branch_code": null, "branch": null, "bank": "ROBECO INSTITUTIONAL ASSET MANAGEMENT B.V.", "address": "Coolsingel 120", "zip": "3011 AG", "city": "ROTTERDAM"},
{"id": 225281, "swift_code": "RGVMNL2R006", "bank_code": "RGVM", "branch_code": null, "branch": null, "bank": "ROBECO INSTITUTIONAL ASSET MANAGEMENT B.V.", "address": "Coolsingel 120", "zip": "3011 AG", "city": "ROTTERDAM"},
{"id": 225281, "swift_code": "RGVMNL2R007", "bank_code": "RGVM", "branch_code": null, "branch": null, "bank": "ROBECO INSTITUTIONAL ASSET MANAGEMENT B.V.", "address": "Coolsingel 120", "zip": "3011 AG", "city": "ROTTERDAM"},
{"id": 225281, "swift_code": "RGVMNL2R008", "bank_code": "RGVM", "branch_code": null, "branch": null, "bank": "ROBECO INSTITUTIONAL ASSET MANAGEMENT B.V.", "address": "Coolsingel 120", "zip": "3011 AG", "city": "ROTTERDAM"},
{"id": 225281, "swift_code": "RGVMNL2R009", "bank_code": "RGVM", "branch_code": null, "branch": null, "bank": "ROBECO INSTITUTIONAL ASSET MANAGEMENT B.V.", "address": "Coolsingel 120", "zip": "3011 AG", "city": "ROTTERDAM"},
{"id": 225281, "swift_code": "RGVMNL2R010", "bank_code": "RGVM", "branch_code": null, "branch": null, "bank": "ROBECO INSTITUTIONAL ASSET MANAGEMENT B.V.", "address": "Coolsingel 120", "zip": "3011 AG", "city": "ROTTERDAM"},
{"id": 225281, "swift_code": "RGVMNL2R011", "bank_code": "RGVM", "branch_code": null, "branch": null, "bank": "ROBECO INSTITUTIONAL ASSET MANAGEMENT B.V.", "address": "Coolsingel 120", "zip": "3011 AG", "city": "ROTTERDAM"},
{"id": 225281, "swift_code": "RGVMNL2R012", "bank_code": "RGVM", "branch_code": null, "branch": null, "bank": "ROBECO INSTITUTIONAL ASSET MANAGEMENT B.V.", "address": "Coolsingel 120", "zip": "3011 AG", "city": "ROTTERDAM"},
{"id": 225281, "swift_code": "RGVMNL2R013", "bank_code": "RGVM", "branch_code": null, "branch": null, "bank": "ROBECO INSTITUTIONAL ASSET MANAGEMENT B.V.", "address": "Coolsingel 120", "zip": "3011 AG", "city": "ROTTERDAM"},
{"id": 225281, "swift_code": "RGVMNL2R014", "bank_code": "RGVM", "branch_code": null, "branch": null, "bank": "ROBECO INSTITUTIONAL ASSET MANAGEMENT B.V.", "address": "Coolsingel 120", "zip": "3011 AG", "city": "ROTTERDAM"},
{"id": 225281, "swift_code": "RGVMNL2R015", "bank_code": "RGVM", "branch_code": null, "branch": null, "bank": "ROBECO INSTITUTIONAL ASSET MANAGEMENT B.V.", "address": "Coolsingel 120", "zip": "3011 AG", "city": "ROTTERDAM"},
{"id": 225281, "swift_code": "RGVMNL2R016", "bank_code": "RGVM", "branch_code": null, "branch": null, "bank": "ROBECO INSTITUTIONAL ASSET MANAGEMENT B.V.", "address": "Coolsingel 120", "zip": "3011 AG", "city": "ROTTERDAM"},
{"id": 225281, "swift_code": "RGVMNL2R017", "bank_code": "RGVM", "branch_code": null, "branch": null, "bank": "ROBECO INSTITUTIONAL ASSET MANAGEMENT B.V.", "address": "Coolsingel 120", "zip": "3011 AG", "city": "ROTTERDAM"},
{"id": 225281, "swift_code": "RGVMNL2R018", "bank_code": "RGVM", "branch_code": null, "branch": null, "bank": "ROBECO INSTITUTIONAL ASSET MANAGEMENT B.V.", "address": "Coolsingel 120", "zip": "3011 AG", "city": "ROTTERDAM"},
{"id": 225281, "swift_code": "RGVMNL2R019", "bank_code": "RGVM", "branch_code": null, "branch": null, "bank": "ROBECO INSTITUTIONAL ASSET MANAGEMENT B.V.", "address": "Coolsingel 120", "zip": "3011 AG", "city": "ROTTERDAM"},
{"id": 225281, "swift_code": "RGVMNL2R020", "bank_code": "RGVM", "branch_code": null, "branch": null, "bank": "ROBECO INSTITUTIONAL ASSET MANAGEMENT B.V.", "address": "Coolsingel 120", "zip": "3011 AG", "city": "ROTTERDAM"},
{"id": 225281, "swift_code": "RGVMNL2R051", "bank_code": "RGVM", "branch_code": null, "branch": null, "bank": "ROBECO INSTITUTIONAL ASSET MANAGEMENT B.V.", "address": "Coolsingel 120", "zip": "3011 AG", "city": "ROTTERDAM"},
{"id": 225281, "swift_code": "RGVMNL2R052", "bank_code": "RGVM", "branch_code": null, "branch": null, "bank": "ROBECO INSTITUTIONAL ASSET MANAGEMENT B.V.", "address": "Coolsingel 120", "zip": "3011 AG", "city": "ROTTERDAM"},
{"id": 225281, "swift_code": "RGVMNL2R053", "bank_code": "RGVM", "branch_code": null, "branch": null, "bank": "ROBECO INSTITUTIONAL ASSET MANAGEMENT B.V.", "address": "Coolsingel 120", "zip": "3011 AG", "city": "ROTTERDAM"},
{"id": 225281, "swift_code": "RGVMNL2R054", "bank_code": "RGVM", "branch_code": null, "branch": null, "bank": "ROBECO INSTITUTIONAL ASSET MANAGEMENT B.V.", "address": "Coolsingel 120", "zip": "3011 AG", "city": "ROTTERDAM"},
{"id": 225281, "swift_code": "RGVMNL2R055", "bank_code": "RGVM", "branch_code": null, "branch": null, "bank": "ROBECO INSTITUTIONAL ASSET MANAGEMENT B.V.", "address": "Coolsingel 120", "zip": "3011 AG", "city": "ROTTERDAM"},
{"id": 225281, "swift_code": "RGVMNL2R056", "bank_code": "RGVM", "branch_code": null, "branch": null, "bank": "ROBECO INSTITUTIONAL ASSET MANAGEMENT B.V.", "address": "Coolsingel 120", "zip": "3011 AG", "city": "ROTTERDAM"},
{"id": 225281, "swift_code": "RGVMNL2R057", "bank_code": "RGVM", "branch_code": null, "branch": null, "bank": "ROBECO INSTITUTIONAL ASSET MANAGEMENT B.V.", "address": "Coolsingel 120", "zip": "3011 AG", "city": "ROTTERDAM"},
{"id": 225281, "swift_code": "RGVMNL2R058", "bank_code": "RGVM", "branch_code": null, "branch": null, "bank": "ROBECO INSTITUTIONAL ASSET MANAGEMENT B.V.", "address": "Coolsingel 120", "zip": "3011 AG", "city": "ROTTERDAM"},
{"id": 225281, "swift_code": "RGVMNL2R059", "bank_code": "RGVM", "branch_code": null, "branch": null, "bank": "ROBECO INSTITUTIONAL ASSET MANAGEMENT B.V.", "address": "Coolsingel 120", "zip": "3011 AG", "city": "ROTTERDAM"},
{"id": 225281, "swift_code": "RGVMNL2R060", "bank_code": "RGVM", "branch_code": null, "branch": null, "bank": "ROBECO INSTITUTIONAL ASSET MANAGEMENT B.V.", "address": "Coolsingel 120", "zip": "3011 AG", "city": "ROTTERDAM"},
{"id": 225281, "swift_code": "RGVMNL2R10L", "bank_code": "RGVM", "branch_code": null, "branch": null, "bank": "ROBECO INSTITUTIONAL ASSET MANAGEMENT B.V.", "address": "Coolsingel 120", "zip": "3011 AG", "city": "ROTTERDAM"},
{"id": 225281, "swift_code": "RGVMNL2R40L", "bank_code": "RGVM", "branch_code": null, "branch": null, "bank": "ROBECO INSTITUTIONAL ASSET MANAGEMENT B.V.", "address": "Coolsingel 120", "zip": "3011 AG", "city": "ROTTERDAM"},
{"id": 225281, "swift_code": "RGVMNL2RA15", "bank_code": "RGVM", "branch_code": null, "branch": null, "bank": "ROBECO INSTITUTIONAL ASSET MANAGEMENT B.V.", "address": "Coolsingel 120", "zip": "3011 AG", "city": "ROTTERDAM"},
{"id": 225281, "swift_code": "RGVMNL2RA20", "bank_code": "RGVM", "branch_code": null, "branch": null, "bank": "ROBECO INSTITUTIONAL ASSET MANAGEMENT B.V.", "address": "Coolsingel 120", "zip": "3011 AG", "city": "ROTTERDAM"},
{"id": 225281, "swift_code": "RGVMNL2RA25", "bank_code": "RGVM", "branch_code": null, "branch": null, "bank": "ROBECO INSTITUTIONAL ASSET MANAGEMENT B.V.", "address": "Coolsingel 120", "zip": "3011 AG", "city": "ROTTERDAM"},
{"id": 225281, "swift_code": "RGVMNL2RA30", "bank_code": "RGVM", "branch_code": null, "branch": null, "bank": "ROBECO INSTITUTIONAL ASSET MANAGEMENT B.V.", "address": "Coolsingel 120", "zip": "3011 AG", "city": "ROTTERDAM"},
{"id": 225281, "swift_code": "RGVMNL2RA35", "bank_code": "RGVM", "branch_code": null, "branch": null, "bank": "ROBECO INSTITUTIONAL ASSET MANAGEMENT B.V.", "address": "Coolsingel 120", "zip": "3011 AG", "city": "ROTTERDAM"},
{"id": 225281, "swift_code": "RGVMNL2RA40", "bank_code": "RGVM", "branch_code": null, "branch": null, "bank": "ROBECO INSTITUTIONAL ASSET MANAGEMENT B.V.", "address": "Coolsingel 120", "zip": "3011 AG", "city": "ROTTERDAM"},
{"id": 225281, "swift_code": "RGVMNL2RACG", "bank_code": "RGVM", "branch_code": null, "branch": null, "bank": "ROBECO INSTITUTIONAL ASSET MANAGEMENT B.V.", "address": "Coolsingel 120", "zip": "3011 AG", "city": "ROTTERDAM"},
{"id": 225281, "swift_code": "RGVMNL2RAGA", "bank_code": "RGVM", "branch_code": null, "branch": null, "bank": "ROBECO INSTITUTIONAL ASSET MANAGEMENT B.V.", "address": "Coolsingel 120", "zip": "3011 AG", "city": "ROTTERDAM"},
{"id": 225281, "swift_code": "RGVMNL2RAGB", "bank_code": "RGVM", "branch_code": null, "branch": null, "bank": "ROBECO INSTITUTIONAL ASSET MANAGEMENT B.V.", "address": "Coolsingel 120", "zip": "3011 AG", "city": "ROTTERDAM"},
{"id": 225281, "swift_code": "RGVMNL2RAKI", "bank_code": "RGVM", "branch_code": null, "branch": null, "bank": "ROBECO INSTITUTIONAL ASSET MANAGEMENT B.V.", "address": "Coolsingel 120", "zip": "3011 AG", "city": "ROTTERDAM"},
{"id": 225281, "swift_code": "RGVMNL2RALE", "bank_code": "RGVM", "branch_code": null, "branch": null, "bank": "ROBECO INSTITUTIONAL ASSET MANAGEMENT B.V.", "address": "Coolsingel 120", "zip": "3011 AG", "city": "ROTTERDAM"},
{"id": 225281, "swift_code": "RGVMNL2RAMA", "bank_code": "RGVM", "branch_code": null, "branch": null, "bank": "ROBECO INSTITUTIONAL ASSET MANAGEMENT B.V.", "address": "Coolsingel 120", "zip": "3011 AG", "city": "ROTTERDAM"},
{"id": 225281, "swift_code": "RGVMNL2RAMI", "bank_code": "RGVM", "branch_code": null, "branch": null, "bank": "ROBECO INSTITUTIONAL ASSET MANAGEMENT B.V.", "address": "Coolsingel 120", "zip": "3011 AG", "city": "ROTTERDAM"},
{"id": 225281, "swift_code": "RGVMNL2RANN", "bank_code": "RGVM", "branch_code": null, "branch": null, "bank": "ROBECO INSTITUTIONAL ASSET MANAGEMENT B.V.", "address": "Coolsingel 120", "zip": "3011 AG", "city": "ROTTERDAM"},
{"id": 225281, "swift_code": "RGVMNL2RAPN", "bank_code": "RGVM", "branch_code": null, "branch": null, "bank": "ROBECO INSTITUTIONAL ASSET MANAGEMENT B.V.", "address": "Coolsingel 120", "zip": "3011 AG", "city": "ROTTERDAM"},
{"id": 225281, "swift_code": "RGVMNL2RARE", "bank_code": "RGVM", "branch_code": null, "branch": null, "bank": "ROBECO INSTITUTIONAL ASSET MANAGEMENT B.V.", "address": "Coolsingel 120", "zip": "3011 AG", "city": "ROTTERDAM"},
{"id": 225281, "swift_code": "RGVMNL2RAUG", "bank_code": "RGVM", "branch_code": null, "branch": null, "bank": "ROBECO INSTITUTIONAL ASSET MANAGEMENT B.V.", "address": "Coolsingel 120", "zip": "3011 AG", "city": "ROTTERDAM"},
{"id": 225281, "swift_code": "RGVMNL2RBUC", "bank_code": "RGVM", "branch_code": null, "branch": null, "bank": "ROBECO INSTITUTIONAL ASSET MANAGEMENT B.V.", "address": "Coolsingel 120", "zip": "3011 AG", "city": "ROTTERDAM"},
{"id": 225281, "swift_code": "RGVMNL2RCFW", "bank_code": "RGVM", "branch_code": null, "branch": null, "bank": "ROBECO INSTITUTIONAL ASSET MANAGEMENT B.V.", "address": "Coolsingel 120", "zip": "3011 AG", "city": "ROTTERDAM"},
{"id": 225281, "swift_code": "RGVMNL2RCLE", "bank_code": "RGVM", "branch_code": null, "branch": null, "bank": "ROBECO INSTITUTIONAL ASSET MANAGEMENT B.V.", "address": "Coolsingel 120", "zip": "3011 AG", "city": "ROTTERDAM"},
{"id": 225281, "swift_code": "RGVMNL2RCLI", "bank_code": "RGVM", "branch_code": null, "branch": null, "bank": "ROBECO INSTITUTIONAL ASSET MANAGEMENT B.V.", "address": "Coolsingel 120", "zip": "3011 AG", "city": "ROTTERDAM"},
{"id": 225281, "swift_code": "RGVMNL2RCLM", "bank_code": "RGVM", "branch_code": null, "branch": null, "bank": "ROBECO INSTITUTIONAL ASSET MANAGEMENT B.V.", "address": "Coolsingel 120", "zip": "3011 AG", "city": "ROTTERDAM"},
{"id": 225281, "swift_code": "RGVMNL2RCRS", "bank_code": "RGVM", "branch_code": null, "branch": null, "bank": "ROBECO INSTITUTIONAL ASSET MANAGEMENT B.V.", "address": "Coolsingel 120", "zip": "3011 AG", "city": "ROTTERDAM"},
{"id": 225281, "swift_code": "RGVMNL2RDIN", "bank_code": "RGVM", "branch_code": null, "branch": null, "bank": "ROBECO INSTITUTIONAL ASSET MANAGEMENT B.V.", "address": "Coolsingel 120", "zip": "3011 AG", "city": "ROTTERDAM"},
{"id": 225281, "swift_code": "RGVMNL2REN2", "bank_code": "RGVM", "branch_code": null, "branch": null, "bank": "ROBECO INSTITUTIONAL ASSET MANAGEMENT B.V.", "address": "Coolsingel 120", "zip": "3011 AG", "city": "ROTTERDAM"},
{"id": 225281, "swift_code": "RGVMNL2RENE", "bank_code": "RGVM", "branch_code": null, "branch": null, "bank": "ROBECO INSTITUTIONAL ASSET MANAGEMENT B.V.", "address": "Coolsingel 120", "zip": "3011 AG", "city": "ROTTERDAM"},
{"id": 225281, "swift_code": "RGVMNL2RFA2", "bank_code": "RGVM", "branch_code": null, "branch": null, "bank": "ROBECO INSTITUTIONAL ASSET MANAGEMENT B.V.", "address": "Coolsingel 120", "zip": "3011 AG", "city": "ROTTERDAM"},
{"id": 225281, "swift_code": "RGVMNL2RGCS", "bank_code": "RGVM", "branch_code": null, "branch": null, "bank": "ROBECO INSTITUTIONAL ASSET MANAGEMENT B.V.", "address": "Coolsingel 120", "zip": "3011 AG", "city": "ROTTERDAM"},
{"id": 225281, "swift_code": "RGVMNL2RGFR", "bank_code": "RGVM", "branch_code": null, "branch": null, "bank": "ROBECO INSTITUTIONAL ASSET MANAGEMENT B.V.", "address": "Coolsingel 120", "zip": "3011 AG", "city": "ROTTERDAM"},
{"id": 225281, "swift_code": "RGVMNL2RGLF", "bank_code": "RGVM", "branch_code": null, "branch": null, "bank": "ROBECO INSTITUTIONAL ASSET MANAGEMENT B.V.", "address": "Coolsingel 120", "zip": "3011 AG", "city": "ROTTERDAM"},
{"id": 225281, "swift_code": "RGVMNL2RGLK", "bank_code": "RGVM", "branch_code": null, "branch": null, "bank": "ROBECO INSTITUTIONAL ASSET MANAGEMENT B.V.", "address": "Coolsingel 120", "zip": "3011 AG", "city": "ROTTERDAM"},
{"id": 225281, "swift_code": "RGVMNL2RHAL", "bank_code": "RGVM", "branch_code": null, "branch": null, "bank": "ROBECO INSTITUTIONAL ASSET MANAGEMENT B.V.", "address": "Coolsingel 120", "zip": "3011 AG", "city": "ROTTERDAM"},
{"id": 225281, "swift_code": "RGVMNL2RHFG", "bank_code": "RGVM", "branch_code": null, "branch": null, "bank": "ROBECO INSTITUTIONAL ASSET MANAGEMENT B.V.", "address": "Coolsingel 120", "zip": "3011 AG", "city": "ROTTERDAM"},
{"id": 225281, "swift_code": "RGVMNL2RHFG", "bank_code": "RGVM", "branch_code": null, "branch": null, "bank": "ROBECO INSTITUTIONAL ASSET MANAGEMENT B.V.", "address": "Coolsingel 120", "zip": "3011 AG", "city": "ROTTERDAM"},
{"id": 225281, "swift_code": "RGVMNL2RHYF", "bank_code": "RGVM", "branch_code": null, "branch": null, "bank": "ROBECO INSTITUTIONAL ASSET MANAGEMENT B.V.", "address": "Coolsingel 120", "zip": "3011 AG", "city": "ROTTERDAM"},
{"id": 225281, "swift_code": "RGVMNL2RKAI", "bank_code": "RGVM", "branch_code": null, "branch": null, "bank": "ROBECO INSTITUTIONAL ASSET MANAGEMENT B.V.", "address": "Coolsingel 120", "zip": "3011 AG", "city": "ROTTERDAM"},
{"id": 225281, "swift_code": "RGVMNL2RLED", "bank_code": "RGVM", "branch_code": null, "branch": null, "bank": "ROBECO INSTITUTIONAL ASSET MANAGEMENT B.V.", "address": "Coolsingel 120", "zip": "3011 AG", "city": "ROTTERDAM"},
{"id": 225281, "swift_code": "RGVMNL2RMAG", "bank_code": "RGVM", "branch_code": null, "branch": null, "bank": "ROBECO INSTITUTIONAL ASSET MANAGEMENT B.V.", "address": "Coolsingel 120", "zip": "3011 AG", "city": "ROTTERDAM"},
{"id": 225281, "swift_code": "RGVMNL2RMIR", "bank_code": "RGVM", "branch_code": null, "branch": null, "bank": "ROBECO INSTITUTIONAL ASSET MANAGEMENT B.V.", "address": "Coolsingel 120", "zip": "3011 AG", "city": "ROTTERDAM"},
{"id": 225281, "swift_code": "RGVMNL2RMLT", "bank_code": "RGVM", "branch_code": null, "branch": null, "bank": "ROBECO INSTITUTIONAL ASSET MANAGEMENT B.V.", "address": "Coolsingel 120", "zip": "3011 AG", "city": "ROTTERDAM"},
{"id": 225281, "swift_code": "RGVMNL2RMNK", "bank_code": "RGVM", "branch_code": null, "branch": null, "bank": "ROBECO INSTITUTIONAL ASSET MANAGEMENT B.V.", "address": "Coolsingel 120", "zip": "3011 AG", "city": "ROTTERDAM"},
{"id": 225281, "swift_code": "RGVMNL2RMSA", "bank_code": "RGVM", "branch_code": null, "branch": null, "bank": "ROBECO INSTITUTIONAL ASSET MANAGEMENT B.V.", "address": "Coolsingel 120", "zip": "3011 AG", "city": "ROTTERDAM"},
{"id": 225281, "swift_code": "RGVMNL2RNEK", "bank_code": "RGVM", "branch_code": null, "branch": null, "bank": "ROBECO INSTITUTIONAL ASSET MANAGEMENT B.V.", "address": "Coolsingel 120", "zip": "3011 AG", "city": "ROTTERDAM"},
{"id": 225281, "swift_code": "RGVMNL2RNIK", "bank_code": "RGVM", "branch_code": null, "branch": null, "bank": "ROBECO INSTITUTIONAL ASSET MANAGEMENT B.V.", "address": "Coolsingel 120", "zip": "3011 AG", "city": "ROTTERDAM"},
{"id": 225281, "swift_code": "RGVMNL2RNIS", "bank_code": "RGVM", "branch_code": null, "branch": null, "bank": "ROBECO INSTITUTIONAL ASSET MANAGEMENT B.V.", "address": "Coolsingel 120", "zip": "3011 AG", "city": "ROTTERDAM"},
{"id": 225281, "swift_code": "RGVMNL2RNOM", "bank_code": "RGVM", "branch_code": null, "branch": null, "bank": "ROBECO INSTITUTIONAL ASSET MANAGEMENT B.V.", "address": "Coolsingel 120", "zip": "3011 AG", "city": "ROTTERDAM"},
{"id": 225281, "swift_code": "RGVMNL2ROK3", "bank_code": "RGVM", "branch_code": null, "branch": null, "bank": "ROBECO INSTITUTIONAL ASSET MANAGEMENT B.V.", "address": "Coolsingel 120", "zip": "3011 AG", "city": "ROTTERDAM"},
{"id": 225281, "swift_code": "RGVMNL2RPRR", "bank_code": "RGVM", "branch_code": null, "branch": null, "bank": "ROBECO INSTITUTIONAL ASSET MANAGEMENT B.V.", "address": "Coolsingel 120", "zip": "3011 AG", "city": "ROTTERDAM"},
{"id": 225281, "swift_code": "RGVMNL2RREE", "bank_code": "RGVM", "branch_code": null, "branch": null, "bank": "ROBECO INSTITUTIONAL ASSET MANAGEMENT B.V.", "address": "Coolsingel 120", "zip": "3011 AG", "city": "ROTTERDAM"},
{"id": 225281, "swift_code": "RGVMNL2RREJ", "bank_code": "RGVM", "branch_code": null, "branch": null, "bank": "ROBECO INSTITUTIONAL ASSET MANAGEMENT B.V.", "address": "Coolsingel 120", "zip": "3011 AG", "city": "ROTTERDAM"},
{"id": 225281, "swift_code": "RGVMNL2RRFE", "bank_code": "RGVM", "branch_code": null, "branch": null, "bank": "ROBECO INSTITUTIONAL ASSET MANAGEMENT B.V.", "address": "Coolsingel 120", "zip": "3011 AG", "city": "ROTTERDAM"},
{"id": 225281, "swift_code": "RGVMNL2RRFU", "bank_code": "RGVM", "branch_code": null, "branch": null, "bank": "ROBECO INSTITUTIONAL ASSET MANAGEMENT B.V.", "address": "Coolsingel 120", "zip": "3011 AG", "city": "ROTTERDAM"},
{"id": 225281, "swift_code": "RGVMNL2RROS", "bank_code": "RGVM", "branch_code": null, "branch": null, "bank": "ROBECO INSTITUTIONAL ASSET MANAGEMENT B.V.", "address": "Coolsingel 120", "zip": "3011 AG", "city": "ROTTERDAM"},
{"id": 225281, "swift_code": "RGVMNL2RRRE", "bank_code": "RGVM", "branch_code": null, "branch": null, "bank": "ROBECO INSTITUTIONAL ASSET MANAGEMENT B.V.", "address": "Coolsingel 120", "zip": "3011 AG", "city": "ROTTERDAM"},
{"id": 225281, "swift_code": "RGVMNL2RTEL", "bank_code": "RGVM", "branch_code": null, "branch": null, "bank": "ROBECO INSTITUTIONAL ASSET MANAGEMENT B.V.", "address": "Coolsingel 120", "zip": "3011 AG", "city": "ROTTERDAM"},
{"id": 225281, "swift_code": "RGVMNL2RTIN", "bank_code": "RGVM", "branch_code": null, "branch": null, "bank": "ROBECO INSTITUTIONAL ASSET MANAGEMENT B.V.", "address": "Coolsingel 120", "zip": "3011 AG", "city": "ROTTERDAM"},
{"id": 225281, "swift_code": "RGVMNL2RTRC", "bank_code": "RGVM", "branch_code": null, "branch": null, "bank": "ROBECO INSTITUTIONAL ASSET MANAGEMENT B.V.", "address": "Coolsingel 120", "zip": "3011 AG", "city": "ROTTERDAM"},
{"id": 225281, "swift_code": "RGVMNL2RVLV", "bank_code": "RGVM", "branch_code": null, "branch": null, "bank": "ROBECO INSTITUTIONAL ASSET MANAGEMENT B.V.", "address": "Coolsingel 120", "zip": "3011 AG", "city": "ROTTERDAM"},
{"id": 225281, "swift_code": "RGVMNL2RWAD", "bank_code": "RGVM", "branch_code": null, "branch": null, "bank": "ROBECO INSTITUTIONAL ASSET MANAGEMENT B.V.", "address": "Coolsingel 120", "zip": "3011 AG", "city": "ROTTERDAM"},
{"id": 225281, "swift_code": "RGVMNL2RWDS", "bank_code": "RGVM", "branch_code": null, "branch": null, "bank": "ROBECO INSTITUTIONAL ASSET MANAGEMENT B.V.", "address": "Coolsingel 120", "zip": "3011 AG", "city": "ROTTERDAM"},
{"id": 225281, "swift_code": "RGVMNL2RWTS", "bank_code": "RGVM", "branch_code": null, "branch": null, "bank": "ROBECO INSTITUTIONAL ASSET MANAGEMENT B.V.", "address": "Coolsingel 120", "zip": "3011 AG", "city": "ROTTERDAM"},
{"id": 225281, "swift_code": "RGVMNL2RWTV", "bank_code": "RGVM", "branch_code": null, "branch": null, "bank": "ROBECO INSTITUTIONAL ASSET MANAGEMENT B.V.", "address": "Coolsingel 120", "zip": "3011 AG", "city": "ROTTERDAM"},
{"id": 225281, "swift_code": "RGVMNL2RZEU", "bank_code": "RGVM", "branch_code": null, "branch": null, "bank": "ROBECO INSTITUTIONAL ASSET MANAGEMENT B.V.", "address": "Coolsingel 120", "zip": "3011 AG", "city": "ROTTERDAM"},
{"id": 225281, "swift_code": "RGVMNL2RCER", "bank_code": "RGVM", "branch_code": null, "branch": null, "bank": "ROBECO INSTITUTIONAL ASSET MANAGEMENT B.V.", "address": "Coolsingel 120", "zip": "3011 AG", "city": "ROTTERDAM"},
{"id": 225281, "swift_code": "RGVMNL2R091", "bank_code": "RGVM", "branch_code": null, "branch": null, "bank": "ROBECO INSTITUTIONAL ASSET MANAGEMENT B.V.", "address": "Coolsingel 120", "zip": "3011 AG", "city": "ROTTERDAM"},
{"id": 225281, "swift_code": "RGVMNL2R092", "bank_code": "RGVM", "branch_code": null, "branch": null, "bank": "ROBECO INSTITUTIONAL ASSET MANAGEMENT B.V.", "address": "Coolsingel 120", "zip": "3011 AG", "city": "ROTTERDAM"},
{"id": 225281, "swift_code": "RGVMNL2R093", "bank_code": "RGVM", "branch_code": null, "branch": null, "bank": "ROBECO INSTITUTIONAL ASSET MANAGEMENT B.V.", "address": "Coolsingel 120", "zip": "3011 AG", "city": "ROTTERDAM"},
{"id": 225281, "swift_code": "RGVMNL2R095", "bank_code": "RGVM", "branch_code": null, "branch": null, "bank": "ROBECO INSTITUTIONAL ASSET MANAGEMENT B.V.", "address": "Coolsingel 120", "zip": "3011 AG", "city": "ROTTERDAM"},
{"id": 225281, "swift_code": "RGVMNL2R095", "bank_code": "RGVM", "branch_code": null, "branch": null, "bank": "ROBECO INSTITUTIONAL ASSET MANAGEMENT B.V.", "address": "Coolsingel 120", "zip": "3011 AG", "city": "ROTTERDAM"},
{"id": 225281, "swift_code": "RGVMNL2R096", "bank_code": "RGVM", "branch_code": null, "branch": null, "bank": "ROBECO INSTITUTIONAL ASSET MANAGEMENT B.V.", "address": "Coolsingel 120", "zip": "3011 AG", "city": "ROTTERDAM"},
{"id": 225281, "swift_code": "RGVMNL2R097", "bank_code": "RGVM", "branch_code": null, "branch": null, "bank": "ROBECO INSTITUTIONAL ASSET MANAGEMENT B.V.", "address": "Coolsingel 120", "zip": "3011 AG", "city": "ROTTERDAM"},
{"id": 225281, "swift_code": "RGVMNL2R098", "bank_code": "RGVM", "branch_code": null, "branch": null, "bank": "ROBECO INSTITUTIONAL ASSET MANAGEMENT B.V.", "address": "Coolsingel 120", "zip": "3011 AG", "city": "ROTTERDAM"},
{"id": 225281, "swift_code": "RGVMNL2R099", "bank_code": "RGVM", "branch_code": null, "branch": null, "bank": "ROBECO INSTITUTIONAL ASSET MANAGEMENT B.V.", "address": "Coolsingel 120", "zip": "3011 AG", "city": "ROTTERDAM"},
{"id": 225281, "swift_code": "RGVMNL2R100", "bank_code": "RGVM", "branch_code": null, "branch": null, "bank": "ROBECO INSTITUTIONAL ASSET MANAGEMENT B.V.", "address": "Coolsingel 120", "zip": "3011 AG", "city": "ROTTERDAM"},
{"id": 225281, "swift_code": "RGVMNL2R101", "bank_code": "RGVM", "branch_code": null, "branch": null, "bank": "ROBECO INSTITUTIONAL ASSET MANAGEMENT B.V.", "address": "Coolsingel 120", "zip": "3011 AG", "city": "ROTTERDAM"},
{"id": 225281, "swift_code": "RGVMNL2R102", "bank_code": "RGVM", "branch_code": null, "branch": null, "bank": "ROBECO INSTITUTIONAL ASSET MANAGEMENT B.V.", "address": "Coolsingel 120", "zip": "3011 AG", "city": "ROTTERDAM"},
{"id": 225281, "swift_code": "RGVMNL2R103", "bank_code": "RGVM", "branch_code": null, "branch": null, "bank": "ROBECO INSTITUTIONAL ASSET MANAGEMENT B.V.", "address": "Coolsingel 120", "zip": "3011 AG", "city": "ROTTERDAM"},
{"id": 225281, "swift_code": "RGVMNL2R104", "bank_code": "RGVM", "branch_code": null, "branch": null, "bank": "ROBECO INSTITUTIONAL ASSET MANAGEMENT B.V.", "address": "Coolsingel 120", "zip": "3011 AG", "city": "ROTTERDAM"},
{"id": 225281, "swift_code": "RGVMNL2R105", "bank_code": "RGVM", "branch_code": null, "branch": null, "bank": "ROBECO INSTITUTIONAL ASSET MANAGEMENT B.V.", "address": "Coolsingel 120", "zip": "3011 AG", "city": "ROTTERDAM"},
{"id": 225281, "swift_code": "RGVMNL2R106", "bank_code": "RGVM", "branch_code": null, "branch": null, "bank": "ROBECO INSTITUTIONAL ASSET MANAGEMENT B.V.", "address": "Coolsingel 120", "zip": "3011 AG", "city": "ROTTERDAM"},
{"id": 225281, "swift_code": "RGVMNL2R107", "bank_code": "RGVM", "branch_code": null, "branch": null, "bank": "ROBECO INSTITUTIONAL ASSET MANAGEMENT B.V.", "address": "Coolsingel 120", "zip": "3011 AG", "city": "ROTTERDAM"},
{"id": 225281, "swift_code": "RGVMNL2RDHO", "bank_code": "RGVM", "branch_code": null, "branch": null, "bank": "ROBECO INSTITUTIONAL ASSET MANAGEMENT B.V.", "address": "Coolsingel 120", "zip": "3011 AG", "city": "ROTTERDAM"},
{"id": 225281, "swift_code": "RGVMNL2RLON", "bank_code": "RGVM", "branch_code": null, "branch": null, "bank": "ROBECO INSTITUTIONAL ASSET MANAGEMENT B.V.", "address": "Coolsingel 120", "zip": "3011 AG", "city": "ROTTERDAM"},
{"id": 29241, "swift_code": "RGRBNL2RP10", "bank_code": "RGRB", "branch_code": null, "branch": null, "bank": "ROBECO DIRECT N.V.", "address": "COOLSINGEL 120", "zip": "3011 AG", "city": "ROTTERDAM"},
{"id": 29241, "swift_code": "RGRBNL2RP11", "bank_code": "RGRB", "branch_code": null, "branch": null, "bank": "ROBECO DIRECT N.V.", "address": "COOLSINGEL 120", "zip": "3011 AG", "city": "ROTTERDAM"},
{"id": 29241, "swift_code": "RGRBNL2RP12", "bank_code": "RGRB", "branch_code": null, "branch": null, "bank": "ROBECO DIRECT N.V.", "address": "COOLSINGEL 120", "zip": "3011 AG", "city": "ROTTERDAM"},
{"id": 29241, "swift_code": "RGRBNL2RP13", "bank_code": "RGRB", "branch_code": null, "branch": null, "bank": "ROBECO DIRECT N.V.", "address": "COOLSINGEL 120", "zip": "3011 AG", "city": "ROTTERDAM"},
{"id": 29241, "swift_code": "RGRBNL2RP14", "bank_code": "RGRB", "branch_code": null, "branch": null, "bank": "ROBECO DIRECT N.V.", "address": "COOLSINGEL 120", "zip": "3011 AG", "city": "ROTTERDAM"},
{"id": 29241, "swift_code": "RGRBNL2RP16", "bank_code": "RGRB", "branch_code": null, "branch": null, "bank": "ROBECO DIRECT N.V.", "address": "COOLSINGEL 120", "zip": "3011 AG", "city": "ROTTERDAM"},
{"id": 29241, "swift_code": "RGRBNL2RPB2", "bank_code": "RGRB", "branch_code": null, "branch": null, "bank": "ROBECO DIRECT N.V.", "address": "COOLSINGEL 120", "zip": "3011 AG", "city": "ROTTERDAM"},
{"id": 29241, "swift_code": "RGRBNL2RPB3", "bank_code": "RGRB", "branch_code": null, "branch": null, "bank": "ROBECO DIRECT N.V.", "address": "COOLSINGEL 120", "zip": "3011 AG", "city": "ROTTERDAM"},
{"id": 29241, "swift_code": "RGRBNL2RPB4", "bank_code": "RGRB", "branch_code": null, "branch": null, "bank": "ROBECO DIRECT N.V.", "address": "COOLSINGEL 120", "zip": "3011 AG", "city": "ROTTERDAM"},
{"id": 29241, "swift_code": "RGRBNL2RPB5", "bank_code": "RGRB", "branch_code": null, "branch": null, "bank": "ROBECO DIRECT N.V.", "address": "COOLSINGEL 120", "zip": "3011 AG", "city": "ROTTERDAM"},
{"id": 29241, "swift_code": "RGRBNL2RPB6", "bank_code": "RGRB", "branch_code": null, "branch": null, "bank": "ROBECO DIRECT N.V.", "address": "COOLSINGEL 120", "zip": "3011 AG", "city": "ROTTERDAM"},
{"id": 29241, "swift_code": "RGRBNL2RPB7", "bank_code": "RGRB", "branch_code": null, "branch": null, "bank": "ROBECO DIRECT N.V.", "address": "COOLSINGEL 120", "zip": "3011 AG", "city": "ROTTERDAM"},
{"id": 29241, "swift_code": "RGRBNL2RPB8", "bank_code": "RGRB", "branch_code": null, "branch": null, "bank": "ROBECO DIRECT N.V.", "address": "COOLSINGEL 120", "zip": "3011 AG", "city": "ROTTERDAM"},
{"id": 29241, "swift_code": "RGRBNL2RPB9", "bank_code": "RGRB", "branch_code": null, "branch": null, "bank": "ROBECO DIRECT N.V.", "address": "COOLSINGEL 120", "zip": "3011 AG", "city": "ROTTERDAM"},
{"id": 29241, "swift_code": "RGRBNL2RP15", "bank_code": "RGRB", "branch_code": null, "branch": null, "bank": "ROBECO DIRECT N.V.", "address": "COOLSINGEL 120", "zip": "3011 AG", "city": "ROTTERDAM"},
{"id": 29241, "swift_code": "RGRBNL2RAMI", "bank_code": "RGRB", "branch_code": null, "branch": null, "bank": "ROBECO DIRECT N.V.", "address": "COOLSINGEL 120", "zip": "3011 AG", "city": "ROTTERDAM"},
{"id": 29241, "swift_code": "RGRBNL2RBAL", "bank_code": "RGRB", "branch_code": null, "branch": null, "bank": "ROBECO DIRECT N.V.", "address": "COOLSINGEL 120", "zip": "3011 AG", "city": "ROTTERDAM"},
{"id": 29241, "swift_code": "RGRBNL2RBIO", "bank_code": "RGRB", "branch_code": null, "branch": null, "bank": "ROBECO DIRECT N.V.", "address": "COOLSINGEL 120", "zip": "3011 AG", "city": "ROTTERDAM"},
{"id": 29241, "swift_code": "RGRBNL2RBMI", "bank_code": "RGRB", "branch_code": null, "branch": null, "bank": "ROBECO DIRECT N.V.", "address": "COOLSINGEL 120", "zip": "3011 AG", "city": "ROTTERDAM"},
{"id": 29241, "swift_code": "RGRBNL2RDIV", "bank_code": "RGRB", "branch_code": null, "branch": null, "bank": "ROBECO DIRECT N.V.", "address": "COOLSINGEL 120", "zip": "3011 AG", "city": "ROTTERDAM"},
{"id": 29241, "swift_code": "RGRBNL2RDUU", "bank_code": "RGRB", "branch_code": null, "branch": null, "bank": "ROBECO DIRECT N.V.", "address": "COOLSINGEL 120", "zip": "3011 AG", "city": "ROTTERDAM"},
{"id": 29241, "swift_code": "RGRBNL2RDYN", "bank_code": "RGRB", "branch_code": null, "branch": null, "bank": "ROBECO DIRECT N.V.", "address": "COOLSINGEL 120", "zip": "3011 AG", "city": "ROTTERDAM"},
{"id": 29241, "swift_code": "RGRBNL2REUD", "bank_code": "RGRB", "branch_code": null, "branch": null, "bank": "ROBECO DIRECT N.V.", "address": "COOLSINGEL 120", "zip": "3011 AG", "city": "ROTTERDAM"},
{"id": 29241, "swift_code": "RGRBNL2RHBZ", "bank_code": "RGRB", "branch_code": null, "branch": null, "bank": "ROBECO DIRECT N.V.", "address": "COOLSINGEL 120", "zip": "3011 AG", "city": "ROTTERDAM"},
{"id": 29241, "swift_code": "RGRBNL2RHDM", "bank_code": "RGRB", "branch_code": null, "branch": null, "bank": "ROBECO DIRECT N.V.", "address": "COOLSINGEL 120", "zip": "3011 AG", "city": "ROTTERDAM"},
{"id": 29241, "swift_code": "RGRBNL2RHIF", "bank_code": "RGRB", "branch_code": null, "branch": null, "bank": "ROBECO DIRECT N.V.", "address": "COOLSINGEL 120", "zip": "3011 AG", "city": "ROTTERDAM"},
{"id": 29241, "swift_code": "RGRBNL2RHMX", "bank_code": "RGRB", "branch_code": null, "branch": null, "bank": "ROBECO DIRECT N.V.", "address": "COOLSINGEL 120", "zip": "3011 AG", "city": "ROTTERDAM"},
{"id": 29241, "swift_code": "RGRBNL2RHYO", "bank_code": "RGRB", "branch_code": null, "branch": null, "bank": "ROBECO DIRECT N.V.", "address": "COOLSINGEL 120", "zip": "3011 AG", "city": "ROTTERDAM"},
{"id": 29241, "swift_code": "RGRBNL2RICA", "bank_code": "RGRB", "branch_code": null, "branch": null, "bank": "ROBECO DIRECT N.V.", "address": "COOLSINGEL 120", "zip": "3011 AG", "city": "ROTTERDAM"},
{"id": 29241, "swift_code": "RGRBNL2RICB", "bank_code": "RGRB", "branch_code": null, "branch": null, "bank": "ROBECO DIRECT N.V.", "address": "COOLSINGEL 120", "zip": "3011 AG", "city": "ROTTERDAM"},
{"id": 29241, "swift_code": "RGRBNL2RIG1", "bank_code": "RGRB", "branch_code": null, "branch": null, "bank": "ROBECO DIRECT N.V.", "address": "COOLSINGEL 120", "zip": "3011 AG", "city": "ROTTERDAM"},
{"id": 29241, "swift_code": "RGRBNL2RIG2", "bank_code": "RGRB", "branch_code": null, "branch": null, "bank": "ROBECO DIRECT N.V.", "address": "COOLSINGEL 120", "zip": "3011 AG", "city": "ROTTERDAM"},
{"id": 29241, "swift_code": "RGRBNL2RIG3", "bank_code": "RGRB", "branch_code": null, "branch": null, "bank": "ROBECO DIRECT N.V.", "address": "COOLSINGEL 120", "zip": "3011 AG", "city": "ROTTERDAM"},
{"id": 29241, "swift_code": "RGRBNL2ROMI", "bank_code": "RGRB", "branch_code": null, "branch": null, "bank": "ROBECO DIRECT N.V.", "address": "COOLSINGEL 120", "zip": "3011 AG", "city": "ROTTERDAM"},
{"id": 29241, "swift_code": "RGRBNL2ROPA", "bank_code": "RGRB", "branch_code": null, "branch": null, "bank": "ROBECO DIRECT N.V.", "address": "COOLSINGEL 120", "zip": "3011 AG", "city": "ROTTERDAM"},
{"id": 29241, "swift_code": "RGRBNL2RRAF", "bank_code": "RGRB", "branch_code": null, "branch": null, "bank": "ROBECO DIRECT N.V.", "address": "COOLSINGEL 120", "zip": "3011 AG", "city": "ROTTERDAM"},
{"id": 29241, "swift_code": "RGRBNL2RRCP", "bank_code": "RGRB", "branch_code": null, "branch": null, "bank": "ROBECO DIRECT N.V.", "address": "COOLSINGEL 120", "zip": "3011 AG", "city": "ROTTERDAM"},
{"id": 29241, "swift_code": "RGRBNL2RRMI", "bank_code": "RGRB", "branch_code": null, "branch": null, "bank": "ROBECO DIRECT N.V.", "address": "COOLSINGEL 120", "zip": "3011 AG", "city": "ROTTERDAM"},
{"id": 29241, "swift_code": "RGRBNL2RROB", "bank_code": "RGRB", "branch_code": null, "branch": null, "bank": "ROBECO DIRECT N.V.", "address": "COOLSINGEL 120", "zip": "3011 AG", "city": "ROTTERDAM"},
{"id": 29241, "swift_code": "RGRBNL2RROP", "bank_code": "RGRB", "branch_code": null, "branch": null, "bank": "ROBECO DIRECT N.V.", "address": "COOLSINGEL 120", "zip": "3011 AG", "city": "ROTTERDAM"},
{"id": 29241, "swift_code": "RGRBNL2RROP", "bank_code": "RGRB", "branch_code": null, "branch": null, "bank": "ROBECO DIRECT N.V.", "address": "COOLSINGEL 120", "zip": "3011 AG", "city": "ROTTERDAM"},
{"id": 29241, "swift_code": "RGRBNL2RROR", "bank_code": "RGRB", "branch_code": null, "branch": null, "bank": "ROBECO DIRECT N.V.", "address": "COOLSINGEL 120", "zip": "3011 AG", "city": "ROTTERDAM"},
{"id": 29241, "swift_code": "RGRBNL2RROZ", "bank_code": "RGRB", "branch_code": null, "branch": null, "bank": "ROBECO DIRECT N.V.", "address": "COOLSINGEL 120", "zip": "3011 AG", "city": "ROTTERDAM"},
{"id": 29241, "swift_code": "RGRBNL2RRPE", "bank_code": "RGRB", "branch_code": null, "branch": null, "bank": "ROBECO DIRECT N.V.", "address": "COOLSINGEL 120", "zip": "3011 AG", "city": "ROTTERDAM"},
{"id": 29241, "swift_code": "RGRBNL2RRSL", "bank_code": "RGRB", "branch_code": null, "branch": null, "bank": "ROBECO DIRECT N.V.", "address": "COOLSINGEL 120", "zip": "3011 AG", "city": "ROTTERDAM"},
{"id": 29241, "swift_code": "RGRBNL2RRUB", "bank_code": "RGRB", "branch_code": null, "branch": null, "bank": "ROBECO DIRECT N.V.", "address": "COOLSINGEL 120", "zip": "3011 AG", "city": "ROTTERDAM"},
{"id": 29241, "swift_code": "RGRBNL2RSFM", "bank_code": "RGRB", "branch_code": null, "branch": null, "bank": "ROBECO DIRECT N.V.", "address": "COOLSINGEL 120", "zip": "3011 AG", "city": "ROTTERDAM"},
{"id": 29241, "swift_code": "RGRBNL2RSOM", "bank_code": "RGRB", "branch_code": null, "branch": null, "bank": "ROBECO DIRECT N.V.", "address": "COOLSINGEL 120", "zip": "3011 AG", "city": "ROTTERDAM"},
{"id": 29241, "swift_code": "RGRBNL2RTOP", "bank_code": "RGRB", "branch_code": null, "branch": null, "bank": "ROBECO DIRECT N.V.", "address": "COOLSINGEL 120", "zip": "3011 AG", "city": "ROTTERDAM"},
{"id": 29241, "swift_code": "RGRBNL2RXXX", "bank_code": "RGRB", "branch_code": null, "branch": null, "bank": "ROBECO DIRECT N.V.", "address": "COOLSINGEL 120", "zip": "3011 AG", "city": "ROTTERDAM"},
{"id": 29241, "swift_code": "RGRBNL2R10L", "bank_code": "RGRB", "branch_code": null, "branch": null, "bank": "ROBECO DIRECT N.V.", "address": "COOLSINGEL 120", "zip": "3011 AG", "city": "ROTTERDAM"},
{"id": 29241, "swift_code": "RGRBNL2R40L", "bank_code": "RGRB", "branch_code": null, "branch": null, "bank": "ROBECO DIRECT N.V.", "address": "COOLSINGEL 120", "zip": "3011 AG", "city": "ROTTERDAM"},
{"id": 29241, "swift_code": "RGRBNL2RACG", "bank_code": "RGRB", "branch_code": null, "branch": null, "bank": "ROBECO DIRECT N.V.", "address": "COOLSINGEL 120", "zip": "3011 AG", "city": "ROTTERDAM"},
{"id": 29241, "swift_code": "RGRBNL2RAGB", "bank_code": "RGRB", "branch_code": null, "branch": null, "bank": "ROBECO DIRECT N.V.", "address": "COOLSINGEL 120", "zip": "3011 AG", "city": "ROTTERDAM"},
{"id": 29241, "swift_code": "RGRBNL2RAMA", "bank_code": "RGRB", "branch_code": null, "branch": null, "bank": "ROBECO DIRECT N.V.", "address": "COOLSINGEL 120", "zip": "3011 AG", "city": "ROTTERDAM"},
{"id": 29241, "swift_code": "RGRBNL2RAPN", "bank_code": "RGRB", "branch_code": null, "branch": null, "bank": "ROBECO DIRECT N.V.", "address": "COOLSINGEL 120", "zip": "3011 AG", "city": "ROTTERDAM"},
{"id": 29241, "swift_code": "RGRBNL2RARE", "bank_code": "RGRB", "branch_code": null, "branch": null, "bank": "ROBECO DIRECT N.V.", "address": "COOLSINGEL 120", "zip": "3011 AG", "city": "ROTTERDAM"},
{"id": 29241, "swift_code": "RGRBNL2RAS1", "bank_code": "RGRB", "branch_code": null, "branch": null, "bank": "ROBECO DIRECT N.V.", "address": "COOLSINGEL 120", "zip": "3011 AG", "city": "ROTTERDAM"},
{"id": 29241, "swift_code": "RGRBNL2RASU", "bank_code": "RGRB", "branch_code": null, "branch": null, "bank": "ROBECO DIRECT N.V.", "address": "COOLSINGEL 120", "zip": "3011 AG", "city": "ROTTERDAM"},
{"id": 29241, "swift_code": "RGRBNL2RBPD", "bank_code": "RGRB", "branch_code": null, "branch": null, "bank": "ROBECO DIRECT N.V.", "address": "COOLSINGEL 120", "zip": "3011 AG", "city": "ROTTERDAM"},
{"id": 29241, "swift_code": "RGRBNL2RCCE", "bank_code": "RGRB", "branch_code": null, "branch": null, "bank": "ROBECO DIRECT N.V.", "address": "COOLSINGEL 120", "zip": "3011 AG", "city": "ROTTERDAM"},
{"id": 29241, "swift_code": "RGRBNL2RCCO", "bank_code": "RGRB", "branch_code": null, "branch": null, "bank": "ROBECO DIRECT N.V.", "address": "COOLSINGEL 120", "zip": "3011 AG", "city": "ROTTERDAM"},
{"id": 29241, "swift_code": "RGRBNL2RCDE", "bank_code": "RGRB", "branch_code": null, "branch": null, "bank": "ROBECO DIRECT N.V.", "address": "COOLSINGEL 120", "zip": "3011 AG", "city": "ROTTERDAM"},
{"id": 29241, "swift_code": "RGRBNL2RCE1", "bank_code": "RGRB", "branch_code": null, "branch": null, "bank": "ROBECO DIRECT N.V.", "address": "COOLSINGEL 120", "zip": "3011 AG", "city": "ROTTERDAM"},
{"id": 29241, "swift_code": "RGRBNL2RCE8", "bank_code": "RGRB", "branch_code": null, "branch": null, "bank": "ROBECO DIRECT N.V.", "address": "COOLSINGEL 120", "zip": "3011 AG", "city": "ROTTERDAM"},
{"id": 29241, "swift_code": "RGRBNL2RCEH", "bank_code": "RGRB", "branch_code": null, "branch": null, "bank": "ROBECO DIRECT N.V.", "address": "COOLSINGEL 120", "zip": "3011 AG", "city": "ROTTERDAM"},
{"id": 29241, "swift_code": "RGRBNL2RCFW", "bank_code": "RGRB", "branch_code": null, "branch": null, "bank": "ROBECO DIRECT N.V.", "address": "COOLSINGEL 120", "zip": "3011 AG", "city": "ROTTERDAM"},
{"id": 29241, "swift_code": "RGRBNL2RCGI", "bank_code": "RGRB", "branch_code": null, "branch": null, "bank": "ROBECO DIRECT N.V.", "address": "COOLSINGEL 120", "zip": "3011 AG", "city": "ROTTERDAM"},
{"id": 29241, "swift_code": "RGRBNL2RCLI", "bank_code": "RGRB", "branch_code": null, "branch": null, "bank": "ROBECO DIRECT N.V.", "address": "COOLSINGEL 120", "zip": "3011 AG", "city": "ROTTERDAM"},
{"id": 29241, "swift_code": "RGRBNL2RCOB", "bank_code": "RGRB", "branch_code": null, "branch": null, "bank": "ROBECO DIRECT N.V.", "address": "COOLSINGEL 120", "zip": "3011 AG", "city": "ROTTERDAM"},
{"id": 29241, "swift_code": "RGRBNL2RCUB", "bank_code": "RGRB", "branch_code": null, "branch": null, "bank": "ROBECO DIRECT N.V.", "address": "COOLSINGEL 120", "zip": "3011 AG", "city": "ROTTERDAM"},
{"id": 29241, "swift_code": "RGRBNL2RCUU", "bank_code": "RGRB", "branch_code": null, "branch": null, "bank": "ROBECO DIRECT N.V.", "address": "COOLSINGEL 120", "zip": "3011 AG", "city": "ROTTERDAM"},
{"id": 29241, "swift_code": "RGRBNL2RDHC", "bank_code": "RGRB", "branch_code": null, "branch": null, "bank": "ROBECO DIRECT N.V.", "address": "COOLSINGEL 120", "zip": "3011 AG", "city": "ROTTERDAM"},
{"id": 29241, "swift_code": "RGRBNL2RE13", "bank_code": "RGRB", "branch_code": null, "branch": null, "bank": "ROBECO DIRECT N.V.", "address": "COOLSINGEL 120", "zip": "3011 AG", "city": "ROTTERDAM"},
{"id": 29241, "swift_code": "RGRBNL2REBN", "bank_code": "RGRB", "branch_code": null, "branch": null, "bank": "ROBECO DIRECT N.V.", "address": "COOLSINGEL 120", "zip": "3011 AG", "city": "ROTTERDAM"},
{"id": 29241, "swift_code": "RGRBNL2REC1", "bank_code": "RGRB", "branch_code": null, "branch": null, "bank": "ROBECO DIRECT N.V.", "address": "COOLSINGEL 120", "zip": "3011 AG", "city": "ROTTERDAM"},
{"id": 29241, "swift_code": "RGRBNL2REC7", "bank_code": "RGRB", "branch_code": null, "branch": null, "bank": "ROBECO DIRECT N.V.", "address": "COOLSINGEL 120", "zip": "3011 AG", "city": "ROTTERDAM"},
{"id": 29241, "swift_code": "RGRBNL2REC8", "bank_code": "RGRB", "branch_code": null, "branch": null, "bank": "ROBECO DIRECT N.V.", "address": "COOLSINGEL 120", "zip": "3011 AG", "city": "ROTTERDAM"},
{"id": 29241, "swift_code": "RGRBNL2RECB", "bank_code": "RGRB", "branch_code": null, "branch": null, "bank": "ROBECO DIRECT N.V.", "address": "COOLSINGEL 120", "zip": "3011 AG", "city": "ROTTERDAM"},
{"id": 29241, "swift_code": "RGRBNL2REDS", "bank_code": "RGRB", "branch_code": null, "branch": null, "bank": "ROBECO DIRECT N.V.", "address": "COOLSINGEL 120", "zip": "3011 AG", "city": "ROTTERDAM"},
{"id": 29241, "swift_code": "RGRBNL2REFG", "bank_code": "RGRB", "branch_code": null, "branch": null, "bank": "ROBECO DIRECT N.V.", "address": "COOLSINGEL 120", "zip": "3011 AG", "city": "ROTTERDAM"},
{"id": 29241, "swift_code": "RGRBNL2REGB", "bank_code": "RGRB", "branch_code": null, "branch": null, "bank": "ROBECO DIRECT N.V.", "address": "COOLSINGEL 120", "zip": "3011 AG", "city": "ROTTERDAM"},
{"id": 29241, "swift_code": "RGRBNL2REM1", "bank_code": "RGRB", "branch_code": null, "branch": null, "bank": "ROBECO DIRECT N.V.", "address": "COOLSINGEL 120", "zip": "3011 AG", "city": "ROTTERDAM"},
{"id": 29241, "swift_code": "RGRBNL2REM4", "bank_code": "RGRB", "branch_code": null, "branch": null, "bank": "ROBECO DIRECT N.V.", "address": "COOLSINGEL 120", "zip": "3011 AG", "city": "ROTTERDAM"},
{"id": 29241, "swift_code": "RGRBNL2REMN", "bank_code": "RGRB", "branch_code": null, "branch": null, "bank": "ROBECO DIRECT N.V.", "address": "COOLSINGEL 120", "zip": "3011 AG", "city": "ROTTERDAM"},
{"id": 29241, "swift_code": "RGRBNL2REMQ", "bank_code": "RGRB", "branch_code": null, "branch": null, "bank": "ROBECO DIRECT N.V.", "address": "COOLSINGEL 120", "zip": "3011 AG", "city": "ROTTERDAM"},
{"id": 29241, "swift_code": "RGRBNL2REMS", "bank_code": "RGRB", "branch_code": null, "branch": null, "bank": "ROBECO DIRECT N.V.", "address": "COOLSINGEL 120", "zip": "3011 AG", "city": "ROTTERDAM"},
{"id": 29241, "swift_code": "RGRBNL2REMT", "bank_code": "RGRB", "branch_code": null, "branch": null, "bank": "ROBECO DIRECT N.V.", "address": "COOLSINGEL 120", "zip": "3011 AG", "city": "ROTTERDAM"},
{"id": 29241, "swift_code": "RGRBNL2REMV", "bank_code": "RGRB", "branch_code": null, "branch": null, "bank": "ROBECO DIRECT N.V.", "address": "COOLSINGEL 120", "zip": "3011 AG", "city": "ROTTERDAM"},
{"id": 29241, "swift_code": "RGRBNL2RENE", "bank_code": "RGRB", "branch_code": null, "branch": null, "bank": "ROBECO DIRECT N.V.", "address": "COOLSINGEL 120", "zip": "3011 AG", "city": "ROTTERDAM"},
{"id": 29241, "swift_code": "RGRBNL2RESC", "bank_code": "RGRB", "branch_code": null, "branch": null, "bank": "ROBECO DIRECT N.V.", "address": "COOLSINGEL 120", "zip": "3011 AG", "city": "ROTTERDAM"},
{"id": 29241, "swift_code": "RGRBNL2REUN", "bank_code": "RGRB", "branch_code": null, "branch": null, "bank": "ROBECO DIRECT N.V.", "address": "COOLSINGEL 120", "zip": "3011 AG", "city": "ROTTERDAM"},
{"id": 29241, "swift_code": "RGRBNL2REXC", "bank_code": "RGRB", "branch_code": null, "branch": null, "bank": "ROBECO DIRECT N.V.", "address": "COOLSINGEL 120", "zip": "3011 AG", "city": "ROTTERDAM"},
{"id": 29241, "swift_code": "RGRBNL2RFCD", "bank_code": "RGRB", "branch_code": null, "branch": null, "bank": "ROBECO DIRECT N.V.", "address": "COOLSINGEL 120", "zip": "3011 AG", "city": "ROTTERDAM"},
{"id": 29241, "swift_code": "RGRBNL2RFCI", "bank_code": "RGRB", "branch_code": null, "branch": null, "bank": "ROBECO DIRECT N.V.", "address": "COOLSINGEL 120", "zip": "3011 AG", "city": "ROTTERDAM"},
{"id": 29241, "swift_code": "RGRBNL2RFEU", "bank_code": "RGRB", "branch_code": null, "branch": null, "bank": "ROBECO DIRECT N.V.", "address": "COOLSINGEL 120", "zip": "3011 AG", "city": "ROTTERDAM"},
{"id": 29241, "swift_code": "RGRBNL2RFIB", "bank_code": "RGRB", "branch_code": null, "branch": null, "bank": "ROBECO DIRECT N.V.", "address": "COOLSINGEL 120", "zip": "3011 AG", "city": "ROTTERDAM"},
{"id": 29241, "swift_code": "RGRBNL2RFIE", "bank_code": "RGRB", "branch_code": null, "branch": null, "bank": "ROBECO DIRECT N.V.", "address": "COOLSINGEL 120", "zip": "3011 AG", "city": "ROTTERDAM"},
{"id": 29241, "swift_code": "RGRBNL2RGCE", "bank_code": "RGRB", "branch_code": null, "branch": null, "bank": "ROBECO DIRECT N.V.", "address": "COOLSINGEL 120", "zip": "3011 AG", "city": "ROTTERDAM"},
{"id": 29241, "swift_code": "RGRBNL2RGCS", "bank_code": "RGRB", "branch_code": null, "branch": null, "bank": "ROBECO DIRECT N.V.", "address": "COOLSINGEL 120", "zip": "3011 AG", "city": "ROTTERDAM"},
{"id": 29241, "swift_code": "RGRBNL2RGFR", "bank_code": "RGRB", "branch_code": null, "branch": null, "bank": "ROBECO DIRECT N.V.", "address": "COOLSINGEL 120", "zip": "3011 AG", "city": "ROTTERDAM"},
{"id": 29241, "swift_code": "RGRBNL2RGLF", "bank_code": "RGRB", "branch_code": null, "branch": null, "bank": "ROBECO DIRECT N.V.", "address": "COOLSINGEL 120", "zip": "3011 AG", "city": "ROTTERDAM"},
{"id": 29241, "swift_code": "RGRBNL2RGLK", "bank_code": "RGRB", "branch_code": null, "branch": null, "bank": "ROBECO DIRECT N.V.", "address": "COOLSINGEL 120", "zip": "3011 AG", "city": "ROTTERDAM"},
{"id": 29241, "swift_code": "RGRBNL2RGLV", "bank_code": "RGRB", "branch_code": null, "branch": null, "bank": "ROBECO DIRECT N.V.", "address": "COOLSINGEL 120", "zip": "3011 AG", "city": "ROTTERDAM"},
{"id": 29241, "swift_code": "RGRBNL2RGSR", "bank_code": "RGRB", "branch_code": null, "branch": null, "bank": "ROBECO DIRECT N.V.", "address": "COOLSINGEL 120", "zip": "3011 AG", "city": "ROTTERDAM"},
{"id": 29241, "swift_code": "RGRBNL2RGTA", "bank_code": "RGRB", "branch_code": null, "branch": null, "bank": "ROBECO DIRECT N.V.", "address": "COOLSINGEL 120", "zip": "3011 AG", "city": "ROTTERDAM"},
{"id": 29241, "swift_code": "RGRBNL2RH13", "bank_code": "RGRB", "branch_code": null, "branch": null, "bank": "ROBECO DIRECT N.V.", "address": "COOLSINGEL 120", "zip": "3011 AG", "city": "ROTTERDAM"},
{"id": 29241, "swift_code": "RGRBNL2RHAL", "bank_code": "RGRB", "branch_code": null, "branch": null, "bank": "ROBECO DIRECT N.V.", "address": "COOLSINGEL 120", "zip": "3011 AG", "city": "ROTTERDAM"},
{"id": 29241, "swift_code": "RGRBNL2RHB0", "bank_code": "RGRB", "branch_code": null, "branch": null, "bank": "ROBECO DIRECT N.V.", "address": "COOLSINGEL 120", "zip": "3011 AG", "city": "ROTTERDAM"},
{"id": 29241, "swift_code": "RGRBNL2RHBH", "bank_code": "RGRB", "branch_code": null, "branch": null, "bank": "ROBECO DIRECT N.V.", "address": "COOLSINGEL 120", "zip": "3011 AG", "city": "ROTTERDAM"},
{"id": 29241, "swift_code": "RGRBNL2RHBU", "bank_code": "RGRB", "branch_code": null, "branch": null, "bank": "ROBECO DIRECT N.V.", "address": "COOLSINGEL 120", "zip": "3011 AG", "city": "ROTTERDAM"},
{"id": 29241, "swift_code": "RGRBNL2RHCI", "bank_code": "RGRB", "branch_code": null, "branch": null, "bank": "ROBECO DIRECT N.V.", "address": "COOLSINGEL 120", "zip": "3011 AG", "city": "ROTTERDAM"},
{"id": 29241, "swift_code": "RGRBNL2RHY0", "bank_code": "RGRB", "branch_code": null, "branch": null, "bank": "ROBECO DIRECT N.V.", "address": "COOLSINGEL 120", "zip": "3011 AG", "city": "ROTTERDAM"},
{"id": 29241, "swift_code": "RGRBNL2RHYA", "bank_code": "RGRB", "branch_code": null, "branch": null, "bank": "ROBECO DIRECT N.V.", "address": "COOLSINGEL 120", "zip": "3011 AG", "city": "ROTTERDAM"},
{"id": 29241, "swift_code": "RGRBNL2RIEH", "bank_code": "RGRB", "branch_code": null, "branch": null, "bank": "ROBECO DIRECT N.V.", "address": "COOLSINGEL 120", "zip": "3011 AG", "city": "ROTTERDAM"},
{"id": 29241, "swift_code": "RGRBNL2RIFD", "bank_code": "RGRB", "branch_code": null, "branch": null, "bank": "ROBECO DIRECT N.V.", "address": "COOLSINGEL 120", "zip": "3011 AG", "city": "ROTTERDAM"},
{"id": 29241, "swift_code": "RGRBNL2RIGB", "bank_code": "RGRB", "branch_code": null, "branch": null, "bank": "ROBECO DIRECT N.V.", "address": "COOLSINGEL 120", "zip": "3011 AG", "city": "ROTTERDAM"},
{"id": 29241, "swift_code": "RGRBNL2RIGC", "bank_code": "RGRB", "branch_code": null, "branch": null, "bank": "ROBECO DIRECT N.V.", "address": "COOLSINGEL 120", "zip": "3011 AG", "city": "ROTTERDAM"},
{"id": 29241, "swift_code": "RGRBNL2RIGH", "bank_code": "RGRB", "branch_code": null, "branch": null, "bank": "ROBECO DIRECT N.V.", "address": "COOLSINGEL 120", "zip": "3011 AG", "city": "ROTTERDAM"},
{"id": 29241, "swift_code": "RGRBNL2RIH1", "bank_code": "RGRB", "branch_code": null, "branch": null, "bank": "ROBECO DIRECT N.V.", "address": "COOLSINGEL 120", "zip": "3011 AG", "city": "ROTTERDAM"},
{"id": 29241, "swift_code": "RGRBNL2RINF", "bank_code": "RGRB", "branch_code": null, "branch": null, "bank": "ROBECO DIRECT N.V.", "address": "COOLSINGEL 120", "zip": "3011 AG", "city": "ROTTERDAM"},
{"id": 29241, "swift_code": "RGRBNL2RLCD", "bank_code": "RGRB", "branch_code": null, "branch": null, "bank": "ROBECO DIRECT N.V.", "address": "COOLSINGEL 120", "zip": "3011 AG", "city": "ROTTERDAM"},
{"id": 29241, "swift_code": "RGRBNL2RLCE", "bank_code": "RGRB", "branch_code": null, "branch": null, "bank": "ROBECO DIRECT N.V.", "address": "COOLSINGEL 120", "zip": "3011 AG", "city": "ROTTERDAM"},
{"id": 29241, "swift_code": "RGRBNL2RLCX", "bank_code": "RGRB", "branch_code": null, "branch": null, "bank": "ROBECO DIRECT N.V.", "address": "COOLSINGEL 120", "zip": "3011 AG", "city": "ROTTERDAM"},
{"id": 29241, "swift_code": "RGRBNL2RLFH", "bank_code": "RGRB", "branch_code": null, "branch": null, "bank": "ROBECO DIRECT N.V.", "address": "COOLSINGEL 120", "zip": "3011 AG", "city": "ROTTERDAM"},
{"id": 29241, "swift_code": "RGRBNL2RLGH", "bank_code": "RGRB", "branch_code": null, "branch": null, "bank": "ROBECO DIRECT N.V.", "address": "COOLSINGEL 120", "zip": "3011 AG", "city": "ROTTERDAM"},
{"id": 29241, "swift_code": "RGRBNL2RLUD", "bank_code": "RGRB", "branch_code": null, "branch": null, "bank": "ROBECO DIRECT N.V.", "address": "COOLSINGEL 120", "zip": "3011 AG", "city": "ROTTERDAM"},
{"id": 29241, "swift_code": "RGRBNL2RLUF", "bank_code": "RGRB", "branch_code": null, "branch": null, "bank": "ROBECO DIRECT N.V.", "address": "COOLSINGEL 120", "zip": "3011 AG", "city": "ROTTERDAM"},
{"id": 29241, "swift_code": "RGRBNL2RMLT", "bank_code": "RGRB", "branch_code": null, "branch": null, "bank": "ROBECO DIRECT N.V.", "address": "COOLSINGEL 120", "zip": "3011 AG", "city": "ROTTERDAM"},
{"id": 29241, "swift_code": "RGRBNL2RMOM", "bank_code": "RGRB", "branch_code": null, "branch": null, "bank": "ROBECO DIRECT N.V.", "address": "COOLSINGEL 120", "zip": "3011 AG", "city": "ROTTERDAM"},
{"id": 29241, "swift_code": "RGRBNL2RMSA", "bank_code": "RGRB", "branch_code": null, "branch": null, "bank": "ROBECO DIRECT N.V.", "address": "COOLSINGEL 120", "zip": "3011 AG", "city": "ROTTERDAM"},
{"id": 29241, "swift_code": "RGRBNL2RNEM", "bank_code": "RGRB", "branch_code": null, "branch": null, "bank": "ROBECO DIRECT N.V.", "address": "COOLSINGEL 120", "zip": "3011 AG", "city": "ROTTERDAM"},
{"id": 29241, "swift_code": "RGRBNL2RNIK", "bank_code": "RGRB", "branch_code": null, "branch": null, "bank": "ROBECO DIRECT N.V.", "address": "COOLSINGEL 120", "zip": "3011 AG", "city": "ROTTERDAM"},
{"id": 29241, "swift_code": "RGRBNL2RNOM", "bank_code": "RGRB", "branch_code": null, "branch": null, "bank": "ROBECO DIRECT N.V.", "address": "COOLSINGEL 120", "zip": "3011 AG", "city": "ROTTERDAM"},
{"id": 29241, "swift_code": "RGRBNL2ROIU", "bank_code": "RGRB", "branch_code": null, "branch": null, "bank": "ROBECO DIRECT N.V.", "address": "COOLSINGEL 120", "zip": "3011 AG", "city": "ROTTERDAM"},
{"id": 29241, "swift_code": "RGRBNL2ROMH", "bank_code": "RGRB", "branch_code": null, "branch": null, "bank": "ROBECO DIRECT N.V.", "address": "COOLSINGEL 120", "zip": "3011 AG", "city": "ROTTERDAM"},
{"id": 29241, "swift_code": "RGRBNL2RONY", "bank_code": "RGRB", "branch_code": null, "branch": null, "bank": "ROBECO DIRECT N.V.", "address": "COOLSINGEL 120", "zip": "3011 AG", "city": "ROTTERDAM"},
{"id": 29241, "swift_code": "RGRBNL2RPIH", "bank_code": "RGRB", "branch_code": null, "branch": null, "bank": "ROBECO DIRECT N.V.", "address": "COOLSINGEL 120", "zip": "3011 AG", "city": "ROTTERDAM"},
{"id": 29241, "swift_code": "RGRBNL2RQEI", "bank_code": "RGRB", "branch_code": null, "branch": null, "bank": "ROBECO DIRECT N.V.", "address": "COOLSINGEL 120", "zip": "3011 AG", "city": "ROTTERDAM"},
{"id": 29241, "swift_code": "RGRBNL2RQEM", "bank_code": "RGRB", "branch_code": null, "branch": null, "bank": "ROBECO DIRECT N.V.", "address": "COOLSINGEL 120", "zip": "3011 AG", "city": "ROTTERDAM"},
{"id": 29241, "swift_code": "RGRBNL2RQSG", "bank_code": "RGRB", "branch_code": null, "branch": null, "bank": "ROBECO DIRECT N.V.", "address": "COOLSINGEL 120", "zip": "3011 AG", "city": "ROTTERDAM"},
{"id": 29241, "swift_code": "RGRBNL2RR01", "bank_code": "RGRB", "branch_code": null, "branch": null, "bank": "ROBECO DIRECT N.V.", "address": "COOLSINGEL 120", "zip": "3011 AG", "city": "ROTTERDAM"},
{"id": 29241, "swift_code": "RGRBNL2RR02", "bank_code": "RGRB", "branch_code": null, "branch": null, "bank": "ROBECO DIRECT N.V.", "address": "COOLSINGEL 120", "zip": "3011 AG", "city": "ROTTERDAM"},
{"id": 29241, "swift_code": "RGRBNL2RR03", "bank_code": "RGRB", "branch_code": null, "branch": null, "bank": "ROBECO DIRECT N.V.", "address": "COOLSINGEL 120", "zip": "3011 AG", "city": "ROTTERDAM"},
{"id": 29241, "swift_code": "RGRBNL2RR04", "bank_code": "RGRB", "branch_code": null, "branch": null, "bank": "ROBECO DIRECT N.V.", "address": "COOLSINGEL 120", "zip": "3011 AG", "city": "ROTTERDAM"},
{"id": 29241, "swift_code": "RGRBNL2RR05", "bank_code": "RGRB", "branch_code": null, "branch": null, "bank": "ROBECO DIRECT N.V.", "address": "COOLSINGEL 120", "zip": "3011 AG", "city": "ROTTERDAM"},
{"id": 29241, "swift_code": "RGRBNL2RR06", "bank_code": "RGRB", "branch_code": null, "branch": null, "bank": "ROBECO DIRECT N.V.", "address": "COOLSINGEL 120", "zip": "3011 AG", "city": "ROTTERDAM"},
{"id": 29241, "swift_code": "RGRBNL2RR07", "bank_code": "RGRB", "branch_code": null, "branch": null, "bank": "ROBECO DIRECT N.V.", "address": "COOLSINGEL 120", "zip": "3011 AG", "city": "ROTTERDAM"},
{"id": 29241, "swift_code": "RGRBNL2RR08", "bank_code": "RGRB", "branch_code": null, "branch": null, "bank": "ROBECO DIRECT N.V.", "address": "COOLSINGEL 120", "zip": "3011 AG", "city": "ROTTERDAM"},
{"id": 29241, "swift_code": "RGRBNL2RR09", "bank_code": "RGRB", "branch_code": null, "branch": null, "bank": "ROBECO DIRECT N.V.", "address": "COOLSINGEL 120", "zip": "3011 AG", "city": "ROTTERDAM"},
{"id": 29241, "swift_code": "RGRBNL2RR10", "bank_code": "RGRB", "branch_code": null, "branch": null, "bank": "ROBECO DIRECT N.V.", "address": "COOLSINGEL 120", "zip": "3011 AG", "city": "ROTTERDAM"},
{"id": 29241, "swift_code": "RGRBNL2RR11", "bank_code": "RGRB", "branch_code": null, "branch": null, "bank": "ROBECO DIRECT N.V.", "address": "COOLSINGEL 120", "zip": "3011 AG", "city": "ROTTERDAM"},
{"id": 29241, "swift_code": "RGRBNL2RR12", "bank_code": "RGRB", "branch_code": null, "branch": null, "bank": "ROBECO DIRECT N.V.", "address": "COOLSINGEL 120", "zip": "3011 AG", "city": "ROTTERDAM"},
{"id": 29241, "swift_code": "RGRBNL2RR13", "bank_code": "RGRB", "branch_code": null, "branch": null, "bank": "ROBECO DIRECT N.V.", "address": "COOLSINGEL 120", "zip": "3011 AG", "city": "ROTTERDAM"},
{"id": 29241, "swift_code": "RGRBNL2RR14", "bank_code": "RGRB", "branch_code": null, "branch": null, "bank": "ROBECO DIRECT N.V.", "address": "COOLSINGEL 120", "zip": "3011 AG", "city": "ROTTERDAM"},
{"id": 29241, "swift_code": "RGRBNL2RR15", "bank_code": "RGRB", "branch_code": null, "branch": null, "bank": "ROBECO DIRECT N.V.", "address": "COOLSINGEL 120", "zip": "3011 AG", "city": "ROTTERDAM"},
{"id": 29241, "swift_code": "RGRBNL2RR16", "bank_code": "RGRB", "branch_code": null, "branch": null, "bank": "ROBECO DIRECT N.V.", "address": "COOLSINGEL 120", "zip": "3011 AG", "city": "ROTTERDAM"},
{"id": 29241, "swift_code": "RGRBNL2RR17", "bank_code": "RGRB", "branch_code": null, "branch": null, "bank": "ROBECO DIRECT N.V.", "address": "COOLSINGEL 120", "zip": "3011 AG", "city": "ROTTERDAM"},
{"id": 29241, "swift_code": "RGRBNL2RR18", "bank_code": "RGRB", "branch_code": null, "branch": null, "bank": "ROBECO DIRECT N.V.", "address": "COOLSINGEL 120", "zip": "3011 AG", "city": "ROTTERDAM"},
{"id": 29241, "swift_code": "RGRBNL2RR19", "bank_code": "RGRB", "branch_code": null, "branch": null, "bank": "ROBECO DIRECT N.V.", "address": "COOLSINGEL 120", "zip": "3011 AG", "city": "ROTTERDAM"},
{"id": 29241, "swift_code": "RGRBNL2RR20", "bank_code": "RGRB", "branch_code": null, "branch": null, "bank": "ROBECO DIRECT N.V.", "address": "COOLSINGEL 120", "zip": "3011 AG", "city": "ROTTERDAM"},
{"id": 29241, "swift_code": "RGRBNL2RRO1", "bank_code": "RGRB", "branch_code": null, "branch": null, "bank": "ROBECO DIRECT N.V.", "address": "COOLSINGEL 120", "zip": "3011 AG", "city": "ROTTERDAM"},
{"id": 29241, "swift_code": "RGRBNL2RRO3", "bank_code": "RGRB", "branch_code": null, "branch": null, "bank": "ROBECO DIRECT N.V.", "address": "COOLSINGEL 120", "zip": "3011 AG", "city": "ROTTERDAM"},
{"id": 29241, "swift_code": "RGRBNL2RRO4", "bank_code": "RGRB", "branch_code": null, "branch": null, "bank": "ROBECO DIRECT N.V.", "address": "COOLSINGEL 120", "zip": "3011 AG", "city": "ROTTERDAM"},
{"id": 29241, "swift_code": "RGRBNL2RRTS", "bank_code": "RGRB", "branch_code": null, "branch": null, "bank": "ROBECO DIRECT N.V.", "address": "COOLSINGEL 120", "zip": "3011 AG", "city": "ROTTERDAM"},
{"id": 29241, "swift_code": "RGRBNL2RRUH", "bank_code": "RGRB", "branch_code": null, "branch": null, "bank": "ROBECO DIRECT N.V.", "address": "COOLSINGEL 120", "zip": "3011 AG", "city": "ROTTERDAM"},
{"id": 29241, "swift_code": "RGRBNL2RRUS", "bank_code": "RGRB", "branch_code": null, "branch": null, "bank": "ROBECO DIRECT N.V.", "address": "COOLSINGEL 120", "zip": "3011 AG", "city": "ROTTERDAM"},
{"id": 29241, "swift_code": "RGRBNL2RSC1", "bank_code": "RGRB", "branch_code": null, "branch": null, "bank": "ROBECO DIRECT N.V.", "address": "COOLSINGEL 120", "zip": "3011 AG", "city": "ROTTERDAM"},
{"id": 29241, "swift_code": "RGRBNL2RSPG", "bank_code": "RGRB", "branch_code": null, "branch": null, "bank": "ROBECO DIRECT N.V.", "address": "COOLSINGEL 120", "zip": "3011 AG", "city": "ROTTERDAM"},
{"id": 29241, "swift_code": "RGRBNL2RUBX", "bank_code": "RGRB", "branch_code": null, "branch": null, "bank": "ROBECO DIRECT N.V.", "address": "COOLSINGEL 120", "zip": "3011 AG", "city": "ROTTERDAM"},
{"id": 29241, "swift_code": "RGRBNL2RUDH", "bank_code": "RGRB", "branch_code": null, "branch": null, "bank": "ROBECO DIRECT N.V.", "address": "COOLSINGEL 120", "zip": "3011 AG", "city": "ROTTERDAM"},
{"id": 29241, "swift_code": "RGRBNL2RUIH", "bank_code": "RGRB", "branch_code": null, "branch": null, "bank": "ROBECO DIRECT N.V.", "address": "COOLSINGEL 120", "zip": "3011 AG", "city": "ROTTERDAM"},
{"id": 29241, "swift_code": "RGRBNL2RUMH", "bank_code": "RGRB", "branch_code": null, "branch": null, "bank": "ROBECO DIRECT N.V.", "address": "COOLSINGEL 120", "zip": "3011 AG", "city": "ROTTERDAM"},
{"id": 29241, "swift_code": "RGRBNL2RUPE", "bank_code": "RGRB", "branch_code": null, "branch": null, "bank": "ROBECO DIRECT N.V.", "address": "COOLSINGEL 120", "zip": "3011 AG", "city": "ROTTERDAM"},
{"id": 29241, "swift_code": "RGRBNL2RUS3", "bank_code": "RGRB", "branch_code": null, "branch": null, "bank": "ROBECO DIRECT N.V.", "address": "COOLSINGEL 120", "zip": "3011 AG", "city": "ROTTERDAM"},
{"id": 29241, "swift_code": "RGRBNL2RUSC", "bank_code": "RGRB", "branch_code": null, "branch": null, "bank": "ROBECO DIRECT N.V.", "address": "COOLSINGEL 120", "zip": "3011 AG", "city": "ROTTERDAM"},
{"id": 29241, "swift_code": "RGRBNL2RUSF", "bank_code": "RGRB", "branch_code": null, "branch": null, "bank": "ROBECO DIRECT N.V.", "address": "COOLSINGEL 120", "zip": "3011 AG", "city": "ROTTERDAM"},
{"id": 29241, "swift_code": "RGRBNL2RUSL", "bank_code": "RGRB", "branch_code": null, "branch": null, "bank": "ROBECO DIRECT N.V.", "address": "COOLSINGEL 120", "zip": "3011 AG", "city": "ROTTERDAM"},
{"id": 29241, "swift_code": "RGRBNL2RVAL", "bank_code": "RGRB", "branch_code": null, "branch": null, "bank": "ROBECO DIRECT N.V.", "address": "COOLSINGEL 120", "zip": "3011 AG", "city": "ROTTERDAM"},
{"id": 29241, "swift_code": "RGRBNL2RWAD", "bank_code": "RGRB", "branch_code": null, "branch": null, "bank": "ROBECO DIRECT N.V.", "address": "COOLSINGEL 120", "zip": "3011 AG", "city": "ROTTERDAM"},
{"id": 29241, "swift_code": "RGRBNL2RWDS", "bank_code": "RGRB", "branch_code": null, "branch": null, "bank": "ROBECO DIRECT N.V.", "address": "COOLSINGEL 120", "zip": "3011 AG", "city": "ROTTERDAM"},
{"id": 29241, "swift_code": "RGRBNL2RWTS", "bank_code": "RGRB", "branch_code": null, "branch": null, "bank": "ROBECO DIRECT N.V.", "address": "COOLSINGEL 120", "zip": "3011 AG", "city": "ROTTERDAM"},
{"id": 29241, "swift_code": "RGRBNL2RWTV", "bank_code": "RGRB", "branch_code": null, "branch": null, "bank": "ROBECO DIRECT N.V.", "address": "COOLSINGEL 120", "zip": "3011 AG", "city": "ROTTERDAM"},
{"id": 29241, "swift_code": "RGRBNL2RYBH", "bank_code": "RGRB", "branch_code": null, "branch": null, "bank": "ROBECO DIRECT N.V.", "address": "COOLSINGEL 120", "zip": "3011 AG", "city": "ROTTERDAM"},
{"id": 29241, "swift_code": "RGRBNL2RRO5", "bank_code": "RGRB", "branch_code": null, "branch": null, "bank": "ROBECO DIRECT N.V.", "address": "COOLSINGEL 120", "zip": "3011 AG", "city": "ROTTERDAM"},
{"id": 29241, "swift_code": "RGRBNL2R001", "bank_code": "RGRB", "branch_code": null, "branch": null, "bank": "ROBECO DIRECT N.V.", "address": "COOLSINGEL 120", "zip": "3011 AG", "city": "ROTTERDAM"},
{"id": 29241, "swift_code": "RGRBNL2R002", "bank_code": "RGRB", "branch_code": null, "branch": null, "bank": "ROBECO DIRECT N.V.", "address": "COOLSINGEL 120", "zip": "3011 AG", "city": "ROTTERDAM"},
{"id": 29241, "swift_code": "RGRBNL2R003", "bank_code": "RGRB", "branch_code": null, "branch": null, "bank": "ROBECO DIRECT N.V.", "address": "COOLSINGEL 120", "zip": "3011 AG", "city": "ROTTERDAM"},
{"id": 29241, "swift_code": "RGRBNL2R004", "bank_code": "RGRB", "branch_code": null, "branch": null, "bank": "ROBECO DIRECT N.V.", "address": "COOLSINGEL 120", "zip": "3011 AG", "city": "ROTTERDAM"},
{"id": 29241, "swift_code": "RGRBNL2R005", "bank_code": "RGRB", "branch_code": null, "branch": null, "bank": "ROBECO DIRECT N.V.", "address": "COOLSINGEL 120", "zip": "3011 AG", "city": "ROTTERDAM"},
{"id": 29241, "swift_code": "RGRBNL2R006", "bank_code": "RGRB", "branch_code": null, "branch": null, "bank": "ROBECO DIRECT N.V.", "address": "COOLSINGEL 120", "zip": "3011 AG", "city": "ROTTERDAM"},
{"id": 29241, "swift_code": "RGRBNL2R007", "bank_code": "RGRB", "branch_code": null, "branch": null, "bank": "ROBECO DIRECT N.V.", "address": "COOLSINGEL 120", "zip": "3011 AG", "city": "ROTTERDAM"},
{"id": 29241, "swift_code": "RGRBNL2R008", "bank_code": "RGRB", "branch_code": null, "branch": null, "bank": "ROBECO DIRECT N.V.", "address": "COOLSINGEL 120", "zip": "3011 AG", "city": "ROTTERDAM"},
{"id": 29241, "swift_code": "RGRBNL2R009", "bank_code": "RGRB", "branch_code": null, "branch": null, "bank": "ROBECO DIRECT N.V.", "address": "COOLSINGEL 120", "zip": "3011 AG", "city": "ROTTERDAM"},
{"id": 29241, "swift_code": "RGRBNL2R010", "bank_code": "RGRB", "branch_code": null, "branch": null, "bank": "ROBECO DIRECT N.V.", "address": "COOLSINGEL 120", "zip": "3011 AG", "city": "ROTTERDAM"},
{"id": 29241, "swift_code": "RGRBNL2RA15", "bank_code": "RGRB", "branch_code": null, "branch": null, "bank": "ROBECO DIRECT N.V.", "address": "COOLSINGEL 120", "zip": "3011 AG", "city": "ROTTERDAM"},
{"id": 29241, "swift_code": "RGRBNL2RA20", "bank_code": "RGRB", "branch_code": null, "branch": null, "bank": "ROBECO DIRECT N.V.", "address": "COOLSINGEL 120", "zip": "3011 AG", "city": "ROTTERDAM"},
{"id": 29241, "swift_code": "RGRBNL2RA25", "bank_code": "RGRB", "branch_code": null, "branch": null, "bank": "ROBECO DIRECT N.V.", "address": "COOLSINGEL 120", "zip": "3011 AG", "city": "ROTTERDAM"},
{"id": 29241, "swift_code": "RGRBNL2RA30", "bank_code": "RGRB", "branch_code": null, "branch": null, "bank": "ROBECO DIRECT N.V.", "address": "COOLSINGEL 120", "zip": "3011 AG", "city": "ROTTERDAM"},
{"id": 29241, "swift_code": "RGRBNL2RA35", "bank_code": "RGRB", "branch_code": null, "branch": null, "bank": "ROBECO DIRECT N.V.", "address": "COOLSINGEL 120", "zip": "3011 AG", "city": "ROTTERDAM"},
{"id": 29241, "swift_code": "RGRBNL2RA40", "bank_code": "RGRB", "branch_code": null, "branch": null, "bank": "ROBECO DIRECT N.V.", "address": "COOLSINGEL 120", "zip": "3011 AG", "city": "ROTTERDAM"},
{"id": 29241, "swift_code": "RGRBNL2RAGA", "bank_code": "RGRB", "branch_code": null, "branch": null, "bank": "ROBECO DIRECT N.V.", "address": "COOLSINGEL 120", "zip": "3011 AG", "city": "ROTTERDAM"},
{"id": 29241, "swift_code": "RGRBNL2RCE7", "bank_code": "RGRB", "branch_code": null, "branch": null, "bank": "ROBECO DIRECT N.V.", "address": "COOLSINGEL 120", "zip": "3011 AG", "city": "ROTTERDAM"},
{"id": 29241, "swift_code": "RGRBNL2RDEF", "bank_code": "RGRB", "branch_code": null, "branch": null, "bank": "ROBECO DIRECT N.V.", "address": "COOLSINGEL 120", "zip": "3011 AG", "city": "ROTTERDAM"},
{"id": 29241, "swift_code": "RGRBNL2RDNE", "bank_code": "RGRB", "branch_code": null, "branch": null, "bank": "ROBECO DIRECT N.V.", "address": "COOLSINGEL 120", "zip": "3011 AG", "city": "ROTTERDAM"},
{"id": 29241, "swift_code": "RGRBNL2RFII", "bank_code": "RGRB", "branch_code": null, "branch": null, "bank": "ROBECO DIRECT N.V.", "address": "COOLSINGEL 120", "zip": "3011 AG", "city": "ROTTERDAM"},
{"id": 29241, "swift_code": "RGRBNL2RGGT", "bank_code": "RGRB", "branch_code": null, "branch": null, "bank": "ROBECO DIRECT N.V.", "address": "COOLSINGEL 120", "zip": "3011 AG", "city": "ROTTERDAM"},
{"id": 29241, "swift_code": "RGRBNL2RIUI", "bank_code": "RGRB", "branch_code": null, "branch": null, "bank": "ROBECO DIRECT N.V.", "address": "COOLSINGEL 120", "zip": "3011 AG", "city": "ROTTERDAM"},
{"id": 29241, "swift_code": "RGRBNL2ROFF", "bank_code": "RGRB", "branch_code": null, "branch": null, "bank": "ROBECO DIRECT N.V.", "address": "COOLSINGEL 120", "zip": "3011 AG", "city": "ROTTERDAM"},
{"id": 29241, "swift_code": "RGRBNL2RPB1", "bank_code": "RGRB", "branch_code": null, "branch": null, "bank": "ROBECO DIRECT N.V.", "address": "COOLSINGEL 120", "zip": "3011 AG", "city": "ROTTERDAM"},
{"id": 29241, "swift_code": "RGRBNL2RQE5", "bank_code": "RGRB", "branch_code": null, "branch": null, "bank": "ROBECO DIRECT N.V.", "address": "COOLSINGEL 120", "zip": "3011 AG", "city": "ROTTERDAM"},
{"id": 29241, "swift_code": "RGRBNL2RR45", "bank_code": "RGRB", "branch_code": null, "branch": null, "bank": "ROBECO DIRECT N.V.", "address": "COOLSINGEL 120", "zip": "3011 AG", "city": "ROTTERDAM"},
{"id": 29241, "swift_code": "RGRBNL2RR50", "bank_code": "RGRB", "branch_code": null, "branch": null, "bank": "ROBECO DIRECT N.V.", "address": "COOLSINGEL 120", "zip": "3011 AG", "city": "ROTTERDAM"},
{"id": 29241, "swift_code": "RGRBNL2RR55", "bank_code": "RGRB", "branch_code": null, "branch": null, "bank": "ROBECO DIRECT N.V.", "address": "COOLSINGEL 120", "zip": "3011 AG", "city": "ROTTERDAM"},
{"id": 29241, "swift_code": "RGRBNL2RR60", "bank_code": "RGRB", "branch_code": null, "branch": null, "bank": "ROBECO DIRECT N.V.", "address": "COOLSINGEL 120", "zip": "3011 AG", "city": "ROTTERDAM"},
{"id": 29241, "swift_code": "RGRBNL2RRBA", "bank_code": "RGRB", "branch_code": null, "branch": null, "bank": "ROBECO DIRECT N.V.", "address": "COOLSINGEL 120", "zip": "3011 AG", "city": "ROTTERDAM"},
{"id": 29241, "swift_code": "RGRBNL2RRBB", "bank_code": "RGRB", "branch_code": null, "branch": null, "bank": "ROBECO DIRECT N.V.", "address": "COOLSINGEL 120", "zip": "3011 AG", "city": "ROTTERDAM"},
{"id": 29241, "swift_code": "RGRBNL2RROF", "bank_code": "RGRB", "branch_code": null, "branch": null, "bank": "ROBECO DIRECT N.V.", "address": "COOLSINGEL 120", "zip": "3011 AG", "city": "ROTTERDAM"},
{"id": 29241, "swift_code": "RGRBNL2RSAF", "bank_code": "RGRB", "branch_code": null, "branch": null, "bank": "ROBECO DIRECT N.V.", "address": "COOLSINGEL 120", "zip": "3011 AG", "city": "ROTTERDAM"},
{"id": 29241, "swift_code": "RGRBNL2RSMA", "bank_code": "RGRB", "branch_code": null, "branch": null, "bank": "ROBECO DIRECT N.V.", "address": "COOLSINGEL 120", "zip": "3011 AG", "city": "ROTTERDAM"},
{"id": 29241, "swift_code": "RGRBNL2RUIE", "bank_code": "RGRB", "branch_code": null, "branch": null, "bank": "ROBECO DIRECT N.V.", "address": "COOLSINGEL 120", "zip": "3011 AG", "city": "ROTTERDAM"},
{"id": 29241, "swift_code": "RGRBNL2RUIL", "bank_code": "RGRB", "branch_code": null, "branch": null, "bank": "ROBECO DIRECT N.V.", "address": "COOLSINGEL 120", "zip": "3011 AG", "city": "ROTTERDAM"},
{"id": 29241, "swift_code": "RGRBNL2RCPE", "bank_code": "RGRB", "branch_code": null, "branch": null, "bank": "ROBECO DIRECT N.V.", "address": "COOLSINGEL 120", "zip": "3011 AG", "city": "ROTTERDAM"},
{"id": 29241, "swift_code": "RGRBNL2RRBN", "bank_code": "RGRB", "branch_code": null, "branch": null, "bank": "ROBECO DIRECT N.V.", "address": "COOLSINGEL 120", "zip": "3011 AG", "city": "ROTTERDAM"},
{"id": 30100, "swift_code": "SNSBNL2ASFM", "bank_code": "SNSB", "branch_code": null, "branch": null, "bank": "SNS BANK N.V.", "address": "UTRECHTSESTRAAT 46", "zip": "6800 HW", "city": "ARNHEM", "support_codes": 15},
{"id": 30100, "swift_code": "SNSBNL2ASEC", "bank_code": "SNSB", "branch_code": null, "branch": null, "bank": "SNS BANK N.V.", "address": "UTRECHTSESTRAAT 46", "zip": "6800 HW", "city": "ARNHEM", "support_codes": 15},
{"id": 30100, "swift_code": "SNSBNL2ABOS", "bank_code": "SNSB", "branch_code": null, "branch": null, "bank": "SNS BANK N.V.", "address": "UTRECHTSESTRAAT 46", "zip": "6800 HW", "city": "ARNHEM", "support_codes": 15},
{"id": 30100, "swift_code": "SNSBNL2AXXX", "bank_code": "SNSB", "branch_code": null, "branch": null, "bank": "SNS BANK N.V.", "address": "UTRECHTSESTRAAT 46", "zip": "6800 HW", "city": "ARNHEM", "support_codes": 15},
{"id": 84882, "swift_code": "SOVENL2AXXX", "bank_code": "SOVE", "branch_code": null, "branch": null, "bank": "SOCIALE VERZEKERINGSBANK", "address": "", "city": ""},
{"id": 74742, "swift_code": "SOGENL2ATRA", "bank_code": "SOGE", "branch_code": null, "branch": null, "bank": "SOCIETE GENERALE", "address": "REMBRANDT TOWER AMSTELPLEIN 1", "zip": "1096 HA", "city": "AMSTERDAM", "support_codes": 15},
{"id": 74742, "swift_code": "SOGENL2AXXX", "bank_code": "SOGE", "branch_code": null, "branch": null, "bank": "SOCIETE GENERALE", "address": "REMBRANDT TOWER AMSTELPLEIN 1", "zip": "1096 HA", "city": "AMSTERDAM", "support_codes": 15},
{"id": 193848, "swift_code": "STALNL2GXXX", "bank_code": "STAL", "branch_code": null, "branch": null, "bank": "STAALBANKIERS N.V.", "address": "LANGE HOUTSTRAAT 8", "zip": "2511 CW", "city": "DEN HAAG"},
{"id": 193848, "swift_code": "STALNL2GNMC", "bank_code": "STAL", "branch_code": null, "branch": null, "bank": "STAALBANKIERS N.V.", "address": "LANGE HOUTSTRAAT 8", "zip": "2511 CW", "city": "DEN HAAG"},
{"id": 84882, "swift_code": "SOVENL2AXXX", "bank_code": "SOVE", "branch_code": null, "branch": null, "bank": "SOCIALE VERZEKERINGSBANK", "address": "", "city": ""},
{"id": 61523, "swift_code": "HANDNL2AXXX", "bank_code": "HAND", "branch_code": null, "branch": null, "bank": "SVENSKA HANDELSBANKEN (PUBL) AB", "address": "STRAWINSKYLAAN 3051", "zip": "1077 ZX", "city": "AMSTERDAM", "support_codes": 15},
{"id": 61523, "swift_code": "HANDNL2ACOL", "bank_code": "HAND", "branch_code": null, "branch": null, "bank": "SVENSKA HANDELSBANKEN (PUBL) AB", "address": "STRAWINSKYLAAN 3051", "zip": "1077 ZX", "city": "AMSTERDAM", "support_codes": 15},
{"id": 325875, "swift_code": "RBOSNL2ATCM", "bank_code": "RBOS", "branch_code": null, "branch": null, "bank": "THE ROYAL BANK OF SCOTLAND PLC THE NETHERLANDS (FORMERLY KNOWN AS RBS NV)", "address": "GUSTAV MAHLERLAAN 10", "zip": "1082 PP", "city": "AMESTERDAM"},
{"id": 325875, "swift_code": "RBOSNL2AGLO", "bank_code": "RBOS", "branch_code": null, "branch": null, "bank": "THE ROYAL BANK OF SCOTLAND PLC THE NETHERLANDS (FORMERLY KNOWN AS RBS NV)", "address": "GUSTAV MAHLERLAAN 10", "zip": "1082 PP", "city": "AMESTERDAM"},
{"id": 325875, "swift_code": "RBOSNL2AXXX", "bank_code": "RBOS", "branch_code": null, "branch": null, "bank": "THE ROYAL BANK OF SCOTLAND PLC THE NETHERLANDS (FORMERLY KNOWN AS RBS NV)", "address": "GUSTAV MAHLERLAAN 10", "zip": "1082 PP", "city": "AMESTERDAM"},
{"id": 325875, "swift_code": "RBOSNL2AXXX", "bank_code": "RBOS", "branch_code": null, "branch": null, "bank": "THE ROYAL BANK OF SCOTLAND PLC THE NETHERLANDS (FORMERLY KNOWN AS RBS NV)", "address": "GUSTAV MAHLERLAAN 10", "zip": "1082 PP", "city": "AMESTERDAM"},
{"id": 325875, "swift_code": "RBOSNL2ANMC", "bank_code": "RBOS", "branch_code": null, "branch": null, "bank": "THE ROYAL BANK OF SCOTLAND PLC THE NETHERLANDS (FORMERLY KNOWN AS RBS NV)", "address": "GUSTAV MAHLERLAAN 10", "zip": "1082 PP", "city": "AMESTERDAM"},
{"id": 325875, "swift_code": "RBOSNL2AEQT", "bank_code": "RBOS", "branch_code": null, "branch": null, "bank": "THE ROYAL BANK OF SCOTLAND PLC THE NETHERLANDS (FORMERLY KNOWN AS RBS NV)", "address": "GUSTAV MAHLERLAAN 10", "zip": "1082 PP", "city": "AMESTERDAM"},
{"id": 325875, "swift_code": "RBOSNL2ATCM", "bank_code": "RBOS", "branch_code": null, "branch": null, "bank": "THE ROYAL BANK OF SCOTLAND PLC THE NETHERLANDS (FORMERLY KNOWN AS RBS NV)", "address": "GUSTAV MAHLERLAAN 10", "zip": "1082 PP", "city": "AMESTERDAM"},
{"id": 325875, "swift_code": "RBOSNL2AXXX", "bank_code": "RBOS", "branch_code": null, "branch": null, "bank": "THE ROYAL BANK OF SCOTLAND PLC THE NETHERLANDS (FORMERLY KNOWN AS RBS NV)", "address": "GUSTAV MAHLERLAAN 10", "zip": "1082 PP", "city": "AMESTERDAM"},
{"id": 325875, "swift_code": "RBOSNL2AXXX", "bank_code": "RBOS", "branch_code": null, "branch": null, "bank": "THE ROYAL BANK OF SCOTLAND PLC THE NETHERLANDS (FORMERLY KNOWN AS RBS NV)", "address": "GUSTAV MAHLERLAAN 10", "zip": "1082 PP", "city": "AMESTERDAM"},
{"id": 200986, "swift_code": "GILLNL2AXXX", "bank_code": "GILL", "branch_code": null, "branch": null, "bank": "INSINGERGILISSEN", "address": "KEIZERSGRACHT 617", "zip": "1017 DS", "city": "AMSTERDAM", "support_codes": 7},
{"id": 251933, "swift_code": "TRIONL2UXXX", "bank_code": "TRIO", "branch_code": null, "branch": null, "bank": "TRIODOS BANK N.V.", "address": "UTRECHTSEWEG 60", "zip": "3704 HE", "city": "ZEIST", "support_codes": 15},
{"id": 398886, "swift_code": "UBSWNL2AXXX", "bank_code": "UBSW", "branch_code": null, "branch": null, "bank": "UBS BANK (NETHERLANDS) B.V.", "address": "REMBRANDT TOWER FLOOR 30 AMSTELPLEIN 1", "zip": "1096 HA", "city": "AMSTERDAM"},
{"id": 313708, "swift_code": "SBWRNL21XXX", "bank_code": "SBWR", "branch_code": null, "branch": null, "bank": "UBS INVESTMENT BANK", "address": "", "city": ""},
{"id": 15257, "swift_code": "VOWANL21DFM", "bank_code": "VOWA", "branch_code": null, "branch": null, "bank": "VOLKSWAGEN BANK GMBH FILIAAL NEDERLAND", "address": "TERMINALWEG 20", "zip": "3821 AJ", "city": "AMERSFOORT", "support_codes": 15},
{"id": 15257, "swift_code": "VOWANL21XXX", "bank_code": "VOWA", "branch_code": null, "branch": null, "bank": "VOLKSWAGEN BANK GMBH FILIAAL NEDERLAND", "address": "TERMINALWEG 20", "zip": "3821 AJ", "city": "AMERSFOORT", "support_codes": 15},
{"id": 686, "swift_code": "KABANL2AXXX", "bank_code": "KABA", "branch_code": null, "branch": null, "bank": "YAPI KREDI BANK NEDERLAND N.V.", "address": "REMBRANDT TOWER FLOOR 16 AMSTELPLEIN 1", "zip": "1096 HA", "city": "AMSTERDAM", "support_codes": 1},
{"id": 25609, "swift_code": "ZWLBNL21XXX", "bank_code": "ZWLB", "branch_code": null, "branch": null, "bank": "SNS BANK", "address": "", "city": "", "support_codes": 7}
    ]
}
