{
    "country": "Slovakia",
    "country_code": "SK",
    "ISO_3166_1": { "name": "Slovakia" , "name_fr": "Slovaquie (la)" , "alpha2": "SK" , "alpha3": "SVK" , "numeric": 703 },
    "list": [
{"zip":"829 90","bank_code":200,"bank":"VÚB banka, a.s.","support_codes":15,"address":"Mlynské nivy 1","city":"Bratislava","swift_code":"SUBASKBXXXX","id":200},
{"zip":"813 25","bank_code":720,"bank":"Národná banka Slovenska","support_codes":7,"address":"Imricha Karvaša 1","city":"Bratislava","swift_code":"NBSBSKBXXXX","id":720},
{"zip":"832 37","bank_code":900,"bank":"Slovenská sporitelna, a.s.","support_codes":15,"address":"Tomášikova 48","city":"Bratislava","swift_code":"GIBASKBXXXX","id":900},
{"zip":"850 05","bank_code":1100,"bank":"Tatra banka, a.s.","support_codes":15,"address":"Hodžovo námestie 3","city":"Bratislava","swift_code":"TATRSKBXXXX","id":1100},
{"zip":"813 33","bank_code":1111,"bank":"Unicredit Bank Slovakia, a.s.","support_codes":15,"address":"Šancová 1\/A","city":"Bratislava","swift_code":"UNCRSKBXXXX","id":1111},
{"zip":"","bank_code":2010,"bank":"FIO BANKA, A.S.","support_codes":7,"address":"","city":"","swift_code":"FIOBCZPPXXX","id":2010},
{"zip":"814 99","bank_code":3000,"bank":"Slovenská zárucná a rozvojová banka, a.s.","support_codes":7,"address":"Štefánikova 27","city":"Bratislava","swift_code":"SLZBSKBAXXX","id":3000},
{"zip":"810 00","bank_code":3100,"bank":"SBERBANK SLOVENSKO A.S.","support_codes":7,"address":"Vysoká 9","city":"Bratislava","swift_code":"LUBASKBXXXX","id":3100},
{"zip":"811 08","bank_code":5200,"bank":"OTP Banka Slovensko, a.s.","support_codes":7,"address":"Dunajská 7114\/15","city":"Bratislava","swift_code":"OTPVSKBXXXX","id":5200},
{"zip":"010 11","bank_code":5600,"bank":"Primabanka Slovensko, a.s.","support_codes":7,"address":"Hodžova 11","city":"Žilina","swift_code":"KOMASK2XXXX","id":5600},
{"zip":"","bank_code":5800,"bank":"J&amp;T BANKA AS","support_codes":7,"address":"","city":"","swift_code":"JTBPCZPPXXX","id":5800},
{"zip":"829 48","bank_code":5900,"bank":"Prvá stavebná sporitelna, a.s.","support_codes":7,"address":"Bajkalská 30","city":"Bratislava","swift_code":"PRVASKBAXXX","id":5900},
{"zip":"811 02","bank_code":6500,"bank":"Poštová banka, a.s.","support_codes":7,"address":"Dvorákovo nábrežie 4","city":"Bratislava","swift_code":"POBNSKBAXXX","id":6500},
{"zip":"815 63","bank_code":7500,"bank":"Ceskoslovenská obchodná banka, a.s","support_codes":15,"address":"Michalská 18","city":"Bratislava","swift_code":"CEKOSKBXXXX","id":7500},
{"zip":"824 68","bank_code":7930,"bank":"Wustenrot stavebná sporitelna, a.s.","support_codes":1,"address":"Grösslingová 77","city":"Bratislava","swift_code":"WUSTSKBAXXX","id":7930},
{"zip":"810 00","bank_code":8100,"bank":"Komercní banka, a.s","support_codes":15,"address":"Hodžovo námestie 1A","city":"Bratislava","swift_code":"KOMBSKBAXXX","id":8100},
{"zip":"851 01","bank_code":8120,"bank":"PRIVATBANKA, A.S.","support_codes":7,"address":"EINSTEINOVA 25","city":"Bratislava","swift_code":"BSLOSK22XXX","id":8120},
{"zip":"813 50","bank_code":8160,"bank":"EXIMBANKA SR","support_codes":1,"address":"Grösslingová 1","city":"Bratislava","swift_code":"EXSKSKBXXXX","id":8160},
{"zip":"813 23","bank_code":8170,"bank":"CSOB stavebná sporitelna, a.s.","support_codes":7,"address":"Radlinského 10","city":"Bratislava","swift_code":"KBSPSKBXXXX","id":8170},
{"zip":"810 05","bank_code":8180,"bank":"Štátna pokladnica","support_codes":7,"address":"Radlinského 32","city":"Bratislava","swift_code":"SPSRSKBAXXX","id":8180},
{"zip":"811 02","bank_code":8320,"bank":"J&T BANKA, a.s.","support_codes":7,"address":"Dvorákovo nábrežie 4","city":"Bratislava","swift_code":"JTBPSKBAXXX","id":8320},
{"zip":"811 01","bank_code":8330,"bank":"Fio banka, a.s.","support_codes":7,"address":"Nám. SNP 480\/21","city":"Bratislava","swift_code":"FIOZSKBAXXX","id":8330},
{"zip":"851 01","bank_code":8360,"bank":"mBank S.A., pobocka zahranicnej banky","support_codes":7,"address":"Einsteinova 24","city":"Bratislava","swift_code":"BREXSKBXXXX","id":8360},
{"zip":"821 09","bank_code":8370,"bank":"Oberbank AG","support_codes":15,"address":"Prievozská 4\/A, ","city":"Bratislava","swift_code":"OBKLSKBAXXX","id":8370},
{"zip":"811 09","bank_code":8420,"bank":"BKS Bank AG","support_codes":7,"address":"Eurovea Central 1 Pribinova 4","city":"Bratislava","swift_code":"BFKKSKBBXXX","id":8420}
    ]
}
